name,company,street,postcode,city,country,capacity,energy_source,technology,additional_info,type,chp,commissioned,comment,source,eic_code,lat,lon,energy_source_level_1,energy_source_level_2,energy_source_level_3
AL-1,NUON,Marketkant 12-10,1341AK,Almere,NL,62.0,Natural gas,,,,,,,Tennet_Q42015,,52.38811,5.2154,Fossil fuels,Natural gas,
AL-2,NUON,Markerkant 12-10,1341AK,Almere,NL,55.0,Natural gas,,,,,,,Tennet_Q42015,,52.38811,5.2154,Fossil fuels,Natural gas,
Amercentrale (A8),ESSENT ENERGY TRADING B.V.,Amerweg .,4931NC,Geertruidenberg,NL,645.0,Hard coal,Steam turbine,,,,,,Tennet_Q22015,,51.70838,4.84381,Fossil fuels,Hard coal,
Amercentrale (A9),ESSENT ENERGY TRADING B.V.,Amerweg .,4931NC,Geertruidenberg,NL,643.0,Hard coal,Steam turbine,,,,,,Tennet_Q12015,,51.70838,4.84381,Fossil fuels,Hard coal,
Amylum,AMYLUM NEDERLAND B.V.,Lagedijk 5,1541KA,Koog aan de Zaan,NL,7.0,Natural gas,,,,,,,Tennet_Q12015,,52.46552,4.81361,Fossil fuels,Natural gas,
BOZ,ESSENT ENERGY TRADING B.V.,Moervaart 1,4622RR,Bergen op Zoom,NL,33.0,Natural gas,,,,,,,Tennet_Q42015,,51.50555,4.33998,Fossil fuels,Natural gas,
Borssele 30,DELTA ENERGY B.V.,Zeedijk 32,4454PM,Borssele,NL,512.0,Nuclear,Steam turbine,,,,,,Tennet_Q42015,,51.43148,3.71871,Nuclear,,
CUIJK,ESSENT ENERGY TRADING B.V.,Lange Ooijen 31,5433NG,Katwijk (NB),NL,25.0,Hard coal,Steam turbine,,,,,,Tennet_Q12015,,51.75381,5.8528,Fossil fuels,Hard coal,
Centrale Bergum (CB10),ELECTRABEL NEDERLAND NV,Koumarwei 2,9251ML,Bergum,NL,72.0,Natural gas,,,,,,,Tennet_Q22015,,53.20975,6.02959,Fossil fuels,Natural gas,
Centrale Bergum (CB20),ELECTRABEL NEDERLAND NV,Koumarwei 2,9251ML,Bergum,NL,72.0,Natural gas,,,,,,,Tennet_Q42015,,53.20975,6.02959,Fossil fuels,Natural gas,
Centrale Diemen (DM33),NUON,Overdiemerweg 35,1111PP,Diemen,NL,249.0,Natural gas,,,,,,,Tennet_Q32015,,52.33898,5.02134,Fossil fuels,Natural gas,
Centrale Diemen (DM34),VATTENFALL ENERGY TRADING,Overdiemerweg 35,1111PP,Diemen,NL,435.0,Natural gas,,,,,,,Tennet_Q42015,,52.33898,5.02134,Fossil fuels,Natural gas,
Centrale Galileistraat (FG1),EON BENELUX,Galileistraat 15,3029AL,Rotterdam,NL,0.0,Natural gas,,,,,,,Tennet_Q32015,,51.91025,4.42608,Fossil fuels,Natural gas,
Centrale Gelderland (CG13),ELECTRABEL NEDERLAND NV,Weurtseweg 460,6541BE,Nijmegen,NL,592.0,Hard coal,Steam turbine,,,,,,Tennet_Q12015,,51.85607,5.83043,Fossil fuels,Hard coal,
Centrale Harculo (HC60),ELECTRABEL NEDERLAND NV,IJsselcentraleweg 6,8015PA,Zwolle,NL,80.0,Natural gas,,,,,,,Tennet_Q32015,,52.46907,6.10767,Fossil fuels,Natural gas,
Centrale Hemweg (HW-7),NUON,Petroliumhavenweg 1,1041AB,Amsterdam,NL,585.0,Natural gas,,,,,,,Tennet_Q32015,,52.40537,4.84482,Fossil fuels,Natural gas,
Centrale Hemweg (HW-8),NUON,Petroliumhavenweg 1,1041AB,Amsterdam,NL,650.0,Hard coal,Steam turbine,,,,,,Tennet_Q32015,,52.40537,4.84482,Fossil fuels,Hard coal,
Centrale Hemweg (HW-9),NUONENW,Nieuwe Hemweg 25,1041AA,Amsterdam,NL,432.0,Natural gas,,,,,,,Tennet_Q42015,,52.40537,4.84482,Fossil fuels,Natural gas,
Centrale IJmond,NUON,Hoflaan 1,1951HJ,Velsen,NL,144.0,Other or unspecified energy sources,,,,,,,Tennet_Q32015,,52.47155,4.63473,Other or unspecified energy sources,,
Centrale Lage Weide,NUON,Atoomweg 7-9,3542AA,Utrecht,NL,247.0,Natural gas,,,,,,,Tennet_Q42015,,52.10292,5.07137,Fossil fuels,Natural gas,
Centrale Maasvlakte (MV1),EON BENELUX,Coloradoweg 10,3199LA,Rotterdam Maasvlakte,NL,555.0,Hard coal,Steam turbine,,,,,,Tennet_Q12015,,51.96262,4.02152,Fossil fuels,Hard coal,
Centrale Maasvlakte (MV2),EON BENELUX,Coloradoweg 10,3199LA,Rotterdam Maasvlakte,NL,555.0,Hard coal,Steam turbine,,,,,,Tennet_Q12015,,51.96262,4.02152,Fossil fuels,Hard coal,
Centrale Maasvlakte (MV3),EON BENELUX,Europaweg 911,3199LD,Maasvlakte Rotterdam,NL,1068.0,Hard coal,Steam turbine,,,,,,Tennet_Q42015,,51.96262,4.02152,Fossil fuels,Hard coal,
Centrale Merwedekanaal,NUON,Keulsekade 181,3534AC,Utrecht,NL,227.0,Natural gas,,,,,,,Tennet_Q42015,,52.10156,5.07981,Fossil fuels,Natural gas,
Centrale RoCa (RoCa3),EON BENELUX,Capelseweg 400,3068AX,Rotterdam,NL,218.0,Natural gas,,,,,,,Tennet_Q22015,,51.95366,4.56155,Fossil fuels,Natural gas,
Centrale Swentibold,ESSENT ENERGY TRADING B.V.,Kampstraat 101,6163HE,Geleen,NL,225.0,Natural gas,,,,,,,Tennet_Q12015,,50.97971,5.80891,Fossil fuels,Natural gas,
Centrale Velsen (VN24),NUON,Hoflaan 1,1951HJ,Velsen,NL,459.0,Natural gas,,,,,,,Tennet_Q22015,,52.47155,4.63473,Fossil fuels,Natural gas,
Centrale Velsen (VN25),NUON,Hoflaan 1,1951HJ,Velsen,NL,375.0,Natural gas,,,,,,,Tennet_Q32015,,52.47155,4.63473,Fossil fuels,Natural gas,
Clauscentrale (A),ESSENT ENERGY TRADING B.V.,Voortstraat 19,6051JP,Maasbracht,NL,640.0,Natural gas,,,,,,,Tennet_Q22015,,51.15409,5.90803,Fossil fuels,Natural gas,
Clauscentrale (C1),ESSENT ENERGY TRADING B.V.,Voortstraat 19,6051JP,Maasbracht,NL,310.0,Natural gas,,,,,,,Tennet_Q32015,,51.15409,5.90803,Fossil fuels,Natural gas,
Clauscentrale (C2),ESSENT ENERGY TRADING B.V.,Voortstraat 19,6051JP,Maasbracht,NL,310.0,Natural gas,,,,,,,Tennet_Q32015,,51.15409,5.90803,Fossil fuels,Natural gas,
Clauscentrale (C3),ESSENT ENERGY TRADING B.V.,Voortstraat 19,6051JP,Maasbracht,NL,310.0,Natural gas,,,,,,,Tennet_Q12015,,51.15409,5.90803,Fossil fuels,Natural gas,
Clauscentrale (C4),ESSENT ENERGY TRADING B.V.,Voortstraat 19,6051JP,Maasbracht,NL,510.0,Other or unspecified energy sources,,,,,,,Tennet_Q12015,,51.15409,5.90803,Other or unspecified energy sources,,
Delesto (Del1),ESSENT ENERGY TRADING B.V.,Oosterhorn 4,9936HD,Farmsum,NL,180.0,Natural gas,,,,,,,Tennet_Q22015,,53.31953,6.94811,Fossil fuels,Natural gas,
Delesto (Del2),ESSENT ENERGY TRADING B.V.,Oosterhorn 4,9936HD,Farmsum,NL,350.0,Natural gas,,,,,,,Tennet_Q12015,,53.31953,6.94811,Fossil fuels,Natural gas,
Dongecentrale,ESSENT ENERGY TRADING B.V.,Centraleweg 12,4931NB,Geertruidenberg,NL,0.0,Natural gas,,,,,,,Tennet_Q32015,,51.695,4.84652,Fossil fuels,Natural gas,
EDH,EON BENELUX,De Constant Rebecqueplein 20,2518RA,Den Haag,NL,112.0,Natural gas,,,,,,,Tennet_Q12015,,52.07659,4.29065,Fossil fuels,Natural gas,
EHV,ESSENT ENERGY TRADING B.V.,Beukenlaan 2A,5651CD,Eindhoven,NL,0.0,Natural gas,,,,,,,Tennet_Q32015,,51.44944,5.45296,Fossil fuels,Natural gas,
ELSTA,DELTA ENERGY B.V.,Herbert H. Dowweg 5D,4542NM,Hoek,NL,475.0,Natural gas,,,,,,,Tennet_Q42015,,51.33319,3.78947,Fossil fuels,Natural gas,
ENSCH,ESSENT ENERGY TRADING B.V.,Marssteden 35,7547TE,Enschede,NL,0.0,Natural gas,,,,,,,Tennet_Q12015,,52.21397,6.82872,Fossil fuels,Natural gas,
ERICA,ESSENT ENERGY TRADING B.V.,Beekweg 12,7887TN,Erica,NL,63.0,Natural gas,,,,,,,Tennet_Q42015,,52.69632,6.91411,Fossil fuels,Natural gas,
Eemscentrale (EC20),ELECTRABEL NEDERLAND NV,Robbenplaatweg 17,9979XL,Eemshaven,NL,131.0,Natural gas,,,,,,,Tennet_Q32015,,53.43949,6.86165,Fossil fuels,Natural gas,
Eemscentrale (EC3),ELECTRABEL NEDERLAND NV,Robbenplaatweg 17,9979XL,Eemshaven,NL,359.0,Natural gas,,,,,,,Tennet_Q42015,,53.43949,6.86165,Fossil fuels,Natural gas,
Eemscentrale (EC4),ELECTRABEL NEDERLAND NV,Robbenplaatweg 17,9979XL,Eemshaven,NL,359.0,Natural gas,,,,,,,Tennet_Q42015,,53.43949,6.86165,Fossil fuels,Natural gas,
Eemscentrale (EC5),ELECTRABEL NEDERLAND NV,Robbenplaatweg 17,9979XL,Eemshaven,NL,361.0,Natural gas,,,,,,,Tennet_Q22015,,53.43949,6.86165,Fossil fuels,Natural gas,
Eemscentrale (EC6),ELECTRABEL NEDERLAND NV,Robbenplaatweg 17,9979XL,Eemshaven,NL,359.0,Natural gas,,,,,,,Tennet_Q42015,,53.43949,6.86165,Fossil fuels,Natural gas,
Eemscentrale (EC7),ELECTRABEL NEDERLAND NV,Robbenplaatweg 17,9979XL,Eemshaven,NL,360.0,Natural gas,,,,,,,Tennet_Q42015,,53.43949,6.86165,Fossil fuels,Natural gas,
Enecogen,DONG NATURGAS A/S,Marktweg / Haven 6337 194,3198NB,Rotterdam-Europoort,NL,860.0,Natural gas,,,,,,,Tennet_Q22015,,51.95783,4.09246,Fossil fuels,Natural gas,
HM12,ESSENT ENERGY TRADING B.V.,Achterdijk 42,5705CB,Helmond,NL,0.0,Natural gas,,,,,,,Tennet_Q32015,,51.46341,5.68837,Fossil fuels,Natural gas,
HTB,ESSENT ENERGY TRADING B.V.,Zandzuigerstraat 8A,5222AH,'s Hertogenbosch,NL,32.0,Natural gas,,,,,,,Tennet_Q12015,,51.70164,5.28009,Fossil fuels,Natural gas,
KLAZI,ESSENT ENERGY TRADING B.V.,Zwet 20,7891XJ,Klazienaveen,NL,63.0,Natural gas,,,,,,,Tennet_Q42015,,52.73792,7.01368,Fossil fuels,Natural gas,
LD12,EON BENELUX,Langegracht 70,2312NV,Leiden,NL,83.0,Natural gas,,,,,,,Tennet_Q12015,,52.16385,4.49419,Fossil fuels,Natural gas,
LWE5,NUON,Atoomweg 7-9,3542AA,Utrecht,NL,0.0,Natural gas,,,,,,,Tennet_Q12015,,52.10292,5.07137,Fossil fuels,Natural gas,
MK11,NUON,Keulsekade 181,3534AC,Utrecht,NL,103.0,Natural gas,,,,,,,Tennet_Q12015,,52.10157,5.07982,Fossil fuels,Natural gas,
MVL380 Centrale Rotterdam 1,GDF SUEZ ENERGIE NEDERLAND NV,Missouriweg 69,3199LB,Maasvlakte Rotterdam,NL,736.0,Hard coal,Steam turbine,,,,,,Tennet_Q22015,,51.94496,4.06767,Fossil fuels,Hard coal,
Magnum Centrale (10),VATTENFALL,Huibertgatweg 1,9979XZ,Eemshaven,NL,437.0,Natural gas,,,,,,,Tennet_Q12015,,53.45149,6.85268,Fossil fuels,Natural gas,
Magnum Centrale (20),VATTENFALL,Huibertgatweg 1,9979XZ,Eemshaven,NL,437.0,Natural gas,,,,,,,Tennet_Q32015,,53.45149,6.85268,Fossil fuels,Natural gas,
Magnum Centrale (30),VATTENFALL,Huibertgatweg 1,9979XZ,Eemshaven,NL,437.0,Natural gas,,,,,,,Tennet_Q42015,,53.45149,6.85268,Fossil fuels,Natural gas,
Maxima Centrale (FL30),ELECTRABEL NEDERLAND NV,IJsselmeerdijk 101,2881RC,Lelystad,NL,119.0,Natural gas,,,,,,,Tennet_Q12015,,52.57753,5.52959,Fossil fuels,Natural gas,
Maxima Centrale (FL4),ELECTRABEL NEDERLAND NV,IJsselmeerdijk 101,8221RC,Lelystad,NL,439.0,Natural gas,,,,,,,Tennet_Q22015,,52.57753,5.52959,Fossil fuels,Natural gas,
Maxima Centrale (FL5),ELECTRABEL NEDERLAND NV,IJsselmeerdijk 101,8221RC,Lelystad,NL,438.0,Natural gas,,,,,,,Tennet_Q22015,,52.57753,5.52959,Fossil fuels,Natural gas,
Moerdijk 1,RWE SUPPLY & TRADING NL B.V.,Middenweg 36,4782PM,Moerdijk,NL,348.0,Natural gas,,,,,,,Tennet_Q42015,,51.68506,4.58094,Fossil fuels,Natural gas,
Moerdijk 2,RWE SUPPLY & TRADING NL B.V.,Middenweg 36,4782PM,Moerdijk,NL,426.0,Natural gas,,,,,,,Tennet_Q32015,,51.68506,4.58094,Fossil fuels,Natural gas,
PU-1,NUON,Hertzstraat 2,1446TG,Purmerend,NL,67.0,Natural gas,,,,,,,Tennet_Q42015,,52.51608,4.99524,Fossil fuels,Natural gas,
Pergen 1,ENECO ENERGIE,Vondelingenweg 601,3196KK,Rotterdam,NL,130.0,Natural gas,,,,,,,Tennet_Q12015,,51.87951,4.33828,Fossil fuels,Natural gas,
Pergen 2,ENECO ENERGIE,Vondelingenweg 601,3196KK,Rotterdam,NL,130.0,Natural gas,,,,,,,Tennet_Q12015,,51.87951,4.33828,Fossil fuels,Natural gas,
ROC1,EON BENELUX,Capelseweg 400,3068AX,Rotterdam,NL,24.0,Natural gas,,,,,,,Tennet_Q32015,,51.95369,4.5616,Fossil fuels,Natural gas,
ROC2,EON BENELUX,Capelseweg 400,3068AX,Rotterdam,NL,24.0,Natural gas,,,,,,,Tennet_Q32015,,51.95369,4.5616,Fossil fuels,Natural gas,
Rijnmond I,ENECO ENERGY TRADE BV,Petroleumweg/ Haven 3108 46,3196KD,Vondelingenplaat-R'dam,NL,820.0,Natural gas,,,,,,,Tennet_Q12015,,51.89326,4.34721,Fossil fuels,Natural gas,
Rijnmond II,PVNED,Petroleumweg 44,3196KD,Rotterdam,NL,445.833333333,Natural gas,,,,,,,Tennet_Q42015,,51.89326,4.34721,Fossil fuels,Natural gas,
SAL,ESSENT ENERGY TRADING B.V.,Boortorenweg 27,7550BD,Hengelo (O),NL,60.0,Natural gas,,,,,,,Tennet_Q22015,,52.24587,6.79479,Fossil fuels,Natural gas,
Sloecentrale (unit 10),EPZ,Albanieweg 10,4389PR,Ritthem,NL,450.0,Natural gas,,,,,,,Tennet_Q42015,,51.44796,3.69252,Fossil fuels,Natural gas,
Sloecentrale (unit 20),EPZ,Albanieweg 10,4389PR,Ritthem,NL,450.0,Natural gas,,,,,,,Tennet_Q42015,,51.44796,3.69252,Fossil fuels,Natural gas,
UCML,EON BENELUX,Coloradoweg 10,3199LA,Rotterdam Maasvlakte,NL,79.0,Natural gas,,,,,,,Tennet_Q22015,,51.95861,4.02609,Fossil fuels,Natural gas,
Willem Alexander Centrale,NUON,Roermondseweg 55,6081NT,Haelen,NL,249.0,Hard coal,Steam turbine,,,,,,Tennet_Q32015,,51.22402,5.97085,Fossil fuels,Hard coal,
corus,CORUS STAAL B.V.,Wenkebachstraat 1,1951JZ,Velsen-Noord,NL,38.0,Other or unspecified energy sources,,,,,,,Tennet_Q22015,,52.47708,4.58981,Other or unspecified energy sources,,
CYCOFOS TV2,,,,,FR,62.0,Other or unspecified energy sources,,,,,2009.0,,RTE,,43.42801,4.88652,Other or unspecified energy sources,,
PROVENCE 4 BIOMASSE,,,,,FR,0.0,Biomass and biogas,,,,,,Commissioning year not reported due to duplicate entries,RTE,,,,Renewable energy,Bioenergy,Biomass and biogas
CORDEMAIS 4,,,,,FR,580.0,Hard coal,Steam turbine,,,,,,RTE,,47.27712,-1.88012,Fossil fuels,Hard coal,
CORDEMAIS 5,,,,,FR,580.0,Hard coal,Steam turbine,,,,,,RTE,,47.27712,-1.88012,Fossil fuels,Hard coal,
EMILE HUCHET 4,,,,,FR,115.0,Hard coal,Steam turbine,,,,1990.0,,RTE,,49.15412,6.7047,Fossil fuels,Hard coal,
EMILE HUCHET 5,,,,,FR,285.0,Hard coal,Steam turbine,,,,1973.0,,RTE,,49.15412,6.7047,Fossil fuels,Hard coal,
EMILE HUCHET 6,,,,,FR,595.0,Hard coal,Steam turbine,,,,1981.0,,RTE,,49.15412,6.7047,Fossil fuels,Hard coal,
HAVRE 4,,,,,FR,580.0,Hard coal,Steam turbine,,,,,,RTE,,49.47553,0.14711,Fossil fuels,Hard coal,
LUCY 3,,,,,FR,245.0,Hard coal,Steam turbine,,,,1971.0,,RTE,,46.66714,4.35008,Fossil fuels,Hard coal,
PROVENCE 5,,,,,FR,595.0,Hard coal,Steam turbine,,,,1984.0,,RTE,,46.46883,5.48957,Fossil fuels,Hard coal,
ARAMON 1,,,,,FR,0.0,Oil,,,,,,Commissioning year not reported due to duplicate entries,RTE,,43.88178,4.65851,Fossil fuels,Oil,
ARAMON 2,,,,,FR,0.0,Oil,,,,,,Commissioning year not reported due to duplicate entries,RTE,,43.88178,4.65851,Fossil fuels,Oil,
ARRIGHI 1,,,,,FR,125.0,Oil,,,,,,,RTE,,48.79151,2.41593,Fossil fuels,Oil,
ARRIGHI 2,,,,,FR,129.0,Oil,,,,,,,RTE,,48.79151,2.41593,Fossil fuels,Oil,
BRENNILIS 1,,,,,FR,85.0,Oil,,,,,,,RTE,,48.35702,-3.87053,Fossil fuels,Oil,
BRENNILIS 2,,,,,FR,85.0,Oil,,,,,,,RTE,,48.35702,-3.87053,Fossil fuels,Oil,
BRENNILIS 3,,,,,FR,134.0,Oil,,,,,,,RTE,,48.35702,-3.87053,Fossil fuels,Oil,
CORDEMAIS 2,,,,,FR,685.0,Oil,,,,,,Commissioning year not reported due to duplicate entries,RTE,,47.27712,-1.88012,Fossil fuels,Oil,
CORDEMAIS 3,,,,,FR,685.0,Oil,,,,,,Commissioning year not reported due to duplicate entries,RTE,,47.27712,-1.88012,Fossil fuels,Oil,
DIRINON 1,,,,,FR,85.0,Oil,,,,,,,RTE,,48.39036,-4.26373,Fossil fuels,Oil,
DIRINON 2,,,,,FR,85.0,Oil,,,,,,,RTE,,48.39036,-4.26373,Fossil fuels,Oil,
MONTEREAU 5,,,,,FR,185.0,Oil,,,,,,,RTE,,48.38045,2.85108,Fossil fuels,Oil,
MONTEREAU 6,,,,,FR,185.0,Oil,,,,,,,RTE,,48.38045,2.85108,Fossil fuels,Oil,
PORCHEVILLE 1,,,,,FR,585.0,Oil,,,,,,Commissioning year not reported due to duplicate entries,RTE,,48.97117,1.76029,Fossil fuels,Oil,
PORCHEVILLE 2,,,,,FR,585.0,Oil,,,,,,Commissioning year not reported due to duplicate entries,RTE,,48.97117,1.76029,Fossil fuels,Oil,
PORCHEVILLE 3,,,,,FR,535.0,Oil,,,,,,Commissioning year not reported due to duplicate entries,RTE,,48.97117,1.76029,Fossil fuels,Oil,
PORCHEVILLE 4,,,,,FR,585.0,Oil,,,,,,Commissioning year not reported due to duplicate entries,RTE,,48.97117,1.76029,Fossil fuels,Oil,
VAIRES 1,,,,,FR,181.0,Oil,,,,,,,RTE,,48.87349,2.65533,Fossil fuels,Oil,
VAIRES 2,,,,,FR,179.0,Oil,,,,,,,RTE,,48.87349,2.65533,Fossil fuels,Oil,
VAIRES 3,,,,,FR,182.0,Oil,,,,,,,RTE,,48.87349,2.65533,Fossil fuels,Oil,
AMFARD14,,,,,FR,130.0,Natural gas,,,,,2004.0,,RTE,,,,Fossil fuels,Natural gas,
AMFARD15,,,,,FR,130.0,Natural gas,,,,,2004.0,,RTE,,,,Fossil fuels,Natural gas,
BLENOD 5,,,,,FR,427.0,Natural gas,,,,,,,RTE,,48.86959,6.08377,Fossil fuels,Natural gas,
BOUCHAIN 7,,,,,FR,575.0,Natural gas,,,,,,Commissioning year not reported due to duplicate entries,RTE,,50.29774,3.31429,Fossil fuels,Natural gas,
COMBIGOLFE,,,,,FR,425.0,Natural gas,,,,,2010.0,,RTE,,43.41616,4.86974,Fossil fuels,Natural gas,
CYCOFOS,,,,,FR,428.0,Natural gas,,,,,2009.0,,RTE,,43.42801,4.88652,Fossil fuels,Natural gas,
Croix-de-Metz,,,,,FR,413.0,Natural gas,,,,,2012.0,,RTE,,48.69336,5.91468,Fossil fuels,Natural gas,
DK6,,,,,FR,796.0,Natural gas,,,,,2005.0,,RTE,,51.04628,2.31835,Fossil fuels,Natural gas,
EMILE HUCHET 7,,,,,FR,413.0,Natural gas,,,,,2010.0,,RTE,,49.15412,6.7047,Fossil fuels,Natural gas,
EMILE HUCHET 8,,,,,FR,413.0,Natural gas,,,,,2010.0,,RTE,,49.15412,6.7047,Fossil fuels,Natural gas,
FR-GA-MORANT1,,,,,FR,401.0,Natural gas,,,,,,Commissioning year not reported due to duplicate entries,RTE,,46.27282,3.30095,Fossil fuels,Natural gas,
GENNEVILLIERS 1,,,,,FR,203.0,Natural gas,,,,,,,RTE,,48.93699,2.26144,Fossil fuels,Natural gas,
MARTIGUES PONTEAU 5,,,,,FR,465.0,Natural gas,,,,,,,RTE,,43.35822,5.02112,Fossil fuels,Natural gas,
MARTIGUES PONTEAU 6,,,,,FR,465.0,Natural gas,,,,,,,RTE,,43.35822,5.02112,Fossil fuels,Natural gas,
Pont-sur-Sambre,,,,,FR,412.0,Natural gas,,,,,2009.0,,RTE,,50.22915,3.86807,Fossil fuels,Natural gas,
SPEM,,,,,FR,435.0,Natural gas,,,,,2010.0,,RTE,,47.30265,-2.14028,Fossil fuels,Natural gas,
SPEM Pointe,,,,,FR,45.0,Natural gas,,,,,2012.0,,RTE,,47.30265,-2.14028,Fossil fuels,Natural gas,
CHEYLAS,,,,,FR,485.0,Hydro,Pumped storage,,,,,,RTE,,45.3846,6.00207,Renewable energy,Hydro,
COCHE,,,,,FR,320.0,Hydro,Pumped storage,,,,,,RTE,,45.49667,6.51038,Renewable energy,Hydro,
GRAND MAISON,,,,,FR,1690.0,Hydro,Pumped storage,,,,,,RTE,,45.20597,6.11719,Renewable energy,Hydro,
MONTEZIC,,,,,FR,910.0,Hydro,Pumped storage,,,,,,RTE,,44.73766,2.64342,Renewable energy,Hydro,
REVIN,,,,,FR,808.0,Hydro,Pumped storage,,,,,,RTE,,49.92556,4.61331,Renewable energy,Hydro,
SUPER BISSORTE,,,,,FR,742.3,Hydro,Pumped storage,,,,,,RTE,,45.1803,6.5797,Renewable energy,Hydro,
ASTON,,,,,FR,104.0,Hydro,Run-of-river,,,,,,RTE,,42.77668,1.67671,Renewable energy,Hydro,
AVIGNON,,,,,FR,126.0,Hydro,Run-of-river,,,,1973.0,,RTE,,43.97606,4.81721,Renewable energy,Hydro,
BAIX LOGIS NEUF 1,,,,,FR,140.0,Hydro,Run-of-river,,,,1960.0,,RTE,,44.67605,4.78827,Renewable energy,Hydro,
BEAUCHASTEL,,,,,FR,198.0,Hydro,Run-of-river,,,,1963.0,,RTE,,44.82397,4.81049,Renewable energy,Hydro,
BOURG les VALENCE,,,,,FR,180.0,Hydro,Run-of-river,,,,1968.0,,RTE,,44.96128,4.87221,Renewable energy,Hydro,
CADEROUSSE,,,,,FR,156.0,Hydro,Run-of-river,,,,1975.0,,RTE,,44.09606,4.72329,Renewable energy,Hydro,
CHASTANG,,,,,FR,293.0,Hydro,Run-of-river,,,,,,RTE,,45.15185,2.00985,Renewable energy,Hydro,
COUESQUE,,,,,FR,119.0,Hydro,Run-of-river,,,,,,RTE,,44.69609,2.58555,Renewable energy,Hydro,
DONZERE MONDRAGON,,,,,FR,348.0,Hydro,Run-of-river,,,,1952.0,,RTE,,44.30368,4.74217,Renewable energy,Hydro,
FESSENHEIM,,,,,FR,175.0,Hydro,Run-of-river,,,,,,RTE,,47.91466,7.57067,Renewable energy,Hydro,
GENISSIAT,,,,,FR,420.0,Hydro,Run-of-river,,,,1948.0,,RTE,,46.05271,5.81285,Renewable energy,Hydro,
GERSTHEIM,,,,,FR,140.5,Hydro,Run-of-river,,,,,,RTE,,48.40385,7.72775,Renewable energy,Hydro,
HERMILLON,,,,,FR,115.6,Hydro,Run-of-river,,,,,,RTE,,45.28424,6.35799,Renewable energy,Hydro,
KEMBS,,,,,FR,153.7,Hydro,Run-of-river,,,,,,RTE,,47.65534,7.51959,Renewable energy,Hydro,
MARCKOLSHEIM,,,,,FR,156.2,Hydro,Run-of-river,,,,,,RTE,,48.15371,7.5898,Renewable energy,Hydro,
MAREGES,,,,,FR,150.0,Hydro,Run-of-river,,,,1935.0,,RTE,,45.39171,2.36446,Renewable energy,Hydro,
MONTELIMAR,,,,,FR,295.0,Hydro,Run-of-river,,,,1957.0,,RTE,,44.59281,4.72593,Renewable energy,Hydro,
OTTMARSHEIM,,,,,FR,156.0,Hydro,Run-of-river,,,,,,RTE,,47.77399,7.52246,Renewable energy,Hydro,
PASSY,,,,,FR,104.0,Hydro,Run-of-river,,,,,,RTE,,45.91642,6.72592,Renewable energy,Hydro,
RANDENS,,,,,FR,124.2,Hydro,Run-of-river,,,,,,RTE,,45.52711,6.31996,Renewable energy,Hydro,
RHINAU,,,,,FR,167.8,Hydro,Run-of-river,,,,,,RTE,,48.28412,7.67728,Renewable energy,Hydro,
SAINT PIERRE COGNET,,,,,FR,101.0,Hydro,Run-of-river,,,,,,RTE,,44.87249,5.77319,Renewable energy,Hydro,
SAINT-PIERRE,,,,,FR,122.0,Hydro,Run-of-river,,,,1983.0,,RTE,,,,Renewable energy,Hydro,
SAUSSAZ,,,,,FR,145.4,Hydro,Run-of-river,,,,,,RTE,,45.20992,6.47663,Renewable energy,Hydro,
STRASBOURG,,,,,FR,148.0,Hydro,Run-of-river,,,,,,RTE,,48.52561,7.79456,Renewable energy,Hydro,
VALLABREGUES,,,,,FR,210.0,Hydro,Run-of-river,,,,1970.0,,RTE,,43.82415,4.64349,Renewable energy,Hydro,
VOGELGRUN,,,,,FR,140.5,Hydro,Run-of-river,,,,,,RTE,,48.0203,7.57393,Renewable energy,Hydro,
AIGLE,,,,,FR,360.0,Hydro,Reservoir,,,,,,RTE,,45.24373,2.22483,Renewable energy,Hydro,
BATHIE,,,,,FR,575.0,Hydro,Reservoir,,,,,Commissioning year not reported due to duplicate entries,RTE,,45.68545,6.62249,Renewable energy,Hydro,
BORT,,,,,FR,235.0,Hydro,Reservoir,,,,,,RTE,,45.41269,2.49862,Renewable energy,Hydro,
BROMMAT,,,,,FR,406.0,Hydro,Reservoir,,,,,,RTE,,44.76793,2.68415,Renewable energy,Hydro,
COMBE D'AVRIEUX,,,,,FR,123.0,Hydro,Reservoir,,,,,,RTE,,45.21348,6.72053,Renewable energy,Hydro,
CURBANS,,,,,FR,139.0,Hydro,Reservoir,,,,,,RTE,,44.42078,6.02016,Renewable energy,Hydro,
MALGOVERT,,,,,FR,297.0,Hydro,Reservoir,,,,,,RTE,,45.61787,6.79074,Renewable energy,Hydro,
MONTEYNARD,,,,,FR,366.0,Hydro,Reservoir,,,,,,RTE,,44.96118,5.68874,Renewable energy,Hydro,
MONTPEZAT,,,,,FR,131.8,Hydro,Reservoir,,,,,,RTE,,44.69026,4.27215,Renewable energy,Hydro,
ORAISON,,,,,FR,187.0,Hydro,Reservoir,,,,,,RTE,,43.92101,5.92438,Renewable energy,Hydro,
PIED DE BORNE,,,,,FR,109.4,Hydro,Reservoir,,,,,,RTE,,44.47198,3.98867,Renewable energy,Hydro,
POUGET,,,,,FR,446.9,Hydro,Reservoir,,,,,,RTE,,43.65604,3.40178,Renewable energy,Hydro,
PRAGNERES,,,,,FR,189.2,Hydro,Reservoir,,,,,,RTE,,42.8211,0.01033,Renewable energy,Hydro,
SAINT CHAMAS,,,,,FR,159.0,Hydro,Reservoir,,,,,,RTE,,43.52741,5.07342,Renewable energy,Hydro,
SAINT ESTEVE,,,,,FR,141.0,Hydro,Reservoir,,,,,,RTE,,43.69049,5.38489,Renewable energy,Hydro,
SAINT GUILLERME,,,,,FR,116.0,Hydro,Reservoir,,,,,,RTE,,45.03048,6.07914,Renewable energy,Hydro,
SAINTE CROIX,,,,,FR,132.3,Hydro,Reservoir,,,,,,RTE,,43.73687,6.13423,Renewable energy,Hydro,
SARRANS,,,,,FR,183.0,Hydro,Reservoir,,,,,,RTE,,44.82942,2.74042,Renewable energy,Hydro,
SERRE PONCON,,,,,FR,384.0,Hydro,Reservoir,,,,,,RTE,,44.47095,6.26967,Renewable energy,Hydro,
SISTERON,,,,,FR,214.0,Hydro,Reservoir,,,,,,RTE,,44.17517,5.95215,Renewable energy,Hydro,
ST ETIENNE CANTALES,,,,,FR,106.5,Hydro,Reservoir,,,,,,RTE,,44.94516,2.21906,Renewable energy,Hydro,
VILLARODIN,,,,,FR,357.0,Hydro,Reservoir,,,,,,RTE,,45.21466,6.71208,Renewable energy,Hydro,
VOUGLANS,,,,,FR,285.0,Hydro,Reservoir,,,,,,RTE,,46.39734,5.66556,Renewable energy,Hydro,
BELLEVILLE 1,,,,,FR,1310.0,Nuclear,Steam turbine,,,,,,RTE,,47.50879,2.87574,Nuclear,,
BELLEVILLE 2,,,,,FR,1310.0,Nuclear,Steam turbine,,,,,,RTE,,47.50879,2.87574,Nuclear,,
BLAYAIS 1,,,,,FR,910.0,Nuclear,Steam turbine,,,,,,RTE,,45.25742,-0.69065,Nuclear,,
BLAYAIS 2,,,,,FR,910.0,Nuclear,Steam turbine,,,,,,RTE,,45.25742,-0.69065,Nuclear,,
BLAYAIS 3,,,,,FR,910.0,Nuclear,Steam turbine,,,,,,RTE,,45.25742,-0.69065,Nuclear,,
BLAYAIS 4,,,,,FR,910.0,Nuclear,Steam turbine,,,,,,RTE,,45.25742,-0.69065,Nuclear,,
BUGEY 2,,,,,FR,910.0,Nuclear,Steam turbine,,,,,,RTE,,45.80141,5.26614,Nuclear,,
BUGEY 3,,,,,FR,910.0,Nuclear,Steam turbine,,,,,,RTE,,45.80141,5.26614,Nuclear,,
BUGEY 4,,,,,FR,880.0,Nuclear,Steam turbine,,,,,,RTE,,45.80141,5.26614,Nuclear,,
BUGEY 5,,,,,FR,880.0,Nuclear,Steam turbine,,,,,,RTE,,45.80141,5.26614,Nuclear,,
CATTENOM 1,,,,,FR,1300.0,Nuclear,Steam turbine,,,,,,RTE,,49.41579,6.2181,Nuclear,,
CATTENOM 2,,,,,FR,1300.0,Nuclear,Steam turbine,,,,,,RTE,,49.41579,6.2181,Nuclear,,
CATTENOM 3,,,,,FR,1300.0,Nuclear,Steam turbine,,,,,,RTE,,49.41579,6.2181,Nuclear,,
CATTENOM 4,,,,,FR,1300.0,Nuclear,Steam turbine,,,,,,RTE,,49.41579,6.2181,Nuclear,,
CHINON 1,,,,,FR,905.0,Nuclear,Steam turbine,,,,,,RTE,,47.22856,0.16824,Nuclear,,
CHINON 2,,,,,FR,905.0,Nuclear,Steam turbine,,,,,,RTE,,47.22856,0.16824,Nuclear,,
CHINON 3,,,,,FR,905.0,Nuclear,Steam turbine,,,,,,RTE,,47.22856,0.16824,Nuclear,,
CHINON 4,,,,,FR,905.0,Nuclear,Steam turbine,,,,,,RTE,,47.22856,0.16824,Nuclear,,
CHOOZ 1,,,,,FR,1500.0,Nuclear,Steam turbine,,,,,,RTE,,50.09136,4.79242,Nuclear,,
CHOOZ 2,,,,,FR,1500.0,Nuclear,Steam turbine,,,,,,RTE,,50.09136,4.79242,Nuclear,,
CIVAUX 1,,,,,FR,1495.0,Nuclear,Steam turbine,,,,,,RTE,,46.45614,0.6524,Nuclear,,
CIVAUX 2,,,,,FR,1495.0,Nuclear,Steam turbine,,,,,,RTE,,46.45614,0.6524,Nuclear,,
CRUAS 1,,,,,FR,915.0,Nuclear,Steam turbine,,,,,,RTE,,44.63251,4.75105,Nuclear,,
CRUAS 2,,,,,FR,915.0,Nuclear,Steam turbine,,,,,,RTE,,44.63251,4.75105,Nuclear,,
CRUAS 3,,,,,FR,915.0,Nuclear,Steam turbine,,,,,,RTE,,44.63251,4.75105,Nuclear,,
CRUAS 4,,,,,FR,915.0,Nuclear,Steam turbine,,,,,,RTE,,44.63251,4.75105,Nuclear,,
DAMPIERRE 1,,,,,FR,890.0,Nuclear,Steam turbine,,,,,,RTE,,47.73252,2.51772,Nuclear,,
DAMPIERRE 2,,,,,FR,890.0,Nuclear,Steam turbine,,,,,,RTE,,47.73252,2.51772,Nuclear,,
DAMPIERRE 3,,,,,FR,890.0,Nuclear,Steam turbine,,,,,,RTE,,47.73252,2.51772,Nuclear,,
DAMPIERRE 4,,,,,FR,890.0,Nuclear,Steam turbine,,,,,,RTE,,47.73252,2.51772,Nuclear,,
FESSENHEIM 1,,,,,FR,880.0,Nuclear,Steam turbine,,,,,,RTE,,47.90303,7.56308,Nuclear,,
FESSENHEIM 2,,,,,FR,880.0,Nuclear,Steam turbine,,,,,,RTE,,47.90303,7.56308,Nuclear,,
FLAMANVILLE 1,,,,,FR,1330.0,Nuclear,Steam turbine,,,,,,RTE,,49.53671,-1.88229,Nuclear,,
FLAMANVILLE 2,,,,,FR,1330.0,Nuclear,Steam turbine,,,,,,RTE,,49.53671,-1.88229,Nuclear,,
GOLFECH 1,,,,,FR,1310.0,Nuclear,Steam turbine,,,,,,RTE,,44.10479,0.84606,Nuclear,,
GOLFECH 2,,,,,FR,1310.0,Nuclear,Steam turbine,,,,,,RTE,,44.10479,0.84606,Nuclear,,
GRAVELINES 1,,,,,FR,910.0,Nuclear,Steam turbine,,,,,,RTE,,51.01267,2.13956,Nuclear,,
GRAVELINES 2,,,,,FR,910.0,Nuclear,Steam turbine,,,,,,RTE,,51.01267,2.13956,Nuclear,,
GRAVELINES 3,,,,,FR,910.0,Nuclear,Steam turbine,,,,,,RTE,,51.01267,2.13956,Nuclear,,
GRAVELINES 4,,,,,FR,910.0,Nuclear,Steam turbine,,,,,,RTE,,51.01267,2.13956,Nuclear,,
GRAVELINES 5,,,,,FR,910.0,Nuclear,Steam turbine,,,,,,RTE,,51.01267,2.13956,Nuclear,,
GRAVELINES 6,,,,,FR,910.0,Nuclear,Steam turbine,,,,,,RTE,,51.01267,2.13956,Nuclear,,
NOGENT 1,,,,,FR,1310.0,Nuclear,Steam turbine,,,,,,RTE,,48.5153,3.51776,Nuclear,,
NOGENT 2,,,,,FR,1310.0,Nuclear,Steam turbine,,,,,,RTE,,48.5153,3.51776,Nuclear,,
PALUEL 1,,,,,FR,1330.0,Nuclear,Steam turbine,,,,,,RTE,,49.85838,0.63449,Nuclear,,
PALUEL 2,,,,,FR,1330.0,Nuclear,Steam turbine,,,,,,RTE,,49.85838,0.63449,Nuclear,,
PALUEL 3,,,,,FR,1330.0,Nuclear,Steam turbine,,,,,,RTE,,49.85838,0.63449,Nuclear,,
PALUEL 4,,,,,FR,1330.0,Nuclear,Steam turbine,,,,,,RTE,,49.85838,0.63449,Nuclear,,
PENLY 1,,,,,FR,1330.0,Nuclear,Steam turbine,,,,,,RTE,,49.97599,1.21025,Nuclear,,
PENLY 2,,,,,FR,1330.0,Nuclear,Steam turbine,,,,,,RTE,,49.97599,1.21025,Nuclear,,
ST ALBAN 1,,,,,FR,1335.0,Nuclear,Steam turbine,,,,,,RTE,,45.40523,4.75527,Nuclear,,
ST ALBAN 2,,,,,FR,1335.0,Nuclear,Steam turbine,,,,,,RTE,,45.40523,4.75527,Nuclear,,
ST LAURENT 1,,,,,FR,915.0,Nuclear,Steam turbine,,,,,,RTE,,47.72006,1.58009,Nuclear,,
ST LAURENT 2,,,,,FR,915.0,Nuclear,Steam turbine,,,,,,RTE,,47.72006,1.58009,Nuclear,,
TRICASTIN 1,,,,,FR,915.0,Nuclear,Steam turbine,,,,,,RTE,,44.32906,4.72605,Nuclear,,
TRICASTIN 2,,,,,FR,915.0,Nuclear,Steam turbine,,,,,,RTE,,44.32906,4.72605,Nuclear,,
TRICASTIN 3,,,,,FR,915.0,Nuclear,Steam turbine,,,,,,RTE,,44.32906,4.72605,Nuclear,,
TRICASTIN 4,,,,,FR,915.0,Nuclear,Steam turbine,,,,,,RTE,,44.32906,4.72605,Nuclear,,
Adamów B1,Adamów,,,,PL,120.0,Lignite,,,,,,,GPI,,52.01215,18.54445,Fossil fuels,Lignite,
Adamów B2,Adamów,,,,PL,120.0,Lignite,,,,,,,GPI,,52.01215,18.54445,Fossil fuels,Lignite,
Adamów B3,Adamów,,,,PL,120.0,Lignite,,,,,,,GPI,,52.01215,18.54445,Fossil fuels,Lignite,
Adamów B4,Adamów,,,,PL,120.0,Lignite,,,,,,,GPI,,52.01215,18.54445,Fossil fuels,Lignite,
Adamów B5,Adamów,,,,PL,120.0,Lignite,,,,,,,GPI,,52.01215,18.54445,Fossil fuels,Lignite,
Bełchatów B01,PGE Górnictwo i Energetyka Konwencjonalna S.A.,,,,PL,370.0,Lignite,,,,,,,GPI,,51.26719,19.31765,Fossil fuels,Lignite,
Bełchatów B02,PGE Górnictwo i Energetyka Konwencjonalna S.A.,,,,PL,358.0,Lignite,,,,,,,GPI,,51.26719,19.31765,Fossil fuels,Lignite,
Bełchatów B03,PGE Górnictwo i Energetyka Konwencjonalna S.A.,,,,PL,380.0,Lignite,,,,,,,GPI,,51.26719,19.31765,Fossil fuels,Lignite,
Bełchatów B04,PGE Górnictwo i Energetyka Konwencjonalna S.A.,,,,PL,380.0,Lignite,,,,,,,GPI,,51.26719,19.31765,Fossil fuels,Lignite,
Bełchatów B05,PGE Górnictwo i Energetyka Konwencjonalna S.A.,,,,PL,380.0,Lignite,,,,,,,GPI,,51.26719,19.31765,Fossil fuels,Lignite,
Bełchatów B06,PGE Górnictwo i Energetyka Konwencjonalna S.A.,,,,PL,394.0,Lignite,,,,,,,GPI,,51.26719,19.31765,Fossil fuels,Lignite,
Bełchatów B07,PGE Górnictwo i Energetyka Konwencjonalna S.A.,,,,PL,390.0,Lignite,,,,,,,GPI,,51.26719,19.31765,Fossil fuels,Lignite,
Bełchatów B08,PGE Górnictwo i Energetyka Konwencjonalna S.A.,,,,PL,390.0,Lignite,,,,,,,GPI,,51.26719,19.31765,Fossil fuels,Lignite,
Bełchatów B09,PGE Górnictwo i Energetyka Konwencjonalna S.A.,,,,PL,390.0,Lignite,,,,,,,GPI,,51.26719,19.31765,Fossil fuels,Lignite,
Bełchatów B10,PGE Górnictwo i Energetyka Konwencjonalna S.A.,,,,PL,390.0,Lignite,,,,,,,GPI,,51.26719,19.31765,Fossil fuels,Lignite,
Bełchatów B11,PGE Górnictwo i Energetyka Konwencjonalna S.A.,,,,PL,390.0,Lignite,,,,,,,GPI,,51.26719,19.31765,Fossil fuels,Lignite,
Bełchatów B12,PGE Górnictwo i Energetyka Konwencjonalna S.A.,,,,PL,390.0,Lignite,,,,,,,GPI,,51.26719,19.31765,Fossil fuels,Lignite,
Bełchatów B14,PGE Górnictwo i Energetyka Konwencjonalna S.A.,,,,PL,858.0,Lignite,,,,,,,GPI,,51.26719,19.31765,Fossil fuels,Lignite,
Dolna Odra B1,Dolna Odra,,,,PL,222.0,Hard coal,,,,,,,GPI,,53.20981,14.46696,Fossil fuels,Hard coal,
Dolna Odra B2,Dolna Odra,,,,PL,232.0,Hard coal,,,,,,,GPI,,53.20981,14.46696,Fossil fuels,Hard coal,
Dolna Odra B5,Dolna Odra,,,,PL,222.0,Hard coal,,,,,,,GPI,,53.20981,14.46696,Fossil fuels,Hard coal,
Dolna Odra B6,Dolna Odra,,,,PL,222.0,Hard coal,,,,,,,GPI,,53.20981,14.46696,Fossil fuels,Hard coal,
Dolna Odra B7,Dolna Odra,,,,PL,232.0,Hard coal,,,,,,,GPI,,53.20981,14.46696,Fossil fuels,Hard coal,
Dolna Odra B8,Dolna Odra,,,,PL,232.0,Hard coal,,,,,,,GPI,,53.20981,14.46696,Fossil fuels,Hard coal,
Dychów H1,Dychów,,,,PL,28.0,Hydro,Pumped storage,,,,,,GPI,,51.56076,15.45145,Renewable energy,Hydro,
Dychów H2,Dychów,,,,PL,29.0,Hydro,Pumped storage,,,,,,GPI,,51.56076,15.45145,Renewable energy,Hydro,
Dychów H3,Dychów,,,,PL,28.0,Hydro,Pumped storage,,,,,,GPI,,51.56076,15.45145,Renewable energy,Hydro,
Jaworzno 3 B1,Jaworzno 3,,,,PL,225.0,Hard coal,,,,,,,GPI,,50.21356,19.2287,Fossil fuels,Hard coal,
Jaworzno 3 B2,Jaworzno 3,,,,PL,225.0,Hard coal,,,,,,,GPI,,50.21356,19.2287,Fossil fuels,Hard coal,
Jaworzno 3 B3,Jaworzno 3,,,,PL,225.0,Hard coal,,,,,,,GPI,,50.21356,19.2287,Fossil fuels,Hard coal,
Jaworzno 3 B4,Jaworzno 3,,,,PL,225.0,Hard coal,,,,,,,GPI,,50.21356,19.2287,Fossil fuels,Hard coal,
Jaworzno 3 B5,Jaworzno 3,,,,PL,220.0,Hard coal,,,,,,,GPI,,50.21356,19.2287,Fossil fuels,Hard coal,
Jaworzno 3 B6,Jaworzno 3,,,,PL,225.0,Hard coal,,,,,,,GPI,,50.21356,19.2287,Fossil fuels,Hard coal,
Karolin 2 Bl3,Karolin 2,,,,PL,112.0,Hard coal,,,,,,,GPI,,52.43639,16.98836,Fossil fuels,Hard coal,
Kozienice 1 B1,ENEA Wytwarzanie S.A.,,,,PL,215.0,Hard coal,,,,,,,GPI,,51.66506,21.46532,Fossil fuels,Hard coal,
Kozienice 1 B2,ENEA Wytwarzanie S.A.,,,,PL,228.0,Hard coal,,,,,,,GPI,,51.66506,21.46532,Fossil fuels,Hard coal,
Kozienice 1 B3,ENEA Wytwarzanie S.A.,,,,PL,225.0,Hard coal,,,,,,,GPI,,51.66506,21.46532,Fossil fuels,Hard coal,
Kozienice 1 B4,ENEA Wytwarzanie S.A.,,,,PL,228.0,Hard coal,,,,,,,GPI,,51.66506,21.46532,Fossil fuels,Hard coal,
Kozienice 1 B5,ENEA Wytwarzanie S.A.,,,,PL,225.0,Hard coal,,,,,,,GPI,,51.66506,21.46532,Fossil fuels,Hard coal,
Kozienice 1 B6,ENEA Wytwarzanie S.A.,,,,PL,228.0,Hard coal,,,,,,,GPI,,51.66506,21.46532,Fossil fuels,Hard coal,
Kozienice 1 B7,ENEA Wytwarzanie S.A.,,,,PL,228.0,Hard coal,,,,,,,GPI,,51.66506,21.46532,Fossil fuels,Hard coal,
Kozienice 1 B8,ENEA Wytwarzanie S.A.,,,,PL,228.0,Hard coal,,,,,,,GPI,,51.66506,21.46532,Fossil fuels,Hard coal,
Kozienice 2 B09,ENEA Wytwarzanie S.A.,,,,PL,560.0,Hard coal,,,,,,,GPI,,51.66256,21.45766,Fossil fuels,Hard coal,
Kozienice 2 B10,ENEA Wytwarzanie S.A.,,,,PL,560.0,Hard coal,,,,,,,GPI,,51.66256,21.45766,Fossil fuels,Hard coal,
Łagisza B10,Łagisza,,,,PL,460.0,Hard coal,,,,,,,GPI,,50.34965,19.14101,Fossil fuels,Hard coal,
Łagisza B5,Łagisza,,,,PL,120.0,Hard coal,,,,,,,GPI,,50.34965,19.14101,Fossil fuels,Hard coal,
Łagisza B6,Łagisza,,,,PL,120.0,Hard coal,,,,,,,GPI,,50.34965,19.14101,Fossil fuels,Hard coal,
Łagisza B7,Łagisza,,,,PL,120.0,Hard coal,,,,,,,GPI,,50.34965,19.14101,Fossil fuels,Hard coal,
Łaziska 2 B1,Łaziska 2,,,,PL,125.0,Hard coal,,,,,,,GPI,,50.13236,18.84039,Fossil fuels,Hard coal,
Łaziska 2 B2,Łaziska 2,,,,PL,125.0,Hard coal,,,,,,,GPI,,50.13236,18.84039,Fossil fuels,Hard coal,
Łaziska 3 B09,Łaziska 3,,,,PL,230.0,Hard coal,,,,,,,GPI,,50.13236,18.84039,Fossil fuels,Hard coal,
Łaziska 3 B10,Łaziska 3,,,,PL,225.0,Hard coal,,,,,,,GPI,,50.13236,18.84039,Fossil fuels,Hard coal,
Łaziska 3 B11,Łaziska 3,,,,PL,225.0,Hard coal,,,,,,,GPI,,50.13236,18.84039,Fossil fuels,Hard coal,
Łaziska 3 B12,Łaziska 3,,,,PL,225.0,Hard coal,,,,,,,GPI,,50.13236,18.84039,Fossil fuels,Hard coal,
Opole B1,Opole,,,,PL,386.0,Hard coal,,,,,,,GPI,,50.75066,17.88729,Fossil fuels,Hard coal,
Opole B2,Opole,,,,PL,383.0,Hard coal,,,,,,,GPI,,50.75066,17.88729,Fossil fuels,Hard coal,
Opole B3,Opole,,,,PL,383.0,Hard coal,,,,,,,GPI,,50.75066,17.88729,Fossil fuels,Hard coal,
Opole B4,Opole,,,,PL,380.0,Hard coal,,,,,,,GPI,,50.75066,17.88729,Fossil fuels,Hard coal,
Ostrołęka B B01,Energa Elektrownie Ostrołęka S.A. Elektrownia Ostrołęka B,,,,PL,221.0,Hard coal,,,,,,,GPI,,53.10462,21.61312,Fossil fuels,Hard coal,
Ostrołęka B B02,Energa Elektrownie Ostrołęka S.A. Elektrownia Ostrołęka B,,,,PL,230.0,Hard coal,,,,,,,GPI,,53.10462,21.61312,Fossil fuels,Hard coal,
Ostrołęka B B03,Energa Elektrownie Ostrołęka S.A. Elektrownia Ostrołęka B,,,,PL,226.0,Hard coal,,,,,,,GPI,,53.10462,21.61312,Fossil fuels,Hard coal,
Pątnów 1 B1,Pątnów 1,,,,PL,222.0,Lignite,,,,,,,GPI,,52.3024,18.23807,Fossil fuels,Lignite,
Pątnów 1 B2,Pątnów 1,,,,PL,222.0,Lignite,,,,,,,GPI,,52.3024,18.23807,Fossil fuels,Lignite,
Pątnów 1 B3,Pątnów 1,,,,PL,200.0,Lignite,,,,,,,GPI,,52.3024,18.23807,Fossil fuels,Lignite,
Pątnów 1 B4,Pątnów 1,,,,PL,200.0,Lignite,,,,,,,GPI,,52.3024,18.23807,Fossil fuels,Lignite,
Pątnów 1 B5,Pątnów 1,,,,PL,200.0,Lignite,,,,,,,GPI,,52.3024,18.23807,Fossil fuels,Lignite,
Pątnów 1 B6,Pątnów 1,,,,PL,200.0,Lignite,,,,,,,GPI,,52.3024,18.23807,Fossil fuels,Lignite,
Pątnów 2 B9,Pątnów 2,,,,PL,464.0,Lignite,,,,,,,GPI,,52.3024,18.23807,Fossil fuels,Lignite,
PKN Orlen EC Włocławek B1,PKN Orlen SA,,,,PL,485.0,Natural gas,,,,,,,GPI,,,,Fossil fuels,Natural gas,
Połaniec B1,ENGIE Energia Polska S.A.,,,,PL,225.0,Hard coal,,,,,,,GPI,,50.43534,21.33674,Fossil fuels,Hard coal,
Połaniec B2,ENGIE Energia Polska S.A.,,,,PL,242.0,Hard coal,,,,,,,GPI,,50.43534,21.33674,Fossil fuels,Hard coal,
Połaniec B3,ENGIE Energia Polska S.A.,,,,PL,242.0,Hard coal,,,,,,,GPI,,50.43534,21.33674,Fossil fuels,Hard coal,
Połaniec B4,ENGIE Energia Polska S.A.,,,,PL,242.0,Hard coal,,,,,,,GPI,,50.43534,21.33674,Fossil fuels,Hard coal,
Połaniec B5,ENGIE Energia Polska S.A.,,,,PL,225.0,Hard coal,,,,,,,GPI,,50.43534,21.33674,Fossil fuels,Hard coal,
Połaniec B6,ENGIE Energia Polska S.A.,,,,PL,242.0,Hard coal,,,,,,,GPI,,50.43534,21.33674,Fossil fuels,Hard coal,
Połaniec B7,ENGIE Energia Polska S.A.,,,,PL,239.0,Hard coal,,,,,,,GPI,,50.43534,21.33674,Fossil fuels,Hard coal,
Porąbka Żar H1,Porąbka Żar,,,,PL,135.0,Hydro,Pumped storage,,,,,,GPI,,49.77957,19.212,Renewable energy,Hydro,
Porąbka Żar H2,Porąbka Żar,,,,PL,135.0,Hydro,Pumped storage,,,,,,GPI,,49.77957,19.212,Renewable energy,Hydro,
Porąbka Żar H3,Porąbka Żar,,,,PL,135.0,Hydro,Pumped storage,,,,,,GPI,,49.77957,19.212,Renewable energy,Hydro,
Porąbka Żar H4,Porąbka Żar,,,,PL,135.0,Hydro,Pumped storage,,,,,,GPI,,49.77957,19.212,Renewable energy,Hydro,
Rybnik B1,Rybnik,,,,PL,225.0,Hard coal,,,,,,,GPI,,50.1317,18.52045,Fossil fuels,Hard coal,
Rybnik B2,Rybnik,,,,PL,225.0,Hard coal,,,,,,,GPI,,50.1317,18.52045,Fossil fuels,Hard coal,
Rybnik B3,Rybnik,,,,PL,225.0,Hard coal,,,,,,,GPI,,50.1317,18.52045,Fossil fuels,Hard coal,
Rybnik B4,Rybnik,,,,PL,225.0,Hard coal,,,,,,,GPI,,50.1317,18.52045,Fossil fuels,Hard coal,
Rybnik B5,Rybnik,,,,PL,215.0,Hard coal,,,,,,,GPI,,50.1317,18.52045,Fossil fuels,Hard coal,
Rybnik B6,Rybnik,,,,PL,215.0,Hard coal,,,,,,,GPI,,50.1317,18.52045,Fossil fuels,Hard coal,
Rybnik B7,Rybnik,,,,PL,225.0,Hard coal,,,,,,,GPI,,50.1317,18.52045,Fossil fuels,Hard coal,
Rybnik B8,Rybnik,,,,PL,225.0,Hard coal,,,,,,,GPI,,50.1317,18.52045,Fossil fuels,Hard coal,
Siersza B1,Siersza,,,,PL,153.0,Hard coal,,,,,,,GPI,,50.20761,19.46145,Fossil fuels,Hard coal,
Siersza B2,Siersza,,,,PL,153.0,Hard coal,,,,,,,GPI,,50.20761,19.46145,Fossil fuels,Hard coal,
Siersza B3,Siersza,,,,PL,123.0,Hard coal,,,,,,,GPI,,50.20761,19.46145,Fossil fuels,Hard coal,
Siersza B5,Siersza,,,,PL,120.0,Hard coal,,,,,,,GPI,,50.20761,19.46145,Fossil fuels,Hard coal,
Siersza B6,Siersza,,,,PL,128.0,Hard coal,,,,,,,GPI,,50.20761,19.46145,Fossil fuels,Hard coal,
Solina Hydrozespół H1,"PGE Energia Odnawialna S.A. w Warszawie, Oddział w Solinie",,,,PL,68.0,Hydro,Pumped storage,,,,,,GPI,,49.39578,22.454,Renewable energy,Hydro,
Solina Hydrozespół H2,"PGE Energia Odnawialna S.A. w Warszawie, Oddział w Solinie",,,,PL,68.0,Hydro,Pumped storage,,,,,,GPI,,49.39578,22.454,Renewable energy,Hydro,
Solina Hydrozespół H3,"PGE Energia Odnawialna S.A. w Warszawie, Oddział w Solinie",,,,PL,31.0,Hydro,Pumped storage,,,,,,GPI,,49.39578,22.454,Renewable energy,Hydro,
Solina Hydrozespół H4,"PGE Energia Odnawialna S.A. w Warszawie, Oddział w Solinie",,,,PL,31.0,Hydro,Pumped storage,,,,,,GPI,,49.39578,22.454,Renewable energy,Hydro,
Stalowa Wola 3 B7,"Grupa TAURON, Elektrownia Stalowa Wola S.A.",,,,PL,125.0,Hard coal,,,,,,,GPI,,50.55071,22.07761,Fossil fuels,Hard coal,
Stalowa Wola 3 B8,"Grupa TAURON, Elektrownia Stalowa Wola S.A.",,,,PL,125.0,Hard coal,,,,,,,GPI,,50.55071,22.07761,Fossil fuels,Hard coal,
Turów B01,Turów,,,,PL,235.0,Lignite,,,,,,,GPI,,50.94818,14.91255,Fossil fuels,Lignite,
Turów B02,Turów,,,,PL,235.0,Lignite,,,,,,,GPI,,50.94818,14.91255,Fossil fuels,Lignite,
Turów B03,Turów,,,,PL,235.0,Lignite,,,,,,,GPI,,50.94818,14.91255,Fossil fuels,Lignite,
Turów B04,Turów,,,,PL,261.0,Lignite,,,,,,,GPI,,50.94818,14.91255,Fossil fuels,Lignite,
Turów B05,Turów,,,,PL,261.0,Lignite,,,,,,,GPI,,50.94818,14.91255,Fossil fuels,Lignite,
Turów B06,Turów,,,,PL,261.0,Lignite,,,,,,,GPI,,50.94818,14.91255,Fossil fuels,Lignite,
Żarnowiec H1,Żarnowiec,,,,PL,179.0,Hydro,Pumped storage,,,,,,GPI,,54.74201,18.08924,Renewable energy,Hydro,
Żarnowiec H2,Żarnowiec,,,,PL,179.0,Hydro,Pumped storage,,,,,,GPI,,54.74201,18.08924,Renewable energy,Hydro,
Żarnowiec H3,Żarnowiec,,,,PL,179.0,Hydro,Pumped storage,,,,,,GPI,,54.74201,18.08924,Renewable energy,Hydro,
Żarnowiec H4,Żarnowiec,,,,PL,179.0,Hydro,Pumped storage,,,,,,GPI,,54.74201,18.08924,Renewable energy,Hydro,
Żydowo H1,Żydowo,,,,PL,52.0,Hydro,Pumped storage,,,,,,GPI,,54.02601,16.71386,Renewable energy,Hydro,
Żydowo H2,Żydowo,,,,PL,51.0,Hydro,Pumped storage,,,,,,GPI,,54.02601,16.71386,Renewable energy,Hydro,
Żydowo H3,Żydowo,,,,PL,54.0,Hydro,Pumped storage,,,,,,GPI,,54.02601,16.71386,Renewable energy,Hydro,
Chvaletice G1,,,,,CZ,200.0,Other or unspecified energy sources,Steam turbine,,,,,,CEPS,,50.02798,15.45409,Other or unspecified energy sources,,
Chvaletice G2,,,,,CZ,200.0,Other or unspecified energy sources,Steam turbine,,,,,,CEPS,,50.02798,15.45409,Other or unspecified energy sources,,
Chvaletice G3,,,,,CZ,200.0,Other or unspecified energy sources,Steam turbine,,,,,,CEPS,,50.02798,15.45409,Other or unspecified energy sources,,
Chvaletice G4,,,,,CZ,200.0,Other or unspecified energy sources,Steam turbine,,,,,,CEPS,,50.02798,15.45409,Other or unspecified energy sources,,
Dalešice G1,,,,,CZ,112.5,Hydro,Pumped storage,,,,,,CEPS,,49.12446,16.1242,Renewable energy,Hydro,
Dalešice G2,,,,,CZ,112.5,Hydro,Pumped storage,,,,,,CEPS,,49.12446,16.1242,Renewable energy,Hydro,
Dalešice G3,,,,,CZ,112.5,Hydro,Pumped storage,,,,,,CEPS,,49.12446,16.1242,Renewable energy,Hydro,
Dalešice G4,,,,,CZ,112.5,Hydro,Pumped storage,,,,,,CEPS,,49.12446,16.1242,Renewable energy,Hydro,
Dlouhé Stráně G1,,,,,CZ,325.0,Hydro,Pumped storage,,,,,,CEPS,,50.08542,17.17945,Renewable energy,Hydro,
Dlouhé Stráně G2,,,,,CZ,325.0,Hydro,Pumped storage,,,,,,CEPS,,50.08542,17.17945,Renewable energy,Hydro,
Dukovany B1,,,,,CZ,502.0,Nuclear,Steam turbine,,,,,,CEPS,,49.08495,16.15006,Nuclear,,
Dukovany B2,,,,,CZ,502.0,Nuclear,Steam turbine,,,,,,CEPS,,49.08495,16.15006,Nuclear,,
Dukovany B3,,,,,CZ,503.0,Nuclear,Steam turbine,,,,,,CEPS,,49.08495,16.15006,Nuclear,,
Dukovany B4,,,,,CZ,503.0,Nuclear,Steam turbine,,,,,,CEPS,,49.08495,16.15006,Nuclear,,
Dětmarovice G1,,,,,CZ,180.0,Other or unspecified energy sources,Steam turbine,,,,,,CEPS,,49.90543,18.466,Other or unspecified energy sources,,
Dětmarovice G2,,,,,CZ,200.0,Other or unspecified energy sources,Steam turbine,,,,,,CEPS,,49.90543,18.466,Other or unspecified energy sources,,
Dětmarovice G3,,,,,CZ,200.0,Other or unspecified energy sources,Steam turbine,,,,,,CEPS,,49.90543,18.466,Other or unspecified energy sources,,
Dětmarovice G4,,,,,CZ,200.0,Other or unspecified energy sources,Steam turbine,,,,,,CEPS,,49.90543,18.466,Other or unspecified energy sources,,
Kladno G4,,,,,CZ,135.0,Other or unspecified energy sources,Steam turbine,,,,,,CEPS,,50.15367,14.12875,Other or unspecified energy sources,,
Kladno G5,,,,,CZ,135.0,Other or unspecified energy sources,Steam turbine,,,,,,CEPS,,50.15367,14.12875,Other or unspecified energy sources,,
Kladno G7,,,,,CZ,135.0,Other or unspecified energy sources,Steam turbine,,,,,,CEPS,,50.15367,14.12875,Other or unspecified energy sources,,
Ledvice G2,,,,,CZ,110.0,Other or unspecified energy sources,Steam turbine,,,,,,CEPS,,50.57681,13.78232,Other or unspecified energy sources,,
Ledvice G3,,,,,CZ,110.0,Other or unspecified energy sources,Steam turbine,,,,,,CEPS,,50.57681,13.78232,Other or unspecified energy sources,,
Ledvice G4,,,,,CZ,110.0,Other or unspecified energy sources,Steam turbine,,,,,,CEPS,,50.57681,13.78232,Other or unspecified energy sources,,
Ledvice G6,,,,,CZ,660.0,Other or unspecified energy sources,Steam turbine,,,,,,CEPS,,50.57681,13.78232,Other or unspecified energy sources,,
Mělník 2 G10,,,,,CZ,110.0,Other or unspecified energy sources,Steam turbine,,,,,,CEPS,,50.41435,14.41523,Other or unspecified energy sources,,
Mělník 2 G9,,,,,CZ,110.0,Other or unspecified energy sources,Steam turbine,,,,,,CEPS,,50.41435,14.41523,Other or unspecified energy sources,,
Mělník 3 G11,,,,,CZ,500.0,Other or unspecified energy sources,Steam turbine,,,,,,CEPS,,50.41435,14.41523,Other or unspecified energy sources,,
PPC Vřesová B1,,,,,CZ,187.0,Other or unspecified energy sources,Combined cycle,,,,,,CEPS,,,,Other or unspecified energy sources,,
PPC Vřesová B2,,,,,CZ,187.0,Other or unspecified energy sources,Combined cycle,,,,,,CEPS,,,,Other or unspecified energy sources,,
Počerady 2 nan,,,,,CZ,845.0,Other or unspecified energy sources,Combined cycle,,,,,,CEPS,,50.42871,13.67603,Other or unspecified energy sources,,
Počerady G2,,,,,CZ,200.0,Other or unspecified energy sources,Steam turbine,,,,,,CEPS,,50.42871,13.67603,Other or unspecified energy sources,,
Počerady G3,,,,,CZ,200.0,Other or unspecified energy sources,Steam turbine,,,,,,CEPS,,50.42871,13.67603,Other or unspecified energy sources,,
Počerady G4,,,,,CZ,200.0,Other or unspecified energy sources,Steam turbine,,,,,,CEPS,,50.42871,13.67603,Other or unspecified energy sources,,
Počerady G5,,,,,CZ,200.0,Other or unspecified energy sources,Steam turbine,,,,,,CEPS,,50.42871,13.67603,Other or unspecified energy sources,,
Počerady G6,,,,,CZ,200.0,Other or unspecified energy sources,Steam turbine,,,,,,CEPS,,50.42871,13.67603,Other or unspecified energy sources,,
Prunéřov 1 G3,,,,,CZ,110.0,Other or unspecified energy sources,Steam turbine,,,,,,CEPS,,50.41879,13.26039,Other or unspecified energy sources,,
Prunéřov 1 G4,,,,,CZ,110.0,Other or unspecified energy sources,Steam turbine,,,,,,CEPS,,50.41879,13.26039,Other or unspecified energy sources,,
Prunéřov 1 G5,,,,,CZ,110.0,Other or unspecified energy sources,Steam turbine,,,,,,CEPS,,50.41879,13.26039,Other or unspecified energy sources,,
Prunéřov 1 G6,,,,,CZ,110.0,Other or unspecified energy sources,Steam turbine,,,,,,CEPS,,50.41879,13.26039,Other or unspecified energy sources,,
Prunéřov 2 G21,,,,,CZ,210.0,Other or unspecified energy sources,Steam turbine,,,,,,CEPS,,50.41879,13.26039,Other or unspecified energy sources,,
Prunéřov 2 G22,,,,,CZ,215.0,Other or unspecified energy sources,Steam turbine,,,,,,CEPS,,50.41879,13.26039,Other or unspecified energy sources,,
Prunéřov 2 G23,,,,,CZ,250.0,Other or unspecified energy sources,Steam turbine,,,,,,CEPS,,50.41879,13.26039,Other or unspecified energy sources,,
Prunéřov 2 G24,,,,,CZ,250.0,Other or unspecified energy sources,Steam turbine,,,,,,CEPS,,50.41879,13.26039,Other or unspecified energy sources,,
Prunéřov 2 G25,,,,,CZ,250.0,Other or unspecified energy sources,Steam turbine,,,,,,CEPS,,50.41879,13.26039,Other or unspecified energy sources,,
Temelín G1,,,,,CZ,1077.0,Nuclear,Steam turbine,,,,,,CEPS,,49.18109,14.38641,Nuclear,,
Temelín G2,,,,,CZ,1080.0,Nuclear,Steam turbine,,,,,,CEPS,,49.18109,14.38641,Nuclear,,
Tisová 2 G6,,,,,CZ,105.0,Other or unspecified energy sources,Steam turbine,,,,,,CEPS,,50.15457,12.61445,Other or unspecified energy sources,,
Tušimice 2 G21,,,,,CZ,200.0,Other or unspecified energy sources,Steam turbine,,,,,,CEPS,,50.3824,13.34085,Other or unspecified energy sources,,
Tušimice 2 G22,,,,,CZ,200.0,Other or unspecified energy sources,Steam turbine,,,,,,CEPS,,50.3824,13.34085,Other or unspecified energy sources,,
Tušimice 2 G23,,,,,CZ,200.0,Other or unspecified energy sources,Steam turbine,,,,,,CEPS,,50.3824,13.34085,Other or unspecified energy sources,,
Tušimice 2 G24,,,,,CZ,200.0,Other or unspecified energy sources,Steam turbine,,,,,,CEPS,,50.3824,13.34085,Other or unspecified energy sources,,
Val Giuf,,,,Rueras,CH,1.5,Hydro,Run-of-river,,,,1979.0,,BFE,,46.6713364433,8.75072947495,Renewable energy,Hydro,
Sedrun 1,,,,Sedrun,CH,150.0,Hydro,Reservoir,,,,2011.0,- Zentralen Sedrun 1 und Sedrun 2 in einer Kaverne; ,BFE,,46.670049651,8.76860353742,Renewable energy,Hydro,
Sedrun 2,,,,Sedrun,CH,0.75,Hydro,Run-of-river,,,,1968.0,- Zentralen Sedrun 1 und Sedrun 2 in einer Kaverne; ,BFE,,46.670049651,8.76860353742,Renewable energy,Hydro,
Tavanasa (KVR),,,,Tavanasa,CH,180.0,Hydro,Reservoir,,,,1962.0,,BFE,,46.7510368203,9.04692392804,Renewable energy,Hydro,
Russein,,,,Somvix,CH,24.87,Hydro,Run-of-river,,,,2015.0,,BFE,,46.7202818447,8.89856834691,Renewable energy,Hydro,
Ferrera,,,,Trun,CH,4.23,Hydro,Run-of-river,,,,1999.0,,BFE,,46.7435050176,8.98649363197,Renewable energy,Hydro,
Trun,,,,Trun,CH,0.6,Hydro,Run-of-river,,,,2005.0,- Kote Maschinensaalboden bezieht sich auf die Höhe der Turbinenachse; ,BFE,,46.7435050176,8.98649363197,Renewable energy,Hydro,
Dardin (Casut),,,,"Dardin, Casut",CH,0.4,Hydro,Run-of-river,,,,2008.0,- Trinkwasserkraftwerk; ,BFE,,46.7573816308,9.04999337816,Renewable energy,Hydro,
Brigels-Tavanasa,,,,Tavanasa,CH,12.5,Hydro,Run-of-river,,,,1960.0,- Ersatzenergie:	Abgabe an Repower AG als Realersatz für das stillgelegte Kraftwerk Waltensburg  ;                                    ; ,BFE,,46.7580621697,9.07174622905,Renewable energy,Hydro,
Ladral,,,,Waltensburg,CH,5.1,Hydro,Run-of-river,,,,1973.0,,BFE,,46.771415734,9.11876991407,Renewable energy,Hydro,
Ilanz 1 (Stufe Tavanasa),,,,Ilanz,CH,34.5,Hydro,Run-of-river,,,,1990.0,- Zentralen Ilanz 1 und Ilanz 2 in einem Gebäude              ; ,BFE,,46.7747637594,9.1952255793,Renewable energy,Hydro,
Ilanz 2 (Stufe Panix (Pigniu)),,,,Ilanz,CH,49.5,Hydro,Reservoir,,,,1992.0,- Zentralen Ilanz 1 und Ilanz 2 in einem Gebäude              ; ,BFE,,46.7747637594,9.1952255793,Renewable energy,Hydro,
Seekraftwerk Zervreila,,,,"Vals, Staumauer Zervreila",CH,22.0,Hydro,Reservoir,,,,1999.0,- Ampervreila und Peilerbach werden nur im Sommer genutzt (Zubringer-Pumpbetrieb)       ;                                          ; ,BFE,,46.5789495911,9.1193155643,Renewable energy,Hydro,
Safien Platz,,,,Safien Platz,CH,90.0,Hydro,Reservoir,,,,1997.0,,BFE,,46.6778242878,9.31587383275,Renewable energy,Hydro,
Rothenbrunnen,,,,Rothenbrunnen,CH,135.0,Hydro,Reservoir,,,,2011.0,,BFE,,46.7658960254,9.41820114963,Renewable energy,Hydro,
Rabiusa-Realta,,,,Rothenbrunnen,CH,26.0,Hydro,Run-of-river,,,,2004.0,,BFE,,46.7649113824,9.41790308497,Renewable energy,Hydro,
Lunschania,,,,"St. Martin, Lunschania",CH,0.94,Hydro,Run-of-river,,,,1996.0,,BFE,,46.6601503473,9.18823038522,Renewable energy,Hydro,
Bargaus,,,,Sagogn,CH,2.82,Hydro,Run-of-river,,,,1963.0,,BFE,,46.7931455833,9.27364512391,Renewable energy,Hydro,
Punt Gronda (Segnas),,,,Flims,CH,2.62,Hydro,Run-of-river,,,,2012.0,"- Zentralen Punt Gronda (Segnas), Punt Gronda (Platt Alva) und Punt Gronda (Tarschlims) in einem Gebäude; ",BFE,,46.8384516549,9.26509335259,Renewable energy,Hydro,
Punt Gronda (Platt Alva),,,,Flims,CH,0.64,Hydro,Run-of-river,,,,2012.0,"- Zentrale Punt Gronda (Platt Alva), Punt Gronda (Segnas) und Punt Gronda (Tarschlims) in einem Gebäude;  ; ",BFE,,46.8384516549,9.26509335259,Renewable energy,Hydro,
Punt Gronda (Tarschlims),,,,Flims,CH,0.3,Hydro,Run-of-river,,,,2013.0,"- Zentrale Punt Gronda (Tarschlims), Punt Gronda (Platt Alva) und  Punt Gronda (Segnas) in einem Gebäude; - Trinkwasserkraftwerk; ",BFE,,46.8384516549,9.26509335259,Renewable energy,Hydro,
Stenna (Flims) Flembach,,,,Flims,CH,1.73,Hydro,Run-of-river,,,,1999.0,,BFE,,46.8337568535,9.28289622392,Renewable energy,Hydro,
"Flims, Felsbach (Karstwasser)",,,,Flims,CH,0.88,Hydro,Run-of-river,,,,2011.0,"- Zentrale Flims, Felsbach (Karstwasser) und Zentrale Flims, Felsbach (Bergwasser) sind in einem Gebäude Felsbach			;   			;  ; 			;  ; ",BFE,,46.8340905068,9.31765249379,Renewable energy,Hydro,
"Flims, Felsbach (Bergwasser)",,,,Flims,CH,0.28,Hydro,Run-of-river,,,,2011.0,"- Zentrale Flims, Felsbach (Bergwasser) und Zentrale Flims, Felsbach (Karstwasser) sind in einem Gebäude Felsbach		; ",BFE,,46.8340905068,9.31765249379,Renewable energy,Hydro,
Mulin,,,,Trin Mulin,CH,1.6,Hydro,Run-of-river,,,,2004.0,,BFE,,46.833447951,9.34018135796,Renewable energy,Hydro,
Pintrun,,,,Trin,CH,6.48,Hydro,Run-of-river,,,,1944.0,,BFE,,46.8148577632,9.34883064445,Renewable energy,Hydro,
Ferrera 1,,,,Ausserferrera,CH,180.0,Hydro,Pumped storage,,,,1962.0,- Zentralen Ferrera 1 und Ferrera 2 in einem Gebäude          ; ,BFE,,46.5329177645,9.43419338513,Renewable energy,Hydro,
Ferrera 2,,,,Ausserferrera,CH,4.4,Hydro,Run-of-river,,,,1963.0,- Zentralen Ferrera 1 und Ferrera 2 in einem Gebäude          ; ,BFE,,46.5329177645,9.43419338513,Renewable energy,Hydro,
Nufenen,,,,Nufenen,CH,0.3,Hydro,Run-of-river,,,,2009.0,,BFE,,46.5430537927,9.24795177052,Renewable energy,Hydro,
Splügen (Tambobach),,,,Splügen,CH,1.8,Hydro,Run-of-river,,,,2012.0,,BFE,,46.5459228175,9.30973326414,Renewable energy,Hydro,
Bärenburg,,,,Andeer,CH,220.0,Hydro,Reservoir,,,,1962.0,,BFE,,46.5901915365,9.42142722621,Renewable energy,Hydro,
Bärenburg Dotieranlage,,,,Andeer,CH,0.76,Hydro,Run-of-river,,,,1968.0,,BFE,,46.5901915365,9.42142722621,Renewable energy,Hydro,
Sils,,,,"Sils, Nisellas",CH,247.0,Hydro,Reservoir,,,,1961.0,,BFE,,46.7031360141,9.46664904976,Renewable energy,Hydro,
Thusis,,,,Thusis,CH,4.6,Hydro,Run-of-river,,,,1968.0,,BFE,,46.6901486217,9.44288408447,Renewable energy,Hydro,
Preda-Bergün,,,,Preda bei Bergün,CH,0.9,Hydro,Run-of-river,,,,1976.0,,BFE,,46.5874577736,9.77845017026,Renewable energy,Hydro,
Frauenkirch,,,,"Davos, Frauenkirch",CH,0.7,Hydro,Run-of-river,,,,1963.0,,BFE,,46.7688686224,9.80558112281,Renewable energy,Hydro,
Glaris,,,,"Davos, Glaris",CH,1.13,Hydro,Run-of-river,,,,1964.0,,BFE,,46.7360930283,9.77586865383,Renewable energy,Hydro,
Filisur,,,,Filisur,CH,65.0,Hydro,Run-of-river,,,,2002.0,,BFE,,46.6698919694,9.68920263555,Renewable energy,Hydro,
Filisur-Tiefencastel,,,,Tiefencastel,CH,24.0,Hydro,Run-of-river,,,,1989.0,,BFE,,46.6608466013,9.57955507518,Renewable energy,Hydro,
Stalvedro (Julia),,,,Bivio,CH,0.65,Hydro,Run-of-river,,,,1980.0,,BFE,,46.4796105068,9.6452128901,Renewable energy,Hydro,
Tinizong,,,,Tinizong,CH,69.5,Hydro,Reservoir,,,,1971.0,,BFE,,46.5825064851,9.61064835764,Renewable energy,Hydro,
Nandrò,,,,Riom - Parsonz,CH,1.59,Hydro,Run-of-river,,,,2011.0,,BFE,,46.5681520979,9.5702754213,Renewable energy,Hydro,
Tiefencastel Ost,,,,Tiefencastel,CH,52.0,Hydro,Reservoir,,,,1970.0,- Zentralen Tiefencastel Ost und Tiefencastel West in einem Gebäudekomplex    ;                                                  ; ,BFE,,46.6644016578,9.56270347437,Renewable energy,Hydro,
Tiefencastel West,,,,Tiefencastel,CH,26.0,Hydro,Run-of-river,,,,1949.0,- Zentralen Tiefencastel Ost und Tiefencastel West in einem Gebäudekomplex   ;                                                  ; ,BFE,,46.6644016578,9.56270347437,Renewable energy,Hydro,
Solis,,,,Vaz/Obervaz,CH,7.3,Hydro,Run-of-river,,,,1978.0,,BFE,,46.6819220936,9.52521300017,Renewable energy,Hydro,
Sils (EWZ),,,,Sils im Domleschg,CH,26.0,Hydro,Run-of-river,,,,1996.0,- Zentrale Sils(EWZ) dient als Dotierzentrale                   ; ,BFE,,46.7040817391,9.46406852744,Renewable energy,Hydro,
Rothenbrunnen (EWZ),,,,Rothenbrunnen,CH,44.0,Hydro,Reservoir,,,,1976.0,,BFE,,46.7739461705,9.42098533692,Renewable energy,Hydro,
Reichenau,,,,Domat-Ems,CH,19.06,Hydro,Run-of-river,,,,1962.0,,BFE,,46.8377337086,9.44733101447,Renewable energy,Hydro,
Arosa-Litzirüti,,,,Litzirüti,CH,5.0,Hydro,Run-of-river,,,,1969.0,,BFE,,46.8000493529,9.70591198066,Renewable energy,Hydro,
KW Sagenbach,,,,"Lüen, Tewald",CH,3.55,Hydro,Run-of-river,,,,2013.0,"- Zentralen Lüen (Sagenbach) und Lüen (Plessur, Clasaurer) in einem Gebäude; ",BFE,,46.8284428074,9.60614992526,Renewable energy,Hydro,
Molinis-Lüen,,,,"Lüen, Tewald",CH,7.2,Hydro,Run-of-river,,,,1990.0,"- Zentralen Lüen (Plessur, Clasaurer) und Lüen (Sagenbach) in einem Gebäude; ",BFE,,46.8284428074,9.60614992526,Renewable energy,Hydro,
Plessurwerk,,,,"Chur, Sand",CH,9.4,Hydro,Run-of-river,,,,2011.0,- Zentralen Sand (Plessur) und Sand (Rabiusa) in einem Gebäude; ,BFE,,46.8404306281,9.54250541843,Renewable energy,Hydro,
Rabiusawerk,,,,"Chur, Sand",CH,0.71,Hydro,Run-of-river,,,,2012.0,- Zentralen Sand (Plessur) und Sand (Rabiusa) in einem Gebäude;  ; ,BFE,,46.8404306281,9.54250541843,Renewable energy,Hydro,
Klosters,,,,Klosters,CH,16.5,Hydro,Reservoir,,,,1982.0,,BFE,,46.861014512,9.89557404649,Renewable energy,Hydro,
Schlappin,,,,Klosters-Dorf,CH,6.1,Hydro,Run-of-river,,,,2000.0,,BFE,,46.8850480052,9.87855790113,Renewable energy,Hydro,
Küblis,,,,Küblis,CH,45.6,Hydro,Run-of-river,,,,2006.0,,BFE,,46.913974185,9.78202924909,Renewable energy,Hydro,
Taschinas,,,,Seewis,CH,11.33,Hydro,Run-of-river,,,,2011.0,,BFE,,46.9828412314,9.64486330331,Renewable energy,Hydro,
Igiser Mülbach 1 (Landquart 1),,,,Landquart-Fabriken,CH,0.5,Hydro,Run-of-river,,,,1978.0,,BFE,,46.9593278102,9.57988985784,Renewable energy,Hydro,
Igiser Mülbach 2 (Landquart 2),,,,Landquart-Fabriken,CH,0.71,Hydro,Run-of-river,,,,1988.0,,BFE,,46.9548019948,9.5668303331,Renewable energy,Hydro,
Mapragg,,,,Vadura,CH,279.9,Hydro,Pumped storage,,,,1977.0,- Mittlere Produktionserwartung: Inklusive Hilfsbetriebe       ; - Zentrale Mapragg praktiziert Umwälzbetrieb                   ; ,BFE,,46.9484407976,9.4812988795,Renewable energy,Hydro,
Sarelli,,,,Bad Ragaz,CH,90.0,Hydro,Reservoir,,,,1978.0,- Mittlere Produktionserwartung: Inklusive Hilfsbetriebe        ; ,BFE,,46.9770980292,9.53865885488,Renewable energy,Hydro,
Ragaz,,,,Ragaz,CH,0.7,Hydro,Run-of-river,,,,1956.0,- Mittlere Produktionserwartung: Ab Inbetriebnahme KSL nur noch Pflichtwasseranteil. ;                                              ; ,BFE,,47.0000948296,9.50115288825,Renewable energy,Hydro,
Jenins,,,,Jenins,CH,0.46,Hydro,Run-of-river,,,,1997.0,,BFE,,46.9931780282,9.55480652195,Renewable energy,Hydro,
Valeis,,,,Vilters,CH,1.2,Hydro,Run-of-river,,,,2004.0,,BFE,,47.0232622307,9.44809505335,Renewable energy,Hydro,
Grossbach,,,,"Wangs, Gaschiels",CH,0.7,Hydro,Run-of-river,,,,1993.0,- Rechtsgrundlage: Konzessionsverhandlungen im Gange            ; ,BFE,,47.0258051067,9.44161096561,Renewable energy,Hydro,
Sevelen,,,,Sevelen,CH,1.14,Hydro,Run-of-river,,,,1989.0,,BFE,,47.1209036183,9.48300188061,Renewable energy,Hydro,
Buchs-Vorderberg,,,,"Buchs, Waldrand",CH,0.98,Hydro,Run-of-river,,,,1987.0,- Trinkwasserkraftwerk; ,BFE,,47.1490022349,9.44582705102,Renewable energy,Hydro,
Buchs-Tobeläckerli,,,,"Buchs, Steig - Aspenhölzli",CH,0.69,Hydro,Run-of-river,,,,2013.0,- Trinkwasserkraftwerk; ,BFE,,47.1562316902,9.46456548914,Renewable energy,Hydro,
Buchs-Altendorf,,,,"Buchs, Altendorf",CH,3.56,Hydro,Run-of-river,,,,1987.0,,BFE,,47.1569967916,9.46710077053,Renewable energy,Hydro,
Grabs (Bannwald),,,,"Grabs, Bannwald",CH,0.44,Hydro,Run-of-river,,,,1994.0,,BFE,,47.17262767,9.41689346785,Renewable energy,Hydro,
Grabs (Löchli),,,,"Grabs, Löchli",CH,1.43,Hydro,Run-of-river,,,,1996.0,,BFE,,47.1757270944,9.43020364886,Renewable energy,Hydro,
Sennwald,,,,Sennwald,CH,1.22,Hydro,Run-of-river,,,,1990.0,,BFE,,47.2615761557,9.49605409189,Renewable energy,Hydro,
Lienz,,,,Lienz,CH,0.35,Hydro,Run-of-river,,,,1989.0,,BFE,,47.2751747537,9.525398933,Renewable energy,Hydro,
Blatten (SAK),,,,"Oberriet, Blatten",CH,0.35,Hydro,Run-of-river,,,,1989.0,,BFE,,47.307700421,9.56728348718,Renewable energy,Hydro,
Montlingen,,,,Montlingen,CH,0.37,Hydro,Run-of-river,,,,1989.0,,BFE,,47.3392405944,9.57926456954,Renewable energy,Hydro,
Lochmühle,,,,"Untereggen, Lochmüli",CH,0.63,Hydro,Run-of-river,,,,2003.0,,BFE,,47.4603255412,9.43979811879,Renewable energy,Hydro,
Morgental (Abwasser),,,,Steinach,CH,1.2,Hydro,Run-of-river,,,,2014.0,- Abwasserkraftwerk; ,BFE,,47.5005666197,9.42790432392,Renewable energy,Hydro,
Schaffhausen,,,,Schaffhausen,CH,28.9,Hydro,Run-of-river,,,,1964.0,,BFE,,47.6931243898,8.63042746026,Renewable energy,Hydro,
Engeweiher,,,,Schaffhausen,CH,5.0,Hydro,Pumped storage with natural inflow,,,,1993.0,- Zentrale Engeweiher praktiziert Umwälzbetrieb  ; ,BFE,,47.6934840779,8.63043555306,Renewable energy,Hydro,
Neuhausen,,,,Neuhausen,CH,5.6,Hydro,Run-of-river,,,,2011.0,,BFE,,47.6798806585,8.61494656661,Renewable energy,Hydro,
Rheinau,,,,Rheinau,CH,36.8,Hydro,Run-of-river,,,,2005.0,,BFE,,47.6389102371,8.60166117811,Renewable energy,Hydro,
Giessen,,,,"Nesslau, unterer Giessenfall",CH,1.9,Hydro,Run-of-river,,,,2001.0,,BFE,,47.2178452198,9.20939259186,Renewable energy,Hydro,
Nesslau (Ijentalerbach),,,,"Nesslau, Schneit",CH,1.25,Hydro,Run-of-river,,,,2010.0,,BFE,,47.2216373141,9.18495516077,Renewable energy,Hydro,
Herrentöbeli,,,,Krummenau,CH,0.91,Hydro,Run-of-river,,,,1991.0,,BFE,,47.2447757187,9.17791678684,Renewable energy,Hydro,
Trempel,,,,"Trempel, Ebnat-Kappel",CH,1.8,Hydro,Run-of-river,,,,2007.0,,BFE,,47.2494883643,9.16366835457,Renewable energy,Hydro,
Im Roos,,,,Ebnat - Kappel,CH,0.86,Hydro,Run-of-river,,,,2004.0,,BFE,,47.2585402791,9.12960201415,Renewable energy,Hydro,
"Stadtbrücke, Lichtensteig",,,,Lichtensteig,CH,0.57,Hydro,Run-of-river,,,,2013.0,,BFE,,47.3232416909,9.08494859192,Renewable energy,Hydro,
Dietfurt,,,,Bütschwil,CH,0.98,Hydro,Run-of-river,,,,2002.0,,BFE,,47.3444435336,9.08070597557,Renewable energy,Hydro,
Soor,,,,Bütschwil,CH,0.98,Hydro,Run-of-river,,,,2001.0,,BFE,,47.3564409783,9.07842778781,Renewable energy,Hydro,
Mülau,,,,Mülau bei Bazenheid Kirchberg,CH,1.37,Hydro,Run-of-river,,,,2010.0,- Ersatz alte Zentrale Mülau im Jahr 2010;  ; ,BFE,,47.410872339,9.07811617053,Renewable energy,Hydro,
Niederglatt-Gossau,,,,Glattmüli,CH,0.35,Hydro,Run-of-river,,,,1967.0,,BFE,,47.4314001196,9.17553013871,Renewable energy,Hydro,
Bischofszell,,,,Bischofszell,CH,1.02,Hydro,Run-of-river,,,,1935.0,,BFE,,47.4930279409,9.23422119529,Renewable energy,Hydro,
Seealp - Wasserauen,,,,Rässenaueli,CH,2.5,Hydro,Reservoir,,,,2005.0,,BFE,,47.2807040389,9.42116368952,Renewable energy,Hydro,
Rossfall,,,,Urnäsch,CH,0.38,Hydro,Run-of-river,,,,1991.0,,BFE,,47.2868596876,9.27779379793,Renewable energy,Hydro,
EW Zürchersmühle,,,,Urnäsch,CH,0.36,Hydro,Run-of-river,,,,1987.0,,BFE,,47.3318002224,9.29178339624,Renewable energy,Hydro,
Kubel,,,,St. Gallen,CH,14.5,Hydro,Run-of-river,,,,1976.0,,BFE,,47.4019094764,9.32364063827,Renewable energy,Hydro,
Sittertal,,,,"St. Gallen, Sittertal",CH,0.46,Hydro,Run-of-river,,,,2007.0,,BFE,,47.410010524,9.32339732284,Renewable energy,Hydro,
Burentobel,,,,St. Gallen,CH,0.3,Hydro,Run-of-river,,,,2008.0,,BFE,,47.4191628646,9.34135118586,Renewable energy,Hydro,
Erlenholz,,,,Wittenbach,CH,0.48,Hydro,Run-of-river,,,,2003.0,,BFE,,47.4572264157,9.36804900144,Renewable energy,Hydro,
Thurfeld,,,,Schönenberg,CH,1.7,Hydro,Run-of-river,,,,2011.0,,BFE,,47.5192647047,9.20708697249,Renewable energy,Hydro,
Au-Schönenberg,,,,Schönenberg an der Thur,CH,2.3,Hydro,Run-of-river,,,,2002.0,,BFE,,47.5239809806,9.18679102533,Renewable energy,Hydro,
Bürglen (Säge),,,,Bürglen,CH,0.44,Hydro,Run-of-river,,,,2008.0,,BFE,,47.547257475,9.15221424841,Renewable energy,Hydro,
Thur,,,,Bürglen,CH,0.7,Hydro,Run-of-river,,,,1976.0,"- Thur 1 und Thur 2 sind in der Zentrale Thur zusammengefasst.  ; - Rechtsgrundlagen:  Konzessionsablauf Thur 1 = 2036, Konzessionsablauf Thur 2 = 2027.            ;                     	             ; ",BFE,,47.5502758294,9.1427446335,Renewable energy,Hydro,
Weinfelden (Model),,,,Weinfelden,CH,0.4,Hydro,Run-of-river,,,,1948.0,,BFE,,47.5608510601,9.1021506291,Renewable energy,Hydro,
Weinfelden (Mühle),,,,Weinfelden,CH,0.4,Hydro,Run-of-river,,,,1948.0,,BFE,,47.5607188536,9.09882399502,Renewable energy,Hydro,
Widen,,,,"Weinfelden, untere Widen",CH,0.83,Hydro,Run-of-river,,,,1989.0,,BFE,,47.5647136507,9.07728471582,Renewable energy,Hydro,
Murkart,,,,Matzingen,CH,0.34,Hydro,Run-of-river,,,,2008.0,,BFE,,47.5374877465,8.91438251912,Renewable energy,Hydro,
"Schlossmühle, Frauenfeld",,,,"Frauenfeld, Schlossmühlestr.",CH,0.31,Hydro,Run-of-river,,,,2012.0,- In der aufgeführten Leistung und der erwarteten Produktion sind die Dotieranlage und Wehranlage zusammengefasst.; ,BFE,,47.5538872916,8.89796299427,Renewable energy,Hydro,
Kollbrunn,,,,"Kollbrunn, Gmde. Zell",CH,0.37,Hydro,Run-of-river,,,,2010.0,,BFE,,47.4592833018,8.76883185531,Renewable energy,Hydro,
Sennhof,,,,"Sennhof, Illnau-Effretikon",CH,0.47,Hydro,Run-of-river,,,,2014.0,,BFE,,47.4661750376,8.75613687859,Renewable energy,Hydro,
Pfungen,,,,Neftenbach,CH,0.35,Hydro,Run-of-river,,,,1994.0,,BFE,,47.5214894015,8.64091948594,Renewable energy,Hydro,
Hard Wülflingen,,,,"Hard, Wülflingen in Winterthur",CH,0.58,Hydro,Run-of-river,,,,2015.0,,BFE,,47.5179055877,8.67376758421,Renewable energy,Hydro,
Freienstein,,,,Freienstein,CH,0.6,Hydro,Run-of-river,,,,2004.0,- Ersatz alte Zentrale Freienstein im Jahr 2004; ,BFE,,47.528692361,8.58703091713,Renewable energy,Hydro,
Trümpler,,,,Oberuster,CH,0.42,Hydro,Run-of-river,,,,2000.0,,BFE,,47.3456402562,8.73992340849,Renewable energy,Hydro,
Eglisau,,,,Zweidlen,CH,46.9,Hydro,Run-of-river,,,,2012.0,,BFE,,47.5749161402,8.47332208664,Renewable energy,Hydro,
Reckingen,,,,Reckingen,CH,39.5,Hydro,Run-of-river,,,,2004.0,,BFE,,47.5710071549,8.3380806201,Renewable energy,Hydro,
Wunderklingen,,,,Hallau,CH,0.42,Hydro,Run-of-river,,,,1968.0,,BFE,,47.6978059267,8.4073779118,Renewable energy,Hydro,
Albbruck-Dogern,,,,Leibstadt,CH,28.4,Hydro,Run-of-river,,,,2009.0,,BFE,,47.5977213923,8.17165593034,Renewable energy,Hydro,
Albbruck-Dogern,,,,Albbruck,CH,84.9,Hydro,Run-of-river,,,,1992.0,,BFE,,47.58581763,8.13293948536,Renewable energy,Hydro,
Laufenburg,,,,Laufenburg,CH,110.0,Hydro,Run-of-river,,,,1992.0,,BFE,,47.5558907696,8.04884507333,Renewable energy,Hydro,
Rheinkraftwerk Säckingen,,,,Bad Säckingen,CH,73.6,Hydro,Run-of-river,,,,1966.0,,BFE,,47.5578674161,7.95679136018,Renewable energy,Hydro,
Ryburg-Schwörstadt,,,,Schwörstadt,CH,120.0,Hydro,Run-of-river,,,,1984.0,,BFE,,47.5863232345,7.83343789289,Renewable energy,Hydro,
Ryburg-Schwörstadt Lockstromz.,,,,"Schwörstaddt, KW Ryburg-Schw.",CH,0.35,Hydro,Run-of-river,,,,2014.0,,BFE,,47.5874006466,7.83397764783,Renewable energy,Hydro,
Rheinfelden,,,,Rheinfelden,CH,100.0,Hydro,Run-of-river,,,,2010.0,- Ersatz alte Zentrale Rheinfelden im Jahr 2010;  ; ,BFE,,47.5688531592,7.8129757269,Renewable energy,Hydro,
Rheinfelden-Dotierzentrale,,,,Rheinfelden,CH,1.8,Hydro,Run-of-river,,,,2011.0,,BFE,,47.5688531592,7.8129757269,Renewable energy,Hydro,
Augst,,,,Augst,CH,35.0,Hydro,Run-of-river,,,,1994.0,,BFE,,47.5367624123,7.70968848078,Renewable energy,Hydro,
Wyhlen,,,,Grenzach-Wyhlen,CH,38.5,Hydro,Run-of-river,,,,1994.0,,BFE,,47.5387456625,7.70770633233,Renewable energy,Hydro,
Birsfelden,,,,Birsfelden,CH,100.0,Hydro,Run-of-river,,,,1999.0,,BFE,,47.5598609367,7.62636460556,Renewable energy,Hydro,
Moutier,,,,Gorges de Court,CH,0.92,Hydro,Run-of-river,,,,1979.0,,BFE,,47.2656875543,7.34903942074,Renewable energy,Hydro,
Choindez,,,,Choindez,CH,0.58,Hydro,Run-of-river,,,,2003.0,,BFE,,47.3222821543,7.37844081384,Renewable energy,Hydro,
Blanches-Fontaines Undervelier,,,,"Undervelier, Blanches-Fontaine",CH,0.32,Hydro,Run-of-river,,,,2001.0,,BFE,,47.2948384497,7.22127698932,Renewable energy,Hydro,
Bassecourt,,,,"Chez Theurillat, Haute-Sorne",CH,1.03,Hydro,Run-of-river,,,,2001.0,,BFE,,47.331015929,7.23197724871,Renewable energy,Hydro,
Bellerive,,,,Soyhières,CH,0.52,Hydro,Run-of-river,,,,2002.0,,BFE,,47.3828021223,7.35916951758,Renewable energy,Hydro,
Juramill,,,,Laufen,CH,0.35,Hydro,Run-of-river,,,,1997.0,,BFE,,47.4105191351,7.49467015206,Renewable energy,Hydro,
Laufen (Wasserfall),,,,Laufen,CH,0.72,Hydro,Run-of-river,,,,1995.0,,BFE,,47.4196898837,7.50117302601,Renewable energy,Hydro,
"Zwingen, Obermatt",,,,Zwingen,CH,0.38,Hydro,Run-of-river,,,,2005.0,,BFE,,47.4364944597,7.52399277792,Renewable energy,Hydro,
Nenzlingen,,,,Nenzlingen,CH,0.34,Hydro,Run-of-river,,,,1997.0,,BFE,,47.4438497021,7.5478685338,Renewable energy,Hydro,
Moos,,,,Grellingen,CH,0.98,Hydro,Run-of-river,,,,1999.0,,BFE,,47.4387770608,7.58113219065,Renewable energy,Hydro,
Büttenen 2,,,,Grellingen,CH,0.5,Hydro,Run-of-river,,,,2000.0,- Nutzungsdauer:  Bezogen auf die Ausbauwassermenge von 13.0 m3/s (Zentralen Büttenen 1 und Büttenen 2);                        ; ,BFE,,47.4428086273,7.59347246718,Renewable energy,Hydro,
Büttenen 1,,,,Grellingen,CH,0.55,Hydro,Run-of-river,,,,1999.0,- Nutzungsdauer:  Bezogen auf die Ausbauwassermenge von 13.0 m3/s (Zentralen Büttenen 1 und Büttenen 2);                         ; ,BFE,,47.4428086273,7.59347246718,Renewable energy,Hydro,
Dornachbrugg,,,,Dornach,CH,1.54,Hydro,Run-of-river,,,,1996.0,,BFE,,47.4890184953,7.60740615434,Renewable energy,Hydro,
Neuewelt,,,,Münchenstein,CH,1.07,Hydro,Run-of-river,,,,1998.0,,BFE,,47.5257818674,7.62173011689,Renewable energy,Hydro,
Am. de dotation du Kembs 1,,,,Barrage de Kembs,CH,2.85,Hydro,Run-of-river,,,,1966.0,,BFE,,47.6194755433,7.57030818507,Renewable energy,Hydro,
Kembs,,,,"Kembs, Loechle",CH,155.0,Hydro,Run-of-river,,,,1983.0,,BFE,,47.6549559529,7.51941590623,Renewable energy,Hydro,
Grimsel 2,,,,"Grimsel, Chessituren",CH,348.0,Hydro,Pumped storage with natural inflow,,,,1981.0,- Zentrale Grimsel 2 praktiziert Umwälzbetrieb            ; ,BFE,,46.5680720667,8.31932651704,Renewable energy,Hydro,
Grimsel 1-Oberaarsee,,,,"Grimsel, Sommerloch u.Hospiz",CH,35.3,Hydro,Reservoir,,,,2006.0,- Zentralen Grimsel 1 (Oberaarsee) und Grimsel 1 (Grimselsee) in einer Kaverne;     ;                                                    ; ,BFE,,46.5753380766,8.33353407357,Renewable energy,Hydro,
Grimsel 1-Grimselsee,,,,"Grimsel, Sommerloch, u.Hospiz",CH,32.5,Hydro,Reservoir,,,,2007.0,- Zentralen Grimsel 1 (Oberaarsee) und Grimsel 1 (Grimselsee) in einer Kaverne;    ;                                                    ; ,BFE,,46.5753380766,8.33353407357,Renewable energy,Hydro,
Handeck 1,,,,Handegg,CH,100.0,Hydro,Reservoir,,,,1932.0,"- Die Zentralenwerte beziehen sich auf die Anlage vor der Systemanpassung mit dem Projekt ""Tandem"";   Nach der Inbetriebnahme des Projektes ""Tandem"" im Jahre 2016 sind folgende Werte zu erwarten:;   Ausbauwassermenge (an 100 Tagen erreicht)		=   20.10 m3/s;   Installierte Leistung sämtlicher Turbinen		=   100.00 MW;   Maximal mögliche Leistung ab Generatoren		=   90.00 MW;   Mittlere Produktionserwartung im Sommerhalbjahr	=   153.70 GWh;   Mittlere Produktionserwartung im Winterhalbjahr		=   53.60 GWh;   Mittlere Produktionserwartung im Jahr			=   206.30 GWh;   Kote Maschinensaalboden				=   1412.70 m.ü.M; - Status der Zentrale: Aufnahme des Normalbetriebes ist im Jahr 2016 vorgesehen",BFE,,46.6168313032,8.30758712831,Renewable energy,Hydro,
Handeck 3 - Isogyre,,,,Handegg,CH,55.0,Hydro,Pumped storage,,,,1976.0,- Zentrale Handeck 3: Pumpen-Turbinenbetrieb mit Isogyre-Maschine     ;   a) 	Im Turbinenbetrieb: Die Isogyre turbiniert das Wasser aus dem Räterichsbodensee. Dieses wird über das Ausgleichsbecken Handeck; 	entweder zur Zentrale Innertkirchen 1 oder über die Reservoirkammern Trift zur Zentrale Hopflauenen (Trift) geleitet ;   b) 	Im Pumpbetrieb: Die Isogyre pumpt das Wasser aus den Reservoirkammern Trift und/oder aus dem Ausgleichsbecken Handeck; 	in den Räterichsbodensee ; - Zentralen Handeck 3 (Isogyre) und Handeck 3 (Pumpzentrale) in einer Kaverne;                    ;       ;                                                     ;          ,BFE,,46.6156957263,8.30313005616,Renewable energy,Hydro,
Handeck 3 - Diagonalpumpe,,,,Handegg,CH,0.0,Hydro,Pumped storage,,,,1976.0,"- Mit der Diagonalpumpe kann, wenn es die Laufzuflüsse im Gadmental zulassen, Wasser aus dem Ausgleichsbecken Handeck;   via Reservoirkammern Trift zur Zentrale Hopflauenen (Trift) verschoben werden; - Zentralen Handeck 3 (Isogyre) und Handeck 3 (Pumpzentrale) in einer Kaverne   ;        ;                    ;  ;                                                   ;  ; ",BFE,,46.6156957263,8.30313005616,Renewable energy,Hydro,
Gental,,,,"Underi-Furen, Innertkirchen",CH,10.3,Hydro,Reservoir,,,,1961.0,- Zentralen Fuhren und Fuhren (Pumpzentrale) in einem Gebäude   ; ,BFE,,46.7271910884,8.33369724917,Renewable energy,Hydro,
Gental,,,,"Underi-Furen, Innertkirchen",CH,0.0,Hydro,Reservoir,,,,1961.0,- Das Gadmerwasser wird mittels der Pumpzentrale Fuhren  in den Zulaufstollen Steinwasser-Trift gepumpt ; - Zentralen Fuhren und Fuhren (Pumpzentrale) in einem Gebäude     ;                                                         ;   ; ,BFE,,46.7271910884,8.33369724917,Renewable energy,Hydro,
Hopflauenen-Trift,,,,Hopflauenen,CH,85.4,Hydro,Reservoir,,,,1974.0,"- Betrieb je nach Saison                                        ;   a) Laufkraftwerkbetrieb:  Sommer, dh. Zufluss zur Reservoirkammer Trift gleich oder  grösser 14 m3/s                                      ;   b) Lauf- und Speicherkraftwerkbetrieb gemischt:  Frühling/Herbst, dh. natürlicher Zufluss zur Reservoirkammer Trift = 2 - 14 m3/s,    ;                                                			  Rest bis 21 m3/s Speicherwasser ab Zentrale Handeck 3 (Isogyre);   c) Speicherkraftwerkbetrieb: Winter, dh. Speicherwasser ab Zentrale Handeck 3 (Isogyre); - Zentrale Hopflauenen (Trift) und Hopflauenen (Leimboden) in einem Gebäude                ;       ;      ;                                          ;                                    ",BFE,,46.715113414,8.27751698219,Renewable energy,Hydro,
Hopflauenen-Leimboden,,,,Hopflauenen,CH,6.0,Hydro,Run-of-river,,,,1967.0,- Zentralen Hopflauenen (Trift) und Hopflauenen (Leimboden) in einem Gebäude    ;                                                 ; ,BFE,,46.715113414,8.27751698219,Renewable energy,Hydro,
Innertkirchen 2,,,,Innertkirchen,CH,62.0,Hydro,Reservoir,,,,1974.0,"- Betrieb je nach Saison;   a) Laufkraftwerkbetrieb im Sommer;   b) Lauf- und Speicherkraftwerkbetrieb gemischt im Frühling und im Herbst;   c) Speicherkraftwerkbetrieb im Winter ; - Die Zentralenwerte beziehen sich auf die Anlage vor der Systemanpassung mit dem Projekt ""Tandem"";   Nach der Inbetriebnahme des Projektes ""Tandem"" im Jahre 2016 sind folgende Werte zu erwarten:;   Ausbauwassermenge (an 100 Tagen erreicht)		=   29.00 m3/s;   Installierte Leistung sämtlicher Turbinen		=   62.00 MW;   Maximal mögliche Leistung ab Generatoren		=   52.50 MW;   Mittlere Produktionserwartung im Sommerhalbjahr	=   137.50 GWh",BFE,,46.7085534816,8.22601948865,Renewable energy,Hydro,
Meiringen 2,,,,"Meiringen, Haselholz",CH,1.65,Hydro,Run-of-river,,,,1950.0,- Rechtsgrundlage: Konzessionsverhandlungen im Gange. Entscheid wird Ende 2016 erwartet           ; ,BFE,,46.7317817542,8.19665922545,Renewable energy,Hydro,
Meiringen 1,,,,Meiringen,CH,1.0,Hydro,Run-of-river,,,,1946.0,,BFE,,46.7287537496,8.19203780743,Renewable energy,Hydro,
Schattenhalb 3,,,,Schattenhalb,CH,9.7,Hydro,Run-of-river,,,,2010.0,,BFE,,46.7194470022,8.18458296836,Renewable energy,Hydro,
Giessbach,,,,Brienz,CH,0.9,Hydro,Run-of-river,,,,2005.0,,BFE,,46.7344427309,8.01888764388,Renewable energy,Hydro,
Grindelwald,,,,Grindelwald,CH,1.4,Hydro,Reservoir,,,,1960.0,,BFE,,46.6264198282,8.05024233615,Renewable energy,Hydro,
Burglauenen-Lütschental,,,,Lütschental,CH,11.9,Hydro,Run-of-river,,,,2011.0,,BFE,,46.6373283443,7.95450426806,Renewable energy,Hydro,
Stechelberg,,,,"Lauterbrunnen, Stechelberg",CH,4.3,Hydro,Run-of-river,,,,1979.0,,BFE,,46.544726438,7.89990747896,Renewable energy,Hydro,
Saxettal-Geissbrunnen,,,,Saxeten,CH,0.48,Hydro,Run-of-river,,,,1999.0,- Trinkwasserkraftwerk; ,BFE,,46.6283781404,7.82997757095,Renewable energy,Hydro,
Saxettal-Kammri,,,,Wilderswil,CH,0.8,Hydro,Run-of-river,,,,1998.0,- Trinkwasserkraftwerk; ,BFE,,46.65762105,7.853444546,Renewable energy,Hydro,
Interlaken,,,,"Interlaken, Kanal",CH,0.82,Hydro,Run-of-river,,,,1932.0,,BFE,,46.6826409841,7.85010729942,Renewable energy,Hydro,
Interlaken,,,,Unterseen,CH,0.3,Hydro,Run-of-river,,,,1996.0,,BFE,,46.6820230364,7.84683489879,Renewable energy,Hydro,
Kandersteg (Eggeschwand),,,,"Kandersteg, Eggeschwand",CH,2.1,Hydro,Run-of-river,,,,2009.0,,BFE,,46.4750989753,7.66012339529,Renewable energy,Hydro,
Kandersteg (Zilfuri),,,,"Kandersteg, Zilfuri",CH,1.09,Hydro,Run-of-river,,,,1958.0,- Trinkwasserkraftwerk; ,BFE,,46.4956334904,7.69159893354,Renewable energy,Hydro,
Kandersteg (Dorf),,,,"Kandersteg, Dorf",CH,1.03,Hydro,Run-of-river,,,,2012.0,,BFE,,46.4959386063,7.67518789714,Renewable energy,Hydro,
Kandergrund,,,,Inner-Kandergrund,CH,19.0,Hydro,Run-of-river,,,,1991.0,,BFE,,46.5427473984,7.65948659951,Renewable energy,Hydro,
Engstligenalp,,,,"Adelboden, Engstligenalp",CH,0.6,Hydro,Run-of-river,,,,2011.0,,BFE,,46.4491601982,7.56175847554,Renewable energy,Hydro,
Moosweid,,,,"Adelboden, Moosweid",CH,0.35,Hydro,Run-of-river,,,,2014.0,,BFE,,46.4961001155,7.57684401786,Renewable energy,Hydro,
Engstlige,,,,Adelboden,CH,0.5,Hydro,Run-of-river,,,,1996.0,,BFE,,46.5068875836,7.58273413036,Renewable energy,Hydro,
Spiez,,,,Längmad am Thunersee,CH,18.66,Hydro,Run-of-river,,,,1986.0,- Ausbauwassermenge:	Bezogen auf die Zuleitungskapazität ab Weiher Spiezmoos       ; - Nutzungsdauer: 		Bezogen auf die Zuleitungskapazität ab Simme- und Kanderwehr bis Weiher Spiezmoos;                                              ;         			12 m3/s + 14 m3/s = 26 m3/s;                          ;                               ; ,BFE,,46.6966510403,7.6649514724,Renewable energy,Hydro,
Berner Green Power GmbH,,,,Weissenburg,CH,0.37,Hydro,Run-of-river,,,,1999.0,,BFE,,46.6669162637,7.46411851171,Renewable energy,Hydro,
Klusi,,,,Erlenbach,CH,1.3,Hydro,Reservoir,,,,1996.0,- Rechtsgrundlage: Betriebsbewilligung an Privatgewässer       ; - Ersatz alte Zentrale Klusi im Jahr 1996                                        ; ,BFE,,46.6638985262,7.54826368379,Renewable energy,Hydro,
Erlenbach,,,,Erlenbach,CH,18.0,Hydro,Run-of-river,,,,2005.0,,BFE,,46.6568821564,7.54811891222,Renewable energy,Hydro,
Simmenfluh,,,,Simmenfluh (Wimmis),CH,9.0,Hydro,Run-of-river,,,,2000.0,,BFE,,46.6727987868,7.62264084059,Renewable energy,Hydro,
AAREwerk 62 Thun,,,,Thun,CH,6.32,Hydro,Run-of-river,,,,1962.0,,BFE,,46.7616886927,7.61338717639,Renewable energy,Hydro,
AAREwerk 94 Thun,,,,Thun,CH,2.83,Hydro,Run-of-river,,,,1994.0,- Ersatz Zentrale Thun-Aare 1917 am Gewerbekanal im Jahr 1994                                ; ,BFE,,46.7616779127,7.62032482826,Renewable energy,Hydro,
Thun (Eidg.),,,,"Thun, Kanal (Uttigenstr.)",CH,0.44,Hydro,Run-of-river,,,,1937.0,,BFE,,46.761596737,7.61469587515,Renewable energy,Hydro,
Blumenstein,,,,Blumenstein,CH,0.64,Hydro,Run-of-river,,,,1990.0,-Trinkwasserkraftwerk; ,BFE,,46.727704518,7.51333335379,Renewable energy,Hydro,
Matte,,,,"Bern, Matte",CH,1.16,Hydro,Run-of-river,,,,1986.0,,BFE,,46.9464934587,7.45675932783,Renewable energy,Hydro,
Felsenau,,,,Engehalde,CH,0.44,Hydro,Run-of-river,,,,1998.0,,BFE,,46.9658342354,7.44467696468,Renewable energy,Hydro,
Felsenau,,,,Felsenau,CH,11.5,Hydro,Run-of-river,,,,1989.0,,BFE,,46.9684429408,7.43942106448,Renewable energy,Hydro,
Mühleberg,,,,Buttenried,CH,44.59,Hydro,Run-of-river,,,,1965.0,,BFE,,46.9691475017,7.28449397374,Renewable energy,Hydro,
Sanetsch,,,,Innergsteig,CH,18.0,Hydro,Reservoir,,,,1966.0,,BFE,,46.3764261319,7.27799985349,Renewable energy,Hydro,
Lauenen (Louibach),,,,Lauenen bei Gstaad,CH,0.9,Hydro,Run-of-river,,,,2014.0,,BFE,,46.4241533318,7.31831395313,Renewable energy,Hydro,
Gsteig,,,,Gsteig b.Gstaad,CH,0.72,Hydro,Run-of-river,,,,2015.0,,BFE,,46.3852280895,7.26861425605,Renewable energy,Hydro,
Gérignoz - La Pontia,,,,"Château d'Oex, Gérignoz",CH,0.45,Hydro,Run-of-river,,,,1996.0,,BFE,,46.4732724541,7.165215604,Renewable energy,Hydro,
Montbovon,,,,Montbovon,CH,31.0,Hydro,Run-of-river,,,,1972.0,,BFE,,46.4879524618,7.04831690495,Renewable energy,Hydro,
Lessoc,,,,Lessoc,CH,8.56,Hydro,Run-of-river,,,,1973.0,,BFE,,46.5060508043,7.05326712822,Renewable energy,Hydro,
Sainte - Anne,,,,Grandvillard,CH,2.9,Hydro,Run-of-river,,,,1999.0,,BFE,,46.5351297566,7.08799404019,Renewable energy,Hydro,
Jaun,,,,Jaun,CH,0.38,Hydro,Run-of-river,,,,1982.0,,BFE,,46.6085004996,7.26934360331,Renewable energy,Hydro,
Charmey (La Tzintre),,,,"Charmey, La Tzintre",CH,0.86,Hydro,Run-of-river,,,,2012.0,,BFE,,46.6118329212,7.17691300027,Renewable energy,Hydro,
Charmey (La Perré),,,,"Charmey, Le Perré",CH,5.27,Hydro,Run-of-river,,,,1982.0,,BFE,,46.6145855566,7.16175653751,Renewable energy,Hydro,
Broc,,,,Broc,CH,25.0,Hydro,Run-of-river,,,,1988.0,,BFE,,46.6098576224,7.10930675272,Renewable energy,Hydro,
Am.de dotation d'Hauterive 1,,,,Rossens,CH,0.7,Hydro,Run-of-river,,,,1976.0,- La centrale est hors fonction pendant l'hiver; ,BFE,,46.7179036853,7.1124380045,Renewable energy,Hydro,
Am. de dotation d'Hauterive 2,,,,Rossens,CH,1.7,Hydro,Run-of-river,,,,2005.0,,BFE,,46.7179036853,7.1124380045,Renewable energy,Hydro,
Hauterive,,,,Hauterive,CH,60.0,Hydro,Reservoir,,,,1948.0,,BFE,,46.7689506687,7.1275763544,Renewable energy,Hydro,
Am.de dotation d'Oelberg,,,,"Fribourg, Maigrauge",CH,0.58,Hydro,Run-of-river,,,,1952.0,,BFE,,46.7987340488,7.16591494327,Renewable energy,Hydro,
Oelberg,,,,"Fribourg, Oelberg",CH,18.3,Hydro,Reservoir,,,,1980.0,,BFE,,46.8017059504,7.1673408094,Renewable energy,Hydro,
Schiffenen,,,,Schiffenen,CH,71.0,Hydro,Reservoir,,,,1964.0,,BFE,,46.8827252047,7.19421903622,Renewable energy,Hydro,
Niederried,,,,"Niederried, Radelfingen",CH,15.0,Hydro,Run-of-river,,,,1992.0,- Nutzungsdauer: 	Bezogen auf die Ausbauwassermenge von 215 m3/s  (Zentralen Niederried und Kallnach); - Ersatzenergie: 	Siehe Zentrale Aarberg                            ;                          ; ,BFE,,47.0031721765,7.24113567118,Renewable energy,Hydro,
Aarberg,,,,Aarberg,CH,15.2,Hydro,Run-of-river,,,,1994.0,"- Nutzungsdauer: 	Bezogen auf die Ausbauwassermenge von 215 m3/s (Zentralen Niederried, Aarberg und Kallnach); - Ersatzenergie: 	Die Angabe bezieht sich auf die Zentralen Niederried, Aarberg, Kallnach und Hagneck. Einzelwerte ;                      	der Zentralen nicht bekannt ; Das Dotierkraftwerk Aaberg erzeugt mit 210 kW Leistung und 3.5 m3/s Wasserdurchsatz eine Jahresproduktion von 1.5 GWh;; diese wird dem KW Aarberg zugerechnet. Mit einer Erneuerung des Dotierkraftwekes wird die 300 kW Leistung erreicht und; wird somit als eigene Anlage in der WASTA aufgenommen.;                   ;  ;                          	; ",BFE,,47.0378523989,7.27192721071,Renewable energy,Hydro,
Kallnach,,,,Kallnach,CH,8.3,Hydro,Run-of-river,,,,1980.0,- Die konzedierte Ausbauwassermenge beträgt 70 m3/s            ; - Ersatzenergie: 	Bezug von Forces Motrices Hongrin-Léman SA bereits unter Zentrale Aarberg aufgeführt    ;                      	Einzelwerte der Zentralen nicht bekannt;                         ; ,BFE,,47.0214990152,7.22817749023,Renewable energy,Hydro,
Hagneck 2,,,,Hagneck,CH,20.96,Hydro,Run-of-river,,,,2015.0,- Ersatzenergie: 	Bezug von Forces Motrices Hongrin-Léman SA  bereits unter Zentrale Aarberg aufgeführt    ;                     	Einzelwerte der Zentralen nicht bekannt;  ;  ; ,BFE,,47.0596245726,7.17800844643,Renewable energy,Hydro,
La Dernier,,,,La Dernier,CH,28.0,Hydro,Reservoir,,,,1988.0,,BFE,,46.7020995589,6.34993754477,Renewable energy,Hydro,
La Jougnenaz,,,,Vallorbe,CH,2.35,Hydro,Run-of-river,,,,1970.0,,BFE,,46.7232276398,6.39660508601,Renewable energy,Hydro,
Les Clées,,,,Les Clées,CH,30.0,Hydro,Run-of-river,,,,1955.0,,BFE,,46.7311268769,6.44499252092,Renewable energy,Hydro,
Montcherand,,,,Montcherand,CH,15.5,Hydro,Run-of-river,,,,1950.0,,BFE,,46.7272057233,6.51348662252,Renewable energy,Hydro,
Le Chalet,,,,Orbe,CH,2.6,Hydro,Run-of-river,,,,1988.0,,BFE,,46.7277263163,6.52224302381,Renewable energy,Hydro,
Moulinets sur l'Orbe,,,,Orbe,CH,0.77,Hydro,Run-of-river,,,,2013.0,,BFE,,46.7209697782,6.53229949585,Renewable energy,Hydro,
St.Sulpice,,,,St.Sulpice,CH,3.9,Hydro,Run-of-river,,,,1988.0,- La nouvelle centrale de St.Sulpice remplace entre autres la centrale de La Doux (205800);                                    ; ,BFE,,46.9106213602,6.55745141266,Renewable energy,Hydro,
Le Furcil,,,,"Noiraigue, Le Furcil",CH,0.68,Hydro,Run-of-river,,,,1956.0,,BFE,,46.9536626014,6.73186608774,Renewable energy,Hydro,
Plan-de-l'Eau,,,,Brot - Dessous,CH,1.11,Hydro,Run-of-river,,,,1928.0,,BFE,,46.9531054291,6.74369685922,Renewable energy,Hydro,
Les Moyats,,,,"Brot-Dessous, Les Moyats",CH,1.6,Hydro,Run-of-river,,,,1940.0,,BFE,,46.9529131011,6.75657368575,Renewable energy,Hydro,
Combe-Garot,,,,"Boudry, Combe-Garot",CH,4.86,Hydro,Run-of-river,,,,1961.0,,BFE,,46.9623191064,6.79639758751,Renewable energy,Hydro,
Usine du Chanet,,,,Boudry,CH,4.4,Hydro,Run-of-river,,,,1972.0,,BFE,,46.9592586149,6.82888645291,Renewable energy,Hydro,
Boudry (les Essert),,,,Boudry,CH,0.5,Hydro,Run-of-river,,,,2014.0,,BFE,,46.9508768262,6.84290644242,Renewable energy,Hydro,
Serrières centrale 3,,,,"Neuchâtel, Serrières",CH,0.51,Hydro,Run-of-river,,,,1983.0,,BFE,,46.9841816382,6.9018180623,Renewable energy,Hydro,
Serrières centrale 1,,,,"Neuchâtel, Serrières",CH,0.36,Hydro,Run-of-river,,,,1979.0,,BFE,,46.9823937374,6.90420191833,Renewable energy,Hydro,
Serrières centrale 2,,,,"Neuchâtel, Serrières",CH,0.32,Hydro,Run-of-river,,,,1979.0,,BFE,,46.9817665493,6.90473393392,Renewable energy,Hydro,
Sous les Roches,,,,Sonceboz,CH,0.39,Hydro,Run-of-river,,,,2005.0,,BFE,,47.1896143522,7.18396966384,Renewable energy,Hydro,
Rondchâtel,,,,"Péry, Rondchâtel",CH,3.0,Hydro,Run-of-river,,,,2013.0,,BFE,,47.1710326223,7.24974576351,Renewable energy,Hydro,
Frinvillier,,,,Frinvillier,CH,0.35,Hydro,Run-of-river,,,,2005.0,,BFE,,47.1683406671,7.25371218143,Renewable energy,Hydro,
Taubenloch,,,,Biel-Bözingen,CH,0.32,Hydro,Run-of-river,,,,2006.0,,BFE,,47.1607076521,7.26165130183,Renewable energy,Hydro,
Bözingen,,,,Bözingen,CH,3.25,Hydro,Run-of-river,,,,2013.0,,BFE,,47.1545087131,7.26655078925,Renewable energy,Hydro,
Brügg,,,,Brügg,CH,5.2,Hydro,Run-of-river,,,,1995.0,,BFE,,47.1191458966,7.2580998136,Renewable energy,Hydro,
Wannenfluh,,,,Rüderswil,CH,0.42,Hydro,Run-of-river,,,,1999.0,,BFE,,46.9973291774,7.7219601987,Renewable energy,Hydro,
Hagerhüsli,,,,Bätterkinden,CH,0.5,Hydro,Run-of-river,,,,2002.0,,BFE,,47.1209582677,7.53548691316,Renewable energy,Hydro,
Bätterkinden,,,,Bätterkinden,CH,0.4,Hydro,Run-of-river,,,,2002.0,,BFE,,47.1330038883,7.54407602098,Renewable energy,Hydro,
Utzenstorf,,,,Utzenstorf,CH,0.38,Hydro,Run-of-river,,,,1949.0,,BFE,,47.1458646634,7.54607873841,Renewable energy,Hydro,
Gerlafingen 1,,,,Wiler bei Utzenstorf,CH,0.5,Hydro,Run-of-river,,,,1995.0,,BFE,,47.1558500995,7.54477997909,Renewable energy,Hydro,
Biberist,,,,Biberist,CH,0.5,Hydro,Run-of-river,,,,1985.0,,BFE,,47.1835291625,7.56911004647,Renewable energy,Hydro,
Emmenhof,,,,Derendingen,CH,0.33,Hydro,Run-of-river,,,,1986.0,,BFE,,47.1948463818,7.582729415,Renewable energy,Hydro,
Untere Emmengasse,,,,Luterbach,CH,0.86,Hydro,Run-of-river,,,,2001.0,,BFE,,47.2045650167,7.57919186742,Renewable energy,Hydro,
Luterbach,,,,Luterbach,CH,0.32,Hydro,Run-of-river,,,,1988.0,,BFE,,47.2141946615,7.57472874781,Renewable energy,Hydro,
Flumenthal,,,,Riedholz,CH,23.4,Hydro,Run-of-river,,,,2009.0,,BFE,,47.2291069149,7.58995168618,Renewable energy,Hydro,
Bannwil,,,,Bannwil,CH,28.5,Hydro,Run-of-river,,,,2000.0,,BFE,,47.2293726093,7.73229827172,Renewable energy,Hydro,
Wynau I,,,,Oberwynau,CH,12.0,Hydro,Run-of-river,,,,1996.0,- Nutzungsdauer:	Bezogen auf die Ausbauwassermenge von 420 m3/s  (Zentralen Wynau und Schwarzhäusern); - Die Konzession wird ab der Kollaudation im Sommer 2016 zu laufen beginnen und beträgt 80 Jahre;                        ;                                         ; ,BFE,,47.2556656529,7.78674041559,Renewable energy,Hydro,
Wynau II,,,,Schwarzhäusern,CH,8.2,Hydro,Run-of-river,,,,1979.0,- Nutzungsdauer: 	Bezogen auf die Ausbauwassermenge von 420 m3/s  (Zentralen Wynau und Schwarzhäusern); - Die Konzession wird ab der Kollaudation 2016 zu laufen beginnen und beträgt 80 Jahre;                           ; ,BFE,,47.2568389099,7.78542689694,Renewable energy,Hydro,
Ruppoldingen,,,,Boningen,CH,23.0,Hydro,Run-of-river,,,,2000.0,- Ersatz alte Zentrale Ruppoldingen im Jahr 2000                                  ; ,BFE,,47.3122915561,7.87770217417,Renewable energy,Hydro,
Aarburg,,,,Aarburg,CH,0.42,Hydro,Run-of-river,,,,2006.0,,BFE,,47.3191178376,7.90315413711,Renewable energy,Hydro,
"Dünnern, Olten",,,,Olten,CH,0.37,Hydro,Run-of-river,,,,2015.0,,BFE,,47.3486379073,7.89864659258,Renewable energy,Hydro,
Gösgen,,,,Niedergösgen,CH,51.3,Hydro,Run-of-river,,,,2000.0,,BFE,,47.3694251427,7.97945465498,Renewable energy,Hydro,
Aarau Stadt,,,,Aarau,CH,16.93,Hydro,Run-of-river,,,,1964.0,- Konzessionserneuerung und Ausbau wurde durch die Kantone Solothurn und Aargau zugestimmt. Aufgrund eines Verfahrens;    jedoch noch nicht rechtskräftig. Neue Konzession würde bis ins Jahr 2082 laufen.; ,BFE,,47.3947817334,8.03587458337,Renewable energy,Hydro,
Rüchlig - HKW,,,,Aarau,CH,9.2,Hydro,Run-of-river,,,,2014.0,,BFE,,47.3997456678,8.0498397695,Renewable energy,Hydro,
Rüchlig-Dotierzentrale,,,,Aarau,CH,1.2,Hydro,Run-of-river,,,,2014.0,,BFE,,47.3991034678,8.05221688004,Renewable energy,Hydro,
Rupperswil-Auenstein,,,,Auenstein,CH,40.0,Hydro,Run-of-river,,,,1993.0,,BFE,,47.411796663,8.1147717897,Renewable energy,Hydro,
Rupperswil-Auenstein,,,,Rupperswil,CH,1.74,Hydro,Run-of-river,,,,2010.0,- Ersatz alte Zentrale Rupperswil-Dotierzentrale im Jahr 2010;  ; ,BFE,,47.4105406247,8.11422585456,Renewable energy,Hydro,
Niederlenz,,,,Niederlenz,CH,0.4,Hydro,Run-of-river,,,,1943.0,- Rechtsgrundlage: Das ehehafte Recht umfasst rd. 18% der Nutzung   ; ,BFE,,47.3991885281,8.17621146751,Renewable energy,Hydro,
Wildegg-Brugg,,,,Schinznach-Dorf,CH,0.65,Hydro,Run-of-river,,,,1953.0,,BFE,,47.4514400712,8.16301195767,Renewable energy,Hydro,
Wildegg-Brugg,,,,Villnachern,CH,51.25,Hydro,Run-of-river,,,,1997.0,,BFE,,47.4688460177,8.1698811311,Renewable energy,Hydro,
Beznau,,,,Döttingen,CH,6.2,Hydro,Run-of-river,,,,2001.0,,BFE,,47.550050977,8.22679525193,Renewable energy,Hydro,
Beznau,,,,Döttingen,CH,19.5,Hydro,Run-of-river,,,,1927.0,,BFE,,47.557805126,8.23714123041,Renewable energy,Hydro,
Klingnau,,,,"Klingnau, Gippingen",CH,42.6,Hydro,Run-of-river,,,,1935.0,- Die Konzessionsverhandlungen sind am laufen. Zurzeit wird das Kraftwerk auf Basis einer Duldungsverfügung weitergeführt.; ,BFE,,47.5945791001,8.22572773348,Renewable energy,Hydro,
Hospental,,,,Hospental,CH,2.0,Hydro,Run-of-river,,,,1977.0,,BFE,,46.6205638209,8.56904462908,Renewable energy,Hydro,
Realp,,,,Realp,CH,0.9,Hydro,Run-of-river,,,,2008.0,,BFE,,46.5993455879,8.50229746755,Renewable energy,Hydro,
Oberalp,,,,Andermatt,CH,2.9,Hydro,Run-of-river,,,,2002.0,,BFE,,46.6329580099,8.60678648212,Renewable energy,Hydro,
Göschenen (Göscheneralp),,,,Göschenen,CH,164.8,Hydro,Reservoir,,,,1962.0,- Zentralen Göschenen (Göscheneralp) und Göschenen (Andermatt)  in einer Kaverne ;                                                ; ,BFE,,46.6673628552,8.5853141019,Renewable energy,Hydro,
Göschenen (Andermatt),,,,Göschenen,CH,33.26,Hydro,Run-of-river,,,,1961.0,- Zentralen Göschenen (Göscheneralp) und Göschenen (Andermatt)  in einer Kaverne ;                                                ; ,BFE,,46.6673628552,8.5853141019,Renewable energy,Hydro,
Göschenen (Unterdorf),,,,Göschenen,CH,1.62,Hydro,Run-of-river,,,,1969.0,,BFE,,46.6678191535,8.58467035968,Renewable energy,Hydro,
Wassen,,,,Pfaffensprung,CH,58.0,Hydro,Run-of-river,,,,1992.0,,BFE,,46.7156913962,8.61014697239,Renewable energy,Hydro,
Amsteg,,,,"Wassen, Pfaffensprung",CH,0.72,Hydro,Run-of-river,,,,1998.0,,BFE,,46.7151423238,8.61105066077,Renewable energy,Hydro,
Stäubenwald,,,,Gurtnellen,CH,0.31,Hydro,Run-of-river,,,,2007.0,,BFE,,46.7281811232,8.62036146626,Renewable energy,Hydro,
Amsteg,,,,Amsteg,CH,120.0,Hydro,Run-of-river,,,,1998.0,- Ersatz alte Zentrale Amsteg im Jahr 1998                                        ; ,BFE,,46.7667596543,8.67292336359,Renewable energy,Hydro,
Amsteg,,,,Amsteg,CH,1.73,Hydro,Run-of-river,,,,1998.0,,BFE,,46.7750725678,8.66957811216,Renewable energy,Hydro,
Arniberg,,,,Amsteg,CH,13.0,Hydro,Run-of-river,,,,1969.0,,BFE,,46.7689944794,8.66590412922,Renewable energy,Hydro,
Bocki 2,,,,"Erstfeld, Ripshusen",CH,7.0,Hydro,Run-of-river,,,,1997.0,- Zentralen Bocki 1 und Bocki 2 in einem Gebäude              ; ,BFE,,46.8409637891,8.63214556041,Renewable energy,Hydro,
Bocki 1,,,,"Erstfeld, Ripshusen",CH,1.7,Hydro,Run-of-river,,,,1997.0,- Zentralen Bocki 1 und Bocki 2 in einem Gebäude              ; ,BFE,,46.8409637891,8.63214556041,Renewable energy,Hydro,
Äsch,,,,Unterschächen,CH,0.52,Hydro,Run-of-river,,,,1996.0,,BFE,,46.8652358009,8.81028683203,Renewable energy,Hydro,
Schächental,,,,Unterschächen,CH,2.2,Hydro,Run-of-river,,,,2005.0,,BFE,,46.8632677495,8.76354152909,Renewable energy,Hydro,
Bürglen (Unterschächen),,,,Bürglen,CH,20.8,Hydro,Run-of-river,,,,1967.0,- Zentralen Bürglen (Unterschächen) und Bürglen (Loreto) in  einem Gebäude    ;                                                  ; ,BFE,,46.8765292426,8.6633716678,Renewable energy,Hydro,
Bürglen (Loreto),,,,Bürglen,CH,1.5,Hydro,Run-of-river,,,,1967.0,- Zentralen Bürglen (Unterschächen) und Bürglen(Loreto) in einem Gebäude    ;                                                   ; ,BFE,,46.8765292426,8.6633716678,Renewable energy,Hydro,
Bannwald,,,,Altdorf,CH,0.3,Hydro,Run-of-river,,,,2002.0,- Trinkwasserkraftwerk; ,BFE,,46.8868282361,8.64234852845,Renewable energy,Hydro,
Kleintal (Isenthal),,,,Isenthal,CH,1.18,Hydro,Run-of-river,,,,2009.0,,BFE,,46.9100429809,8.56226516908,Renewable energy,Hydro,
Seedorf (Trinkw. Chuchibachq.),,,,Seedorf,CH,0.38,Hydro,Run-of-river,,,,2012.0,- Zentralen Seedorf (Bolzbach) und Isenthal (Bolzbach) in einem Gebäude; ,BFE,,46.8992075573,8.59340713177,Renewable energy,Hydro,
Isenthal (Bolzbach),,,,Seedorf,CH,12.0,Hydro,Run-of-river,,,,2009.0,- Zentralen  Isenthal (Bolzbach) und Seedorf (Bolzbach)) in einem Gebäude; ,BFE,,46.8992075573,8.59340713177,Renewable energy,Hydro,
Ruosalp,,,,"Bisisthal, Sahli",CH,4.7,Hydro,Run-of-river,,,,1962.0,- Zentralen Sahli (Ruosalp) und Sahli (Glattalp) in einem Gebäude; ,BFE,,46.9176188126,8.84549886362,Renewable energy,Hydro,
Glattalp,,,,"Bisisthal, Sahli",CH,9.3,Hydro,Run-of-river,,,,1970.0,- Zentralen Sahli (Ruosalp) und Sahli (Glattalp) in einem Gebäude; ,BFE,,46.9176188126,8.84549886362,Renewable energy,Hydro,
Bisisthal,,,,Bisisthal,CH,15.8,Hydro,Run-of-river,,,,1962.0,,BFE,,46.9466216843,8.82799774611,Renewable energy,Hydro,
Muota,,,,Muotathal,CH,8.8,Hydro,Run-of-river,,,,1960.0,- Zentralen Hinterthal (Muota) und Hinterthal (Hüribach) in einem Gebäude   ; ,BFE,,46.9710051496,8.78249669152,Renewable energy,Hydro,
Hüribach,,,,Muotathal,CH,4.7,Hydro,Run-of-river,,,,1960.0,- Zentralen Hinterthal (Muota) und Hinterthal (Hüribach) in einem Gebäude   ; ,BFE,,46.9710051496,8.78249669152,Renewable energy,Hydro,
Wernisberg,,,,Ibach,CH,20.4,Hydro,Run-of-river,,,,1966.0,,BFE,,46.9962188228,8.65124425665,Renewable energy,Hydro,
Ibach,,,,Ibach,CH,0.32,Hydro,Run-of-river,,,,2004.0,,BFE,,47.0071473786,8.64715120305,Renewable energy,Hydro,
Ingenbohl,,,,Brunnen,CH,0.6,Hydro,Run-of-river,,,,1989.0,,BFE,,47.0046337809,8.6119820992,Renewable energy,Hydro,
Sustli,,,,Beckenried,CH,1.63,Hydro,Run-of-river,,,,1998.0,,BFE,,46.963776447,8.48336356408,Renewable energy,Hydro,
Tagenstal,,,,"Engelberg, Stalden",CH,1.27,Hydro,Run-of-river,,,,1941.0,,BFE,,46.8056049248,8.44557705375,Renewable energy,Hydro,
Trübsee,,,,Engelberg,CH,8.5,Hydro,Reservoir,,,,1967.0,,BFE,,46.8165004459,8.3919220311,Renewable energy,Hydro,
Obermatt,,,,Grafenort,CH,31.95,Hydro,Run-of-river,,,,1963.0,,BFE,,46.8421091009,8.3737585174,Renewable energy,Hydro,
Obermatt (Nebenkraftwerk),,,,Grafenort,CH,1.97,Hydro,Run-of-river,,,,1963.0,,BFE,,46.8429378906,8.37141299362,Renewable energy,Hydro,
Dallenwil,,,,Wolfenschiessen,CH,18.24,Hydro,Run-of-river,,,,1987.0,,BFE,,46.9116636808,8.39360887478,Renewable energy,Hydro,
Buoholzbach Wolfenschiessen,,,,"Wolfenschiessen, Flüglisloo",CH,2.0,Hydro,Run-of-river,,,,2013.0,,BFE,,46.9270904029,8.3991353836,Renewable energy,Hydro,
Bannalp,,,,Oberrickenbach,CH,8.7,Hydro,Reservoir,,,,1991.0,- Rechtsgrundlage: Eigenversorgungsgesetz vom 29.4.1934         ; ,BFE,,46.8803037351,8.42125996207,Renewable energy,Hydro,
Wolfenschiessen,,,,Wolfenschiessen,CH,6.6,Hydro,Run-of-river,,,,1983.0,- Rechtsgrundlage: Eigenversorgungsgesetz vom 29.4.1934         ; ,BFE,,46.9012025691,8.39670437623,Renewable energy,Hydro,
Schild,,,,Lungern,CH,1.2,Hydro,Run-of-river,,,,2003.0,,BFE,,46.7798141191,8.15569252116,Renewable energy,Hydro,
Unteraa - Melchaa,,,,Giswil,CH,12.0,Hydro,Reservoir,,,,2012.0,- Zentralen Unteraa (Lungerersee) und Unteraa (Melchaa) in einer Kaverne;  ; ,BFE,,46.8214351941,8.1744623486,Renewable energy,Hydro,
Unteraa - Lungerersee,,,,Giswil,CH,54.0,Hydro,Reservoir,,,,1994.0,- Ersatz alte Zentrale Unteraa im Jahr 1994; - Zentralen Unteraa (Lungerersee) und Unteraa (Melchaa) in einer Kaverne                                       ; ,BFE,,46.8214351941,8.1744623486,Renewable energy,Hydro,
"Obflue, Sachseln",,,,"Sachseln, Obflue",CH,0.3,Hydro,Run-of-river,,,,2005.0,,BFE,,46.857050951,8.22950231798,Renewable energy,Hydro,
Melchsee-Frutt,,,,"Kerns, Stöckalp",CH,14.0,Hydro,Reservoir,,,,1960.0,- Genutzte Gewässer:  Henglibach wird nur vom 16.Mai bis 31.Juli genutzt;                                                          ; ,BFE,,46.799646307,8.28145261421,Renewable energy,Hydro,
Wisserlen,,,,"Kerns, Wisserlen",CH,1.15,Hydro,Run-of-river,,,,1997.0,,BFE,,46.9102736664,8.29644423422,Renewable energy,Hydro,
Eichi,,,,"Alpnach, Eichibrücke",CH,2.4,Hydro,Run-of-river,,,,1957.0,,BFE,,46.9407431769,8.28786773153,Renewable energy,Hydro,
Rotzloch,,,,"Stansstad, Rotzloch",CH,0.3,Hydro,Run-of-river,,,,1935.0,,BFE,,46.9648831886,8.33108666537,Renewable energy,Hydro,
Mühlenplatz,,,,Luzern,CH,0.93,Hydro,Run-of-river,,,,1998.0,,BFE,,47.0517337725,8.30199665485,Renewable energy,Hydro,
Wolhusen (Geistlich),,,,Wolhusen,CH,0.33,Hydro,Run-of-river,,,,2003.0,,BFE,,47.0550001861,8.07763365713,Renewable energy,Hydro,
Malters-Ettisbühl,,,,Malters,CH,0.87,Hydro,Run-of-river,,,,2011.0,,BFE,,47.0382855313,8.16559322075,Renewable energy,Hydro,
Stollen,,,,Kriens/Obernau,CH,0.71,Hydro,Run-of-river,,,,1999.0,- Trinkwasserkraftwerk; ,BFE,,47.0337616233,8.23723761716,Renewable energy,Hydro,
Thorenberg,,,,Littau,CH,0.79,Hydro,Run-of-river,,,,2000.0,,BFE,,47.0525764602,8.24804704827,Renewable energy,Hydro,
Emmenweid,,,,Emmenbrücke,CH,1.08,Hydro,Run-of-river,,,,2003.0,,BFE,,47.0670379793,8.26366866258,Renewable energy,Hydro,
Rathausen,,,,Emmen,CH,2.1,Hydro,Run-of-river,,,,1980.0,,BFE,,47.0817753951,8.3143325152,Renewable energy,Hydro,
Perlen 1 (WTA HF),,,,Perlen,CH,1.0,Hydro,Run-of-river,,,,1981.0,,BFE,,47.1071639177,8.35769882857,Renewable energy,Hydro,
Perlen 2 (WTA PF),,,,Perlen,CH,1.15,Hydro,Run-of-river,,,,2000.0,,BFE,,47.111127653,8.36817610462,Renewable energy,Hydro,
Innere Spinnerei,,,,Unterägeri,CH,0.45,Hydro,Run-of-river,,,,1981.0,,BFE,,47.1403291209,8.57250348397,Renewable energy,Hydro,
"WKW Neuägeri, Gmde Menzingen",,,,"Neuägeri, Gmde Menzingen",CH,0.34,Hydro,Run-of-river,,,,2015.0,,BFE,,47.1528364463,8.56301002572,Renewable energy,Hydro,
Lorzentobel 2,,,,"Lorzentobel, Nidfuren",CH,1.9,Hydro,Run-of-river,,,,1943.0,,BFE,,47.1720203925,8.56064287994,Renewable energy,Hydro,
Lorzentobel 1,,,,Lorzentobel,CH,1.67,Hydro,Run-of-river,,,,2005.0,,BFE,,47.1803537205,8.55474850407,Renewable energy,Hydro,
Lorzentobel 3,,,,Baar,CH,2.17,Hydro,Run-of-river,,,,2005.0,,BFE,,47.1957044664,8.53936374921,Renewable energy,Hydro,
Untermühle,,,,"Friesencham, Cham",CH,0.6,Hydro,Run-of-river,,,,2010.0,,BFE,,47.1964928952,8.44330123323,Renewable energy,Hydro,
Hagendorn,,,,Hagendorn,CH,0.58,Hydro,Run-of-river,,,,2010.0,,BFE,,47.2016699737,8.43759101386,Renewable energy,Hydro,
Bremgarten-Zufikon,,,,Bremgarten,CH,20.0,Hydro,Run-of-river,,,,1975.0,,BFE,,47.3436544275,8.34562802508,Renewable energy,Hydro,
Bruggmühle,,,,Bremgarten,CH,0.54,Hydro,Run-of-river,,,,1998.0,,BFE,,47.3497309812,8.33924607379,Renewable energy,Hydro,
Windisch,,,,Windisch,CH,1.59,Hydro,Run-of-river,,,,1976.0,,BFE,,47.4813098091,8.23042079077,Renewable energy,Hydro,
Muttsee,,,,"Linthal, Ochsenstafel",CH,4.4,Hydro,Reservoir,,,,1965.0,,BFE,,46.8464330851,9.01279515584,Renewable energy,Hydro,
Tierfehd (Limmern),,,,"Linthal, Tierfehd",CH,261.0,Hydro,Reservoir,,,,1964.0,- Zentralen Tierfehd (Limmern) und Tierfehd (Hintersand) in einer Kaverne ; - Bei Pumpbetrieb wird Wasser der Zentrale Tierfehd (Hintersand) in den Limmernsee gefördert                                                         ;  ;                                     ; ,BFE,,46.8761153436,8.98702934899,Renewable energy,Hydro,
Tierfehd (Umwälzwerk),,,,"Linthal, Tierfehd",CH,140.0,Hydro,Pumped storage with natural inflow,,,,2010.0,- Zentrale Tierfehd (Umwälzwerk) praktiziert Umwälzbetrieb;  ; ,BFE,,46.8787500802,8.98513704227,Renewable energy,Hydro,
Tierfehd (Hintersand),,,,"Linthal, Tierfehd",CH,42.0,Hydro,Run-of-river,,,,1968.0,- Zentralen Tierfehd (Limmern) und Tierfehd (Hintersand) in einer Kaverne ; - Bei Pumpbetrieb der Zentrale Tierfehd (Limmern) wird Wasser der Zentrale Tierfehd (Hintersand) in den Limmernsee gefördert                                                        ;     ;   ; ,BFE,,46.8761153436,8.98702934899,Renewable energy,Hydro,
Linthal,,,,Linthal,CH,34.4,Hydro,Reservoir,,,,1964.0,- Zentralen Linthal (Limmern) und Fätschbach in einem Gebäude; ,BFE,,46.915510447,8.98790156154,Renewable energy,Hydro,
Fätschbach,,,,Linthal,CH,15.0,Hydro,Run-of-river,,,,1950.0,- Zentralen Linthal (Limmern) und Fätschbach in einem Gebäude; ,BFE,,46.915510447,8.98790156154,Renewable energy,Hydro,
Linthkraft (Stiftung),,,,Linthal,CH,0.5,Hydro,Run-of-river,,,,2004.0,,BFE,,46.9200748442,8.99630573219,Renewable energy,Hydro,
Linthwerk,,,,Linthal,CH,1.6,Hydro,Run-of-river,,,,2012.0,,BFE,,46.9260539645,8.99989350898,Renewable energy,Hydro,
"Brummbach, Linthal",,,,"Linthal, Stachelberg",CH,3.9,Hydro,Run-of-river,,,,2010.0,,BFE,,46.9276405378,9.00230354147,Renewable energy,Hydro,
"Brummbach, Braunwald",,,,Braunwald,CH,0.93,Hydro,Run-of-river,,,,2014.0,,BFE,,46.9386081948,8.98305061474,Renewable energy,Hydro,
Diesbach (Linth),,,,Diesbach,CH,0.93,Hydro,Run-of-river,,,,1997.0,,BFE,,46.9511277567,9.02808233474,Renewable energy,Hydro,
Hefti,,,,Hätzingen,CH,1.05,Hydro,Run-of-river,,,,2007.0,,BFE,,46.9646347789,9.04017863032,Renewable energy,Hydro,
Luchsingen,,,,Luchsingen,CH,3.5,Hydro,Run-of-river,,,,1976.0,,BFE,,46.9660497748,9.0354895251,Renewable energy,Hydro,
Leuggelbach,,,,Leuggelbach,CH,1.0,Hydro,Run-of-river,,,,1993.0,,BFE,,46.9774012894,9.04726356888,Renewable energy,Hydro,
Haslen,,,,Haslen,CH,0.92,Hydro,Run-of-river,,,,2012.0,- Ehehaftes Wassernutzungsrecht. Die energierechtliche Bewilligung wurde vom Kanton für 80 Jahre erteilt.; ,BFE,,46.9838748007,9.06034155135,Renewable energy,Hydro,
Schwanden (F.Blumer),,,,Schwanden,CH,0.9,Hydro,Run-of-river,,,,1999.0,,BFE,,46.9937940839,9.07773551203,Renewable energy,Hydro,
Empächli,,,,Elm,CH,0.33,Hydro,Run-of-river,,,,1995.0,,BFE,,46.9223429911,9.15841990058,Renewable energy,Hydro,
Krauchbachwerk,,,,Matt,CH,0.64,Hydro,Run-of-river,,,,1999.0,,BFE,,46.9561528371,9.15976534811,Renewable energy,Hydro,
"Engi, Hinterdorf (Sernf)",,,,Engi (Glarus Süd),CH,0.53,Hydro,Run-of-river,,,,2012.0,,BFE,,46.9744263563,9.159168101,Renewable energy,Hydro,
Engi,,,,"Engi, Vorderdorf (Glarus Süd)",CH,3.75,Hydro,Run-of-river,,,,2009.0,"- Zentrale Bergen mit 150 KW befindet sich auch in der Zentrale Engi, Vorderdorf (Mühlebach); ",BFE,,46.9850426515,9.15319754055,Renewable energy,Hydro,
Sernf,,,,Schwanden,CH,15.7,Hydro,Run-of-river,,,,2003.0,"- Zentralen Schwanden (Sernf), Schwanden (Niederenbach) und Schwanden (Gemeinde) in einem Gebäude      ;                           ;  ; ",BFE,,46.9957286985,9.08713105463,Renewable energy,Hydro,
Niederenbach,,,,Schwanden,CH,28.2,Hydro,Reservoir,,,,2004.0,"- Zentralen Schwanden (Sernf), Schwanden (Niederenbach) und Schwanden (Gemeinde) in einem Gebäude; ",BFE,,46.9957286985,9.08713105463,Renewable energy,Hydro,
Schwanden (Gemeinde),,,,Schwanden,CH,1.8,Hydro,Run-of-river,,,,2005.0,"- Zentralen Schwanden (Sernf), Schwanden (Niederenbach) und Schwanden (Gemeinde) in einem Gebäude       ;                           ; ",BFE,,46.9956406573,9.08699685101,Renewable energy,Hydro,
Schwanden (SNE),,,,Schwanden,CH,0.5,Hydro,Run-of-river,,,,2000.0,,BFE,,46.994725001,9.08184034492,Renewable energy,Hydro,
Mühlefuhr,,,,Ennenda,CH,0.82,Hydro,Run-of-river,,,,2010.0,,BFE,,47.0265624558,9.08268411153,Renewable energy,Hydro,
Walzmühle 2,,,,"Ennenda, Alpenbrüggli",CH,0.32,Hydro,Run-of-river,,,,2011.0,,BFE,,47.0493657979,9.067192771,Renewable energy,Hydro,
"Elggiskraft, Netstal",,,,Netstal,CH,0.8,Hydro,Run-of-river,,,,1983.0,,BFE,,47.063765377,9.0605203259,Renewable energy,Hydro,
Am Löntsch,,,,Netstal,CH,89.1,Hydro,Reservoir,,,,1975.0,,BFE,,47.0566384819,9.04911463355,Renewable energy,Hydro,
"Linthkraft, Netstal",,,,Netstal,CH,1.42,Hydro,Run-of-river,,,,1960.0,,BFE,,47.0737495147,9.06069079857,Renewable energy,Hydro,
Mels (Tobel),,,,Mels,CH,0.99,Hydro,Run-of-river,,,,1995.0,,BFE,,47.0382556599,9.3927198108,Renewable energy,Hydro,
Mels (KW Stoffel),,,,"Mels, Steigs",CH,3.3,Hydro,Run-of-river,,,,1989.0,- Kote Maschinensaalboden bezieht sich auf die Höhe der Turbinenachse       ; - Ersatzenergie: Bezug wird in Franken abgegolten infolge Wasserableitung der Seez durch KSL   ;  ;                               ; ,BFE,,47.0432633834,9.41554241732,Renewable energy,Hydro,
Mels (Halde),,,,Mels,CH,0.55,Hydro,Run-of-river,,,,2003.0,- Ersatzenergie:	Bezug wird in Franken abgegolten infolge  Wasserableitung der Seez durch KSL       ;                              ; ,BFE,,47.0445449435,9.4142733533,Renewable energy,Hydro,
Plons,,,,Plons,CH,4.5,Hydro,Run-of-river,,,,2002.0,,BFE,,47.0540573941,9.40001024029,Renewable energy,Hydro,
Flums (Pravizin 1 (Bruggwiti)),,,,Flums,CH,5.0,Hydro,Run-of-river,,,,1988.0,- Kote Maschinensaalboden bezieht sich auf die Höhe der Turbinenachse;                                              ;     ;                                                         ; ,BFE,,47.0865591822,9.33454317319,Renewable energy,Hydro,
Flums (Pravizin 2 (Äuli)),,,,Flums,CH,0.7,Hydro,Run-of-river,,,,1943.0,- Kote Maschinensaalboden bezieht sich auf die Höhe der Turbinenachse;                                               ;       ;                                                      ; ,BFE,,47.0862894131,9.33453362605,Renewable energy,Hydro,
"Röllbach, Flums",,,,"Flums, Rüfi",CH,0.34,Hydro,Run-of-river,,,,1963.0,,BFE,,47.0823099655,9.3520435321,Renewable energy,Hydro,
Flums (Felsen),,,,Flums,CH,1.45,Hydro,Run-of-river,,,,1993.0,- Kote Maschinensaalboden bezieht sich auf die Höhe der Turbinenachse;                                              ; ,BFE,,47.0880841876,9.34026178488,Renewable energy,Hydro,
Flums (Neues Sägengüetli),,,,Flums,CH,1.19,Hydro,Run-of-river,,,,1974.0,- Kote Maschinensaalboden bezieht sich auf die Höhe der Turbinenachse; ,BFE,,47.0886280848,9.34001761784,Renewable energy,Hydro,
Töbeli,,,,Töbeli,CH,0.6,Hydro,Run-of-river,,,,1992.0,- Trinkwasserkraftwerk; ,BFE,,47.1248957041,9.32865044802,Renewable energy,Hydro,
Talbach,,,,"Mols, Tal",CH,0.75,Hydro,Run-of-river,,,,1954.0,,BFE,,47.1105410978,9.27055175592,Renewable energy,Hydro,
Oberterzen,,,,Oberterzen,CH,1.16,Hydro,Run-of-river,,,,1927.0,,BFE,,47.1005471458,9.25966883654,Renewable energy,Hydro,
Murg (Merlen),,,,"Murgtal, Merlen",CH,0.41,Hydro,Reservoir,,,,1950.0,- Rechtsgrundlage: Konzessionsverhandlungen im Gange            ; ,BFE,,47.0729029373,9.19762330651,Renewable energy,Hydro,
Murg (Plätz),,,,"Murgtal, Unter Plätz",CH,6.5,Hydro,Run-of-river,,,,2003.0,- Ersatz Zentralen Plätz 1 (403100) und Plätz 2 (403200) im Jahr 1994       ; ,BFE,,47.0924492274,9.20788224569,Renewable energy,Hydro,
Murg (Gödis),,,,"Murg, unterhalb Gödis",CH,2.8,Hydro,Run-of-river,,,,1990.0,,BFE,,47.1084484412,9.21473631193,Renewable energy,Hydro,
Murg (Säge),,,,Murg,CH,2.32,Hydro,Run-of-river,,,,1990.0,,BFE,,47.113504883,9.21938501334,Renewable energy,Hydro,
Muslen,,,,Weesen,CH,1.61,Hydro,Run-of-river,,,,1982.0,,BFE,,47.1380756597,9.13555309657,Renewable energy,Hydro,
Rütiberg (Obersee),,,,Rütiberg / Näfels,CH,0.89,Hydro,Run-of-river,,,,2007.0,- Zentralen Rütiberg (Obersee) und Rütiberg (Brändbach) in  einem Gebäude     ;                                                  ; ,BFE,,47.0936004244,9.0373154401,Renewable energy,Hydro,
Rütiberg (Brändbach),,,,Rütiberg / Näfels,CH,0.85,Hydro,Run-of-river,,,,1977.0,- Zentralen Rütiberg (Obersee) und Rütiberg (Brändbach) in einem Gebäude     ;                                                   ; ,BFE,,47.0936004244,9.0373154401,Renewable energy,Hydro,
Risi,,,,Näfels,CH,4.5,Hydro,Run-of-river,,,,2011.0,,BFE,,47.0946783225,9.05671355608,Renewable energy,Hydro,
Niederurnen,,,,Niederurnen,CH,2.22,Hydro,Run-of-river,,,,1980.0,- Angaben beziehen sich auf Quell- und Bachwassersystem         ; ,BFE,,47.1235820231,9.04216502354,Renewable energy,Hydro,
Ziegelbrücke,,,,Ziegelbrücke,CH,0.58,Hydro,Run-of-river,,,,2011.0,- Ersatz der Zentrale Ziegelbrücke 2 im Jahre 2011; ,BFE,,47.1331874754,9.06288735926,Renewable energy,Hydro,
"Uznaberg, Uznach",,,,Uznach,CH,0.51,Hydro,Run-of-river,,,,2015.0,,BFE,,47.2311598929,8.96429863072,Renewable energy,Hydro,
Wägital (Rempen),,,,"Vorderthal, Rempen",CH,66.24,Hydro,Pumped storage,,,,2012.0,- Zentrale Rempen praktiziert Umwälzbetrieb                    ; ,BFE,,47.1383731791,8.89757736059,Renewable energy,Hydro,
Wägital (Siebnen),,,,Siebnen,CH,51.52,Hydro,Reservoir,,,,1984.0,,BFE,,47.1716280522,8.90006739911,Renewable energy,Hydro,
"Spreitenbach, Galgenen Kistler",,,,"Galgenen, Vorauen",CH,0.3,Hydro,Run-of-river,,,,1985.0,,BFE,,47.1809763388,8.85757157445,Renewable energy,Hydro,
Pilgersteg,,,,Rüti,CH,0.56,Hydro,Run-of-river,,,,2013.0,,BFE,,47.2688671863,8.87219842017,Renewable energy,Hydro,
Etzelwerk,,,,Altendorf,CH,135.0,Hydro,Pumped storage,,,,1992.0,- Zentrale Etzelwerk Altendorf praktiziert Umwälzbetrieb          ; - Wasserkraftanteile: Hoheitsanteile nicht festgelegt;;   Annahme: Verteilung wie für Wasserzins ; - Übergangskonzession bis 2022         ;       ; ,BFE,,47.1941128968,8.81291517067,Renewable energy,Hydro,
Bäch,,,,Bäch,CH,0.3,Hydro,Run-of-river,,,,1957.0,,BFE,,47.2003433021,8.72530004013,Renewable energy,Hydro,
Feusisberg,,,,Schindellegi,CH,0.87,Hydro,Run-of-river,,,,1989.0,,BFE,,47.173583302,8.71291509258,Renewable energy,Hydro,
Sihl-Höfe,,,,Wollerau,CH,1.45,Hydro,Run-of-river,,,,1961.0,,BFE,,47.1773356908,8.68239576491,Renewable energy,Hydro,
Waldhalde,,,,Schönenberg,CH,2.8,Hydro,Run-of-river,,,,1967.0,,BFE,,47.1791652701,8.62847586729,Renewable energy,Hydro,
Manegg,,,,Zürich,CH,0.64,Hydro,Run-of-river,,,,1981.0,,BFE,,47.3387264858,8.52087782283,Renewable energy,Hydro,
Letten,,,,Zürich,CH,5.0,Hydro,Run-of-river,,,,2004.0,,BFE,,47.3870125904,8.53232193345,Renewable energy,Hydro,
Höngg,,,,Zürich,CH,1.4,Hydro,Run-of-river,,,,1988.0,,BFE,,47.4014693207,8.48651399019,Renewable energy,Hydro,
Dietikon,,,,Dietikon,CH,2.94,Hydro,Run-of-river,,,,1933.0,,BFE,,47.4103399639,8.40798019435,Renewable energy,Hydro,
Wettingen-Dotieranlage,,,,Wettingen,CH,2.1,Hydro,Run-of-river,,,,2007.0,,BFE,,47.4563663935,8.32142281949,Renewable energy,Hydro,
Wettingen,,,,Wettingen,CH,25.35,Hydro,Run-of-river,,,,1964.0,,BFE,,47.457089915,8.3209043409,Renewable energy,Hydro,
Aue-Dotierzentrale,,,,Baden,CH,0.5,Hydro,Run-of-river,,,,2013.0,,BFE,,47.4685180209,8.30835960616,Renewable energy,Hydro,
Aue,,,,Baden,CH,5.2,Hydro,Run-of-river,,,,2014.0,,BFE,,47.4703876782,8.31091055866,Renewable energy,Hydro,
Kappelerhof,,,,"Baden, Chappelerhof",CH,7.0,Hydro,Run-of-river,,,,2006.0,,BFE,,47.4845539139,8.29283192528,Renewable energy,Hydro,
Schiffmühle - Dotierzentrale,,,,"Untersiggenthal, Schiffmüli",CH,0.38,Hydro,Run-of-river,,,,2013.0,,BFE,,47.4874209022,8.2696564317,Renewable energy,Hydro,
Schiffmühle,,,,"Untersiggenthal, Schiffmüli",CH,3.3,Hydro,Run-of-river,,,,2013.0,,BFE,,47.4887141635,8.26489952614,Renewable energy,Hydro,
Turgi,,,,Turgi,CH,1.0,Hydro,Run-of-river,,,,1986.0,,BFE,,47.4960768989,8.25399849275,Renewable energy,Hydro,
BAG Turgi,,,,Turgi,CH,0.9,Hydro,Run-of-river,,,,2000.0,,BFE,,47.4981499556,8.24049276547,Renewable energy,Hydro,
"Stroppel, Untersiggenthal",,,,Untersiggenthal,CH,0.8,Hydro,Run-of-river,,,,2010.0,,BFE,,47.5027384384,8.24029647654,Renewable energy,Hydro,
Aegina,,,,"Ulrichen, Altstafel",CH,9.67,Hydro,Reservoir,,,,1967.0,,BFE,,46.4681741373,8.36952330442,Renewable energy,Hydro,
KW Ulrichen,,,,"Ulrichen, zum Loch",CH,2.35,Hydro,Run-of-river,,,,2014.0,,BFE,,46.5031259385,8.31853164755,Renewable energy,Hydro,
Merezenbach,,,,"Münster, Moos ",CH,1.99,Hydro,Run-of-river,,,,1959.0,,BFE,,46.4857148879,8.27735361119,Renewable energy,Hydro,
Blinne,,,,Reckingen,CH,2.13,Hydro,Run-of-river,,,,2012.0,,BFE,,46.4652885047,8.25334304008,Renewable energy,Hydro,
Kraftwerk Walibach,,,,Grafschaft,CH,3.64,Hydro,Run-of-river,,,,2013.0,- Hoheitsberechtigt über den genutzten Walibach ist einzig die Gemeinde Grafschaft. Es gibt im Kanton Wallis keinen;    Kantonsanteil an den Seitenzuflüssen der Rhone.; ,BFE,,46.4521519549,8.21513948705,Renewable energy,Hydro,
Rappental,,,,Rappental,CH,1.2,Hydro,Run-of-river,,,,2003.0,,BFE,,46.3945542547,8.17817050918,Renewable energy,Hydro,
Neubrigg,,,,Neubrigg,CH,26.0,Hydro,Run-of-river,,,,2003.0,,BFE,,46.3961814647,8.13424492723,Renewable energy,Hydro,
Fieschertal,,,,Fieschertal,CH,64.0,Hydro,Run-of-river,,,,1999.0,,BFE,,46.4260956687,8.14113296389,Renewable energy,Hydro,
Fiesch,,,,Fiesch,CH,3.1,Hydro,Run-of-river,,,,2012.0,,BFE,,46.39645212,8.13411837029,Renewable energy,Hydro,
Ernen,,,,Niederernen,CH,33.0,Hydro,Run-of-river,,,,1954.0,,BFE,,46.3911687446,8.13015040964,Renewable energy,Hydro,
Saflisch,,,,"Heiligkreuz, Längtal",CH,1.25,Hydro,Run-of-river,,,,2005.0,,BFE,,46.342857005,8.17357038389,Renewable energy,Hydro,
Heiligkreuz,,,,Heiligkreuz,CH,41.0,Hydro,Run-of-river,,,,1989.0,,BFE,,46.347614362,8.17519358557,Renewable energy,Hydro,
Aletsch,,,,Mörel,CH,35.3,Hydro,Run-of-river,,,,1965.0,- Die Ausbauwassermenge von 7 m3/s wird aufgrund einer Teilungsregelung mit der Electra-Massa AG erst bei einem          ;   Massa-Dargebot von 16.25 m3/s erreicht       ;                           ; ,BFE,,46.3539748841,8.04276023491,Renewable energy,Hydro,
Mörel,,,,Mörel,CH,54.9,Hydro,Run-of-river,,,,1943.0,,BFE,,46.3521806524,8.04183088725,Renewable energy,Hydro,
Massaboden,,,,Bitsch,CH,7.2,Hydro,Run-of-river,,,,1959.0,- Aufnahme des Normalbetriebs: Stromproduktion erst 1906 (Vorher Kompressoretrieb)        ;                                    ; ,BFE,,46.3329975315,8.01135847344,Renewable energy,Hydro,
Bitsch,,,,"Bitsch, Biel",CH,340.0,Hydro,Reservoir,,,,1980.0,,BFE,,46.3336461722,8.0075990397,Renewable energy,Hydro,
Wässerwasserkraftwerk Mund,,,,"Mund, In de Fäldu (Gem.Naters)",CH,1.44,Hydro,Run-of-river,,,,2015.0,,BFE,,46.3142389389,7.94572953313,Renewable energy,Hydro,
Bortel-Oberstufe,,,,Ried-Brig,CH,2.35,Hydro,Pumped storage,,,,1990.0,,BFE,,46.2934511663,8.08815887117,Renewable energy,Hydro,
TWKW Nessel u. Mittubäch,,,,Ried-Brig,CH,0.55,Hydro,Run-of-river,,,,2013.0, Beide Turbinen sind auf einer Wellle montiert für Gantergrund Nessel u. Mittubäch.;  ; ,BFE,,46.2892989196,8.02478361542,Renewable energy,Hydro,
Bortel-Mittelstufe,,,,Ried-Brig,CH,5.01,Hydro,Reservoir,,,,1990.0,,BFE,,46.297742733,8.06082520919,Renewable energy,Hydro,
Ganterbach-Saltina,,,,Brig-Glis,CH,6.1,Hydro,Run-of-river,,,,1980.0,,BFE,,46.3044267487,8.00417833469,Renewable energy,Hydro,
Wässerwasserkraftwerk Mund,,,,"Badhalte, Brig-Glis",CH,1.44,Hydro,Run-of-river,,,,2015.0,,BFE,,46.3047309042,7.93954029783,Renewable energy,Hydro,
Rosswald-Gärsterna,,,,Ried-Brig,CH,0.45,Hydro,Run-of-river,,,,1995.0,- Trinkwasserkraftwerk; ,BFE,,46.3162383255,8.03403209364,Renewable energy,Hydro,
Zermeiggern,,,,"Saas Almagell, Zermeiggern",CH,74.0,Hydro,Pumped storage,,,,1966.0,,BFE,,46.0823690569,7.95650543167,Renewable energy,Hydro,
Zermeiggern,,,,"Saas Almagell, Zermeiggern",CH,0.0,Hydro,Pumped storage,,,,1987.0,,BFE,,46.0841639647,7.95742737729,Renewable energy,Hydro,
Saas-Fee,,,,"Saas-Fee, Wichulti",CH,1.55,Hydro,Run-of-river,,,,1960.0,- Die Zentrale Saas-Fee wird nur noch als Dotierzentrale für die Saaser Vispa eingesetzt   ;                                      ; ,BFE,,46.1162811438,7.93690667216,Renewable energy,Hydro,
Stalden,,,,Stalden,CH,185.0,Hydro,Reservoir,,,,1965.0,,BFE,,46.2302203342,7.85719305844,Renewable energy,Hydro,
Mossjesee Kraftwerk,,,,"Mossjesee, Zermatt",CH,0.43,Hydro,Run-of-river,,,,2015.0,,BFE,,46.0100902184,7.77882470311,Renewable energy,Hydro,
Mutt,,,,Zermatt,CH,11.3,Hydro,Run-of-river,,,,2002.0,,BFE,,46.0114638208,7.73855316305,Renewable energy,Hydro,
Wiesti,,,,Zermatt,CH,3.4,Hydro,Run-of-river,,,,1990.0,,BFE,,46.0243792554,7.75257026538,Renewable energy,Hydro,
Täschbach,,,,Täsch,CH,1.65,Hydro,Run-of-river,,,,1992.0,,BFE,,46.0672050805,7.78111832736,Renewable energy,Hydro,
KW Jungbach,,,,St. Niklaus,CH,4.7,Hydro,Run-of-river,,,,2015.0,,BFE,,46.1875857555,7.80376246261,Renewable energy,Hydro,
"KW Siwibach (Eisten, VS)",,,,"Eisten, VS",CH,1.0,Hydro,Run-of-river,,,,2014.0,,BFE,,46.1797220622,7.91106743398,Renewable energy,Hydro,
Törbel (Gappil),,,,"Törbel, Gappil",CH,0.49,Hydro,Run-of-river,,,,2010.0,- Trinkwasserkraftwerk; ,BFE,,46.2347493762,7.84867201981,Renewable energy,Hydro,
Riedji,,,,"Stalden, Riedji",CH,0.59,Hydro,Run-of-river,,,,1929.0,"- Im Sommer kann nur das Überschusswasser der Gamsa turbiniert werden; das Hauptdargebot dient der Bewässerung  ;   von Visperterminen; - Unternehmung: IG Gemeinden Brig-Glis, Visperterminen und Stalden; - Rechtsgrundlage:	Konzessionsverhandlungen im Gange                     ; ",BFE,,46.2393596552,7.89006330756,Renewable energy,Hydro,
Ackersand 1,,,,"Stalden, Ackersand",CH,29.2,Hydro,Run-of-river,,,,1999.0,,BFE,,46.239778934,7.87489823485,Renewable energy,Hydro,
Ackersand 2,,,,"Stalden, Ackersand",CH,64.4,Hydro,Run-of-river,,,,1959.0,,BFE,,46.240231203,7.87425362084,Renewable energy,Hydro,
Baltschieder,,,,Baltschieder,CH,0.33,Hydro,Run-of-river,,,,1994.0,- Trinkwasserkraftwerk; ,BFE,,46.3075293023,7.87167668529,Renewable energy,Hydro,
Kalter Brunnen,,,,Tscherggen,CH,0.5,Hydro,Run-of-river,,,,2000.0,-Trinkwasserkraftwerk; ,BFE,,46.3124055348,7.81615308604,Renewable energy,Hydro,
Ginals,,,,Unterbäch,CH,1.3,Hydro,Run-of-river,,,,2010.0,,BFE,,46.2659175633,7.78158838307,Renewable energy,Hydro,
KWKW Bachtoli,,,,Eischoll,CH,0.98,Hydro,Run-of-river,,,,2014.0,,BFE,,46.2926424983,7.77903138525,Renewable energy,Hydro,
Unterbäch,,,,Unterbäch,CH,0.85,Hydro,Run-of-river,,,,1995.0,,BFE,,46.2857490893,7.79741347619,Renewable energy,Hydro,
Turtig,,,,Raron,CH,1.06,Hydro,Run-of-river,,,,2007.0,,BFE,,46.3012328337,7.79388128295,Renewable energy,Hydro,
Chriz,,,,"Niedergesteln, Turtig",CH,0.55,Hydro,Run-of-river,,,,2011.0,,BFE,,46.3017818766,7.79089962744,Renewable energy,Hydro,
Niedergesteln,,,,Niedergesteln,CH,0.33,Hydro,Run-of-river,,,,2008.0,- Trinkwasserkraftwerk; ,BFE,,46.3280600652,7.78743366168,Renewable energy,Hydro,
Niedergesteln,,,,Niedergesteln,CH,0.58,Hydro,Run-of-river,,,,2008.0,- Trinkwasserkraftwerk;  ; ,BFE,,46.3142105265,7.78617657396,Renewable energy,Hydro,
Fafleralp,,,,Blatten,CH,1.25,Hydro,Run-of-river,,,,2012.0,,BFE,,46.4296977536,7.84571987097,Renewable energy,Hydro,
Blatten,,,,Blatten,CH,0.45,Hydro,Run-of-river,,,,1994.0,- Gesuch um Konzessionserneuerung ist beim Kanton Wallis; ,BFE,,46.4229430636,7.82212420241,Renewable energy,Hydro,
Wiler,,,,Wiler (Lötschen),CH,1.4,Hydro,Run-of-river,,,,2010.0,,BFE,,46.4069461254,7.78950019889,Renewable energy,Hydro,
KWKW Dornbach,,,,Ferden,CH,0.99,Hydro,Run-of-river,,,,2013.0,,BFE,,46.3912093026,7.75702702489,Renewable energy,Hydro,
Lötschen,,,,Steg-Hohtenn,CH,122.0,Hydro,Run-of-river,,,,2008.0,- Nutzungsdauer:  Die Anlage ist auf eine hohe Leistung ausgelegt. Die Nutzungsdauer ist entsprechend kurz  (0 - 10 Tage im Jahr)  ;                    ;                                           ; ,BFE,,46.3197285465,7.74427490433,Renewable energy,Hydro,
Oberems (Borterbach),,,,Oberems,CH,0.75,Hydro,Run-of-river,,,,2009.0,,BFE,,46.2480316908,7.70938258125,Renewable energy,Hydro,
Illsee,,,,Oberems,CH,8.2,Hydro,Pumped storage,,,,1942.0,- Installierte Leistung der Pumpen sowie maximal mögliche Leistungsaufnahme der Motoren inklusive Druckerhöhungspumpe      ; - Pumpe Oberems wird nur als Zubringerpumpe eingesetzt; - Kote Maschinensaalboden bezieht sich auf die Höhe der Turbinenachse    ;                    ; ,BFE,,46.2832519814,7.68879773306,Renewable energy,Hydro,
Illsee,,,,"Oberems, Meretschialp",CH,0.0,Hydro,Pumped storage,,,,1955.0,,BFE,,46.2608306213,7.65588229667,Renewable energy,Hydro,
Turtmann,,,,"Turtmann, Müllacheren",CH,23.9,Hydro,Reservoir,,,,1954.0,- Kote Maschinensaalboden bezieht sich auf die Höhe der Turbinenachse; ,BFE,,46.2954022598,7.68599836405,Renewable energy,Hydro,
Dala,,,,"Dalaloch, Leuk-Stadt",CH,13.0,Hydro,Run-of-river,,,,2014.0,,BFE,,46.3187294651,7.62378458261,Renewable energy,Hydro,
Chippis-Rhône,,,,Chippis,CH,47.84,Hydro,Run-of-river,,,,1998.0,,BFE,,46.2819458712,7.54749996634,Renewable energy,Hydro,
Lona,,,,"Grimentz-Lona, Val de Moiry",CH,1.05,Hydro,Run-of-river,,,,1961.0,,BFE,,46.1551994564,7.54582501443,Renewable energy,Hydro,
Mottec,,,,"Ayer, Mottec",CH,71.0,Hydro,Pumped storage,,,,1958.0,- Base pour les données relatives aux machines de la centrale:  ;   Débit max.turbiné:	Palier Moiry-Mottec    = 12.00 m3/s; Palier Turtmann-Mottec    =  6.00 m3/s    ;   Débit max.refoulé: Palier Moiry-Mottec    =   3.90 m3/s; Palier Turtmann-Mottec    =  6.40 m3/s                   	    ;   Puissance installée totale des pompes: Palier Mottec-Moiry    = 25.10 MW; Palier Turtmann-Mottec-Moiry   =  6.60 MW     ;   Puissance maximale absorbée par les moteurs:	Palier Mottec-Moiry	=  28.00 MW; Palier Turtmann-Mottec-Moiry   =  7.50 MW; - La centrale Mottec fait pompage-turbinage                   	    ;                           ;                      	      ;                      	     ;                     ,BFE,,46.153036238,7.61998842797,Renewable energy,Hydro,
Vissoie,,,,"Ayer, Vissoie",CH,50.0,Hydro,Reservoir,,,,1958.0,"- Les centrales de Vissoie et Vissoie ""groupe auxiliaire"" se trouvent dans le même bâtiment    ;                                ; ",BFE,,46.2099376546,7.58596983367,Renewable energy,Hydro,
"Vissoie ""groupe auxiliaire""",,,,"Ayer, Vissoie",CH,0.68,Hydro,Run-of-river,,,,1958.0,"- Les centrales de Vissoie et Vissoie ""groupe auxiliaire"" se trouvent dans le même bâtiment; - La production de Vissoie ""groupe auxiliaire"" est y compris dans la production de la centrale Vissoie    ;                                  ; ",BFE,,46.2099376546,7.58596983367,Renewable energy,Hydro,
Navisence,,,,Chippis,CH,52.0,Hydro,Reservoir,,,,1956.0,- De plus une turbine de réserve avec une puissance de 24.3 MW.;  ; ,BFE,,46.2813172873,7.54633103324,Renewable energy,Hydro,
Croix,,,,Croix / Ayent,CH,66.0,Hydro,Reservoir,,,,1999.0,,BFE,,46.3081744934,7.43410089912,Renewable energy,Hydro,
Chamarin,,,,Chamarin / Ayent,CH,1.9,Hydro,Run-of-river,,,,1957.0,,BFE,,46.3148311156,7.43176341997,Renewable energy,Hydro,
Centrale de turb. lac d'Icogne,,,,Icogne,CH,2.0,Hydro,Run-of-river,,,,2012.0,,BFE,,46.3059257158,7.43851437386,Renewable energy,Hydro,
St-Léonard,,,,"St-Léonard, Mangol",CH,36.0,Hydro,Reservoir,,,,1998.0,,BFE,,46.260587705,7.44474052981,Renewable energy,Hydro,
Beulet,,,,St. Léonard,CH,0.72,Hydro,Run-of-river,,,,1990.0,,BFE,,46.2682325663,7.42100406459,Renewable energy,Hydro,
Sauterot (Hérémence LYSA),,,,"Hérémence, Sauterot",CH,5.1,Hydro,Run-of-river,,,,1977.0,,BFE,,46.1699973881,7.40653607429,Renewable energy,Hydro,
Sauterôt (Hérémence FMdB),,,,Hérémence,CH,0.6,Hydro,Run-of-river,,,,2012.0,,BFE,,46.1707174053,7.40783042964,Renewable energy,Hydro,
La Dixence,,,,"Siviez, Cleuson",CH,0.0,Hydro,Reservoir,,,,1950.0,,BFE,,46.1127290441,7.3218520553,Renewable energy,Hydro,
La Zour,,,,Savièse,CH,0.46,Hydro,Run-of-river,,,,2004.0,- Turbinage de l'eau potable; ,BFE,,46.2744977933,7.35289555834,Renewable energy,Hydro,
Arbaz I (Comba Energies),,,,Arbaz,CH,0.59,Hydro,Run-of-river,,,,2010.0,- Turbinage de leau potable. Permission du 14.06.2010; ,BFE,,46.2682177813,7.37884786057,Renewable energy,Hydro,
Arbaz II (Sionne Energie),,,,Savièse,CH,0.58,Hydro,Run-of-river,,,,2015.0,,BFE,,46.2464389011,7.36318337545,Renewable energy,Hydro,
Rochers,,,,Savièse,CH,0.33,Hydro,Run-of-river,,,,2001.0,-Turbinage de l'eau potable; ,BFE,,46.2633429435,7.35252424065,Renewable energy,Hydro,
"Reserv. de Péteille, Vétroz",,,,"Vétroz, Péteille",CH,0.73,Hydro,Run-of-river,,,,2015.0,,BFE,,46.2269117894,7.27325930917,Renewable energy,Hydro,
Ardon,,,,Ardon,CH,52.0,Hydro,Run-of-river,,,,1996.0,,BFE,,46.2167209401,7.25657347569,Renewable energy,Hydro,
Balavaud,,,,Balavaud / Ardon,CH,0.48,Hydro,Run-of-river,,,,1971.0,- Turbinage des eaux potables des communes de Vétroz et Ardon   ; ,BFE,,46.2209490674,7.2566888557,Renewable energy,Hydro,
Grande Dixence,,,,Stafel,CH,0.0,Hydro,Reservoir,,,,1961.0,- Energie restituée:	Voir la centrale de Nendaz                ; ,BFE,,46.0047716534,7.67810397785,Renewable energy,Hydro,
Grande Dixence,,,,Z'Mutt,CH,0.0,Hydro,Reservoir,,,,1965.0,- Energie restituée: 	Voir la centrale de Nendaz                 ; ,BFE,,46.0062309114,7.70909195632,Renewable energy,Hydro,
Grande Dixence,,,,Ferpècle,CH,0.0,Hydro,Reservoir,,,,1964.0,- Energie restituée: 	Voir la centrale de Nendaz                 ; ,BFE,,46.0592145454,7.54848086406,Renewable energy,Hydro,
Grande Dixence,,,,Arolla,CH,0.0,Hydro,Reservoir,,,,1963.0,- Energie restituée: 	Voir la centrale de Nendaz                 ; ,BFE,,46.013561516,7.48383646934,Renewable energy,Hydro,
Cleuson-Dixence,,,,Riddes,CH,1285.0,Hydro,Reservoir,,,,1999.0,"- Production moyenne: 	 L'exploitation des 4 centrales Bieudron, Fionnay(Dixence), Nendaz et Chandoline alimentées par les eaux du lac; 			 des Dix a pour objectif d'obtenir le meilleur rendement possible;  ;                                                 ;                          ;                           ;                                             ;           ; ",BFE,,46.1829790765,7.25150652126,Renewable energy,Hydro,
Grande Dixence,,,,Fionnay,CH,306.0,Hydro,Reservoir,,,,1957.0,"- Production moyenne: 	L'exploitation des 4 centrales Bieudron, Fionnay(Dixence), Nendaz et Chandoline alimentées par les eaux ;                             		du lac des Dix a pour objectif d'obtenir le meilleur rendement possible; - Cours d'eau utilisés:  	En plus 27 cours d'eau de glacier:; 			Vallée de Zermatt est et sud; 			Val d'Arolla sud et ouest; 			Val Ferpècle est;                          ;                           ;                                              ; ",BFE,,46.0357066662,7.30341919624,Renewable energy,Hydro,
Grande Dixence,,,,Riddes,CH,392.0,Hydro,Reservoir,,,,1960.0,"- Production moyenne: 	L'exploitation des 4 centrales  Bieudron, Fionnay(Dixence), Nendaz et Chandoline alimentées par les eaux ;                            		du lac des Dix a pour objectif d'obtenir le meilleur rendement possible; - Cours d'eau utilisés:  	En plus 27 cours d'eau de glacier:; 			Vallée de Zermatt est et sud; 			Val d'Arolla sud et ouest; 			Val Ferpècle est;                          ;                           ;                                              ; ",BFE,,46.1829790765,7.25150652126,Renewable energy,Hydro,
1er Palier Isérables c. Arcay,,,,Isérables,CH,0.35,Hydro,Run-of-river,,,,2013.0,,BFE,,46.1609354297,7.24886403999,Renewable energy,Hydro,
"Les Pontets, Com. de Riddes",,,,"Les Pontets, Riddes",CH,0.45,Hydro,Run-of-river,,,,2014.0,,BFE,,46.1295458122,7.25182026579,Renewable energy,Hydro,
Riddes (l'eau potable),,,,"Riddes, Pied du Mont",CH,0.31,Hydro,Run-of-river,,,,2009.0,,BFE,,46.1689050258,7.2283790358,Renewable energy,Hydro,
Chanrion,,,,"Fionnay, Mauvoisin",CH,30.0,Hydro,Run-of-river,,,,1964.0,,BFE,,45.99977203,7.35062083304,Renewable energy,Hydro,
Fionnay (Mauvoisin),,,,Fionnay,CH,140.0,Hydro,Reservoir,,,,1992.0,,BFE,,46.0304047252,7.30795254991,Renewable energy,Hydro,
Riddes,,,,"Riddes, Ecône",CH,258.0,Hydro,Reservoir,,,,1992.0,,BFE,,46.1574432142,7.20926514067,Renewable energy,Hydro,
Turbinage Jora - Afforêts,,,,Leytron,CH,0.47,Hydro,Run-of-river,,,,2013.0,"- Turbinage l'eau potable, permission du 16 septembre 2009; ",BFE,,46.1911570385,7.1997964841,Renewable energy,Hydro,
Fully,,,,"Lac-Devant, Sorniot",CH,0.0,Hydro,Reservoir,,,,1960.0,,BFE,,46.1668831687,7.1002106836,Renewable energy,Hydro,
Champsec,,,,Champsec,CH,8.7,Hydro,Run-of-river,,,,1994.0,,BFE,,46.0571253575,7.24806388388,Renewable energy,Hydro,
STEP Vallée Bagnes,,,,"Le Châble, Bagnes",CH,0.4,Hydro,Run-of-river,,,,2007.0,- Turbinage des eaux usées; ,BFE,,46.0827671918,7.20311685212,Renewable energy,Hydro,
Pas-du-Lein,,,,Pas-du Lein,CH,0.47,Hydro,Run-of-river,,,,1998.0,- Turbinage de l'eau potable; ,BFE,,46.1141701715,7.16702258324,Renewable energy,Hydro,
Vollèges-Cries,,,,Vollèges,CH,0.9,Hydro,Run-of-river,,,,2009.0,- Turbinage d'eau d'irrigation; ,BFE,,46.0935060212,7.17785746662,Renewable energy,Hydro,
Hospitalet,,,,L'Hospitalet,CH,1.47,Hydro,Run-of-river,,,,1963.0,,BFE,,45.8860019638,7.18722185045,Renewable energy,Hydro,
Pallazuit,,,,Liddes,CH,33.4,Hydro,Reservoir,,,,1958.0,,BFE,,45.9810884929,7.18949243196,Renewable energy,Hydro,
Niollet 1,,,,"Le Niollet, Champex",CH,0.32,Hydro,Run-of-river,,,,2004.0,- Centrale auxiliaire                                           ; ,BFE,,46.0219359255,7.12138441237,Renewable energy,Hydro,
Niollet 2,,,,Orsières,CH,1.2,Hydro,Run-of-river,,,,1996.0,- Les centrales Orsières et Niollet 2 se trouvent dans le même bâtiment  ;                                                       ; ,BFE,,46.0211838851,7.14243628028,Renewable energy,Hydro,
Orsières,,,,Orsières,CH,26.4,Hydro,Run-of-river,,,,1958.0,- Les centrales Orsières et Niollet 2 se trouvent dans le même bâtiment  ;                                                         ; ,BFE,,46.0210935902,7.14230764616,Renewable energy,Hydro,
Orsières,,,,Pt. de la Tsi / Liddes,CH,0.0,Hydro,Run-of-river,,,,1943.0,,BFE,,45.9950854665,7.1738116591,Renewable energy,Hydro,
Sembrancher,,,,"Sembrancher, Les Moulins",CH,11.0,Hydro,Run-of-river,,,,1929.0,,BFE,,46.079152002,7.15672724814,Renewable energy,Hydro,
Martigny-Bourg,,,,Martigny-Bourg,CH,22.0,Hydro,Run-of-river,,,,1945.0,,BFE,,46.0883098661,7.05906976663,Renewable energy,Hydro,
Pont-Neuf,,,,Martigny-Combe,CH,0.93,Hydro,Run-of-river,,,,1981.0,- Turbinage de l'eau potable     ; ,BFE,,46.073184867,7.05542701654,Renewable energy,Hydro,
Trient,,,,Le Châtelard,CH,1.0,Hydro,Run-of-river,,,,1995.0,,BFE,,46.0583372445,6.96030038614,Renewable energy,Hydro,
Châtelard-Barberine,,,,Le Châtelard,CH,112.0,Hydro,Pumped storage,,,,1977.0,- Cote du plancher de la salle des machines de Châtelard-Barberine 2 = 1122.00       ; - Débit maximale turbiné: 	Châtelard-Barberine 1 =  8 m3/s                                           ;        			Châtelard-Barberine 2 = 12 m3/s; - Puissance maximale disponible aux bornes des alternateurs:                                 ;     			Châtelard-Barberine 1 = 46 MW;                           		Châtelard-Barberine 2 = 82 MW          ; - Pour la production moyenne escomptée aux bornes des alternateurs on suppose une exploitation normale de Châtelard-Barberine 1;   et Châtelard-Barberine 2; - La centrale Châtelard-Barberine 2 fait pompage-turbinage                                 ;            ,BFE,,46.0620181656,6.95858815009,Renewable energy,Hydro,
Emosson,,,,Vallorcine,CH,260.5,Hydro,Reservoir,,,,1978.0,"- Données relatives aux machines de la centrale Châtelard-Vallorcine, groupes 1 à 3 à axe vertical:     ;     Haute chute: 		Débit max.turbiné 		    	=   35.0 m3/s;     (Lac d'Emosson)      	Puissance inst.des turb.Pelton Gr.1-3	= 210.0 MW  ;                			Puissance max.disponible       Gr.1-3	= 210.0 MW  ;     Basse chute: 		Débit max.turbiné                    		=  15.0 m3/s;     (Bassin des Esserts)  	Puiss.inst.des turb.Francis axe Gr.1 	=  50.5 MW  ;                			Puissance max.disponible        Gr.1 	=  48.5 MW                    ; - Les équipements haute chute, basse chute et Centrale de pompage de Châtelard-Vallorcine se trouvent dans le même bâtiment et leur;   fonctionnement est étroitement lié;        ",BFE,,46.0508221655,6.94899701138,Renewable energy,Hydro,
Emosson,,,,"Salvan, Alpage de Barberine",CH,0.0,Hydro,Reservoir,,,,1978.0,,BFE,,46.085765669,6.91791404295,Renewable energy,Hydro,
Emosson,,,,Vallorcine,CH,0.0,Hydro,Reservoir,,,,1978.0,"- Les équipements haute chute, basse chute et Centrale de pompage de Châtelard-Vallorcine se trouvent dans le même       ;   bâtiment et leur fonctionnement est étroitement lié        ;             ; ",BFE,,46.0508221655,6.94899701138,Renewable energy,Hydro,
Vernayaz (CFF),,,,Vernayaz,CH,92.0,Hydro,Reservoir,,,,1990.0,,BFE,,46.1332077915,7.03598337007,Renewable energy,Hydro,
Turbinage Salvan et Vernayaz,,,,Vernayaz,CH,0.46,Hydro,Run-of-river,,,,2013.0,,BFE,,46.1338328331,7.0346848085,Renewable energy,Hydro,
Emosson,,,,Martigny,CH,170.0,Hydro,Reservoir,,,,1978.0,,BFE,,46.1098184883,7.06176506313,Renewable energy,Hydro,
Salanfe,,,,"Vernayaz, Miéville",CH,70.0,Hydro,Reservoir,,,,2012.0,- 435.73 m.s.m. (= cote des injecteurs); ,BFE,,46.1464058483,7.02889676253,Renewable energy,Hydro,
Salanfe,,,,Giétroz du Fond,CH,0.0,Hydro,Reservoir,,,,1965.0,,BFE,,46.1396566091,6.88168142131,Renewable energy,Hydro,
Salanfe,,,,Clusanfe,CH,0.0,Hydro,Reservoir,,,,1963.0,,BFE,,46.1350007179,6.88612860078,Renewable energy,Hydro,
Aboyeu,,,,Collonges,CH,3.3,Hydro,Run-of-river,,,,1981.0,,BFE,,46.1819570581,7.03393846048,Renewable energy,Hydro,
La Rasse,,,,"Evionnaz, La Rasse",CH,0.72,Hydro,Run-of-river,,,,1998.0,- Turbinage de l'eau potable; ,BFE,,46.1813257215,7.0092074642,Renewable energy,Hydro,
Lavey,,,,Lavey,CH,90.0,Hydro,Run-of-river,,,,1990.0,- Bases juridiques: Année d'échéance des concessions VD = 2030; VS = 2030            ;                                            ; ,BFE,,46.2144442208,7.01296270519,Renewable energy,Hydro,
La Peuffeyre,,,,La Peuffeyre,CH,24.0,Hydro,Run-of-river,,,,2004.0,,BFE,,46.2659833584,7.06171756484,Renewable energy,Hydro,
Sublin 1,,,,Bex,CH,8.0,Hydro,Run-of-river,,,,1993.0,- Les centrales Sublin 1 et Sublin 2 se trouvent dans le même bâtiment  ;                                                        ; ,BFE,,46.2650997419,7.04019258223,Renewable energy,Hydro,
Sublin 2,,,,Bex,CH,2.61,Hydro,Run-of-river,,,,2013.0,- Les centrales Sublin 1 et Sublin 2 se trouvent dans le même bâtiment  ; - Base juridique: Source privée; - Turbinage de l'eau potable                                                        ;                                  ; ,BFE,,46.2650997419,7.04019258223,Renewable energy,Hydro,
Bevieux,,,,Le Bevieux,CH,1.9,Hydro,Run-of-river,,,,1943.0,,BFE,,46.2603811856,7.02881412738,Renewable energy,Hydro,
Champéry Etrivouez,,,,"Etrivouez, Grand Paradis",CH,0.97,Hydro,Run-of-river,,,,1990.0,- Base juridique: Sources privées                               ; ,BFE,,46.161762733,6.85918766723,Renewable energy,Hydro,
Torrent de Soi,,,,"La Frassenaye, Val d'Jlliez",CH,0.92,Hydro,Run-of-river,,,,2005.0,,BFE,,46.1860308699,6.89104970296,Renewable energy,Hydro,
Monthey (Vièze),,,,Monthey,CH,13.6,Hydro,Run-of-river,,,,1999.0,- La centrale de Monthey (Tine) est contigue à la centrale de Monthey (Vièze)    ;                                                  ; ,BFE,,46.2492602077,6.94720705322,Renewable energy,Hydro,
Monthey (Tine),,,,"Monthey, Les Nants",CH,9.8,Hydro,Run-of-river,,,,1994.0,- La centrale de Monthey (Tine) est contigue à la centrale de Monthey (Vièze)    ;                                                   ; ,BFE,,46.2492602077,6.94720705322,Renewable energy,Hydro,
Monthey (Commune),,,,Monthey,CH,0.4,Hydro,Run-of-river,,,,1992.0,,BFE,,46.2496081279,6.94448084181,Renewable energy,Hydro,
Chable II,,,,"Vionnaz, Beffeux",CH,0.42,Hydro,Run-of-river,,,,2014.0,- Trinkwasserkraftwerk; ,BFE,,46.3078615869,6.89669954474,Renewable energy,Hydro,
Diablerets,,,,"Les Diablerets, Le Plan",CH,5.4,Hydro,Reservoir,,,,1957.0,- Base juridique: Négociation relative à la concession en cours ; ,BFE,,46.3530641075,7.15465044855,Renewable energy,Hydro,
Pont de la Tine,,,,"Ormont-Dessous, Le Pont",CH,10.6,Hydro,Run-of-river,,,,1991.0,,BFE,,46.348145567,7.04451800887,Renewable energy,Hydro,
Pont de la Tine  Coussy-Loudze,,,,"Ormont - Dessous, Le Pont",CH,0.39,Hydro,Run-of-river,,,,2013.0,,BFE,,46.3474245655,7.04413354848,Renewable energy,Hydro,
"La Douve, Aigle",,,,"Aigle, En la Douve",CH,0.46,Hydro,Run-of-river,,,,2000.0,- Turbinage des eaux usées; ,BFE,,46.3277994563,7.01531866907,Renewable energy,Hydro,
Micro-centrale de Fontanney,,,,"Les Farettes, Aigle",CH,0.33,Hydro,Run-of-river,,,,1997.0,- Cours d'eau utilisés: La centrale utilise le trop plein du réservoir d'eau potable d'Aigle et partiellement les eaux du torrent de Fontanney; ,BFE,,46.3170626321,6.98398364412,Renewable energy,Hydro,
Vouvry,,,,"Vouvry, Haut du Village",CH,8.0,Hydro,Reservoir,,,,1953.0,,BFE,,46.3361244664,6.88148115355,Renewable energy,Hydro,
"Croseau, Saint-Gingolph",,,,"Saint-Gingolph, Vignolles",CH,0.35,Hydro,Run-of-river,,,,2009.0,,BFE,,46.3877224781,6.80580981556,Renewable energy,Hydro,
Sonzier,,,,"Montreux, Sonzier",CH,1.65,Hydro,Run-of-river,,,,1971.0,,BFE,,46.4403231332,6.92517165399,Renewable energy,Hydro,
Taulan,,,,"Les Planches, Taulan",CH,1.2,Hydro,Run-of-river,,,,1996.0,,BFE,,46.4339054895,6.91846679903,Renewable energy,Hydro,
Rivaz (Le Forestay),,,,Rivaz,CH,0.73,Hydro,Run-of-river,,,,2014.0,,BFE,,46.4746425288,6.77770904753,Renewable energy,Hydro,
Plan-Dessous,,,,Aubonne,CH,10.7,Hydro,Run-of-river,,,,2001.0,,BFE,,46.4992089696,6.3858086765,Renewable energy,Hydro,
La Petite Vaux,,,,Lavigny,CH,3.31,Hydro,Run-of-river,,,,2008.0,,BFE,,46.4888599452,6.40502679993,Renewable energy,Hydro,
Seujet,,,,Genève,CH,8.7,Hydro,Run-of-river,,,,1994.0,Fonctions de l'ouvrage du Seujet:	- Régulariser le niveau du Lac Léman; 			     	- Moduler le débit du Rhône pour l'usine de Verbois; 			        	 ; ,BFE,,46.2031197477,6.13447158551,Renewable energy,Hydro,
Vessy,,,,"Veyrier, Iles de Vessy",CH,0.32,Hydro,Run-of-river,,,,2007.0,,BFE,,46.1790567398,6.17027683448,Renewable energy,Hydro,
Verbois,,,,Russin,CH,102.8,Hydro,Run-of-river,,,,1999.0,,BFE,,46.1913941292,6.02735734063,Renewable energy,Hydro,
Chancy-Pougny,,,,Avully / Chancy,CH,54.0,Hydro,Run-of-river,,,,2013.0,,BFE,,46.1604259494,5.9764989749,Renewable energy,Hydro,
Chancy-Pougny Dot. passe pois.,,,,Challex,CH,0.48,Hydro,Run-of-river,,,,2013.0,- Centrale de Dotation de la passe à poissons; ,BFE,,46.1593164285,5.97419822603,Renewable energy,Hydro,
La Rançonnière,,,,"Les Brenets, La Rançonnière",CH,1.6,Hydro,Run-of-river,,,,1984.0,- Cote du plancher de la salle de la machine 3 = 824.20        ; ,BFE,,47.0529629931,6.71594514968,Renewable energy,Hydro,
Am. de dotation du Châtelot,,,,Les Planchettes,CH,1.0,Hydro,Run-of-river,,,,2005.0,,BFE,,47.1014437602,6.74440337669,Renewable energy,Hydro,
Le Châtelot,,,,Les Planchettes,CH,31.6,Hydro,Run-of-river,,,,1953.0,,BFE,,47.1209584467,6.77393285741,Renewable energy,Hydro,
Refrain,,,,Echelles de la Mort,CH,12.0,Hydro,Run-of-river,,,,1956.0,,BFE,,47.1876938239,6.87311737175,Renewable energy,Hydro,
La Goule,,,,Le Noirmont,CH,5.6,Hydro,Run-of-river,,,,1958.0,- Cote du plancher de la salle de la machine 3 = 513.37        ;  ; ,BFE,,47.2287001901,6.92853835569,Renewable energy,Hydro,
Ossasco,,,,"Bedretto, Ossasco",CH,1.27,Hydro,Run-of-river,,,,2012.0,,BFE,,46.5126365625,8.53838477213,Renewable energy,Hydro,
Sella,,,,Motti della Bolla,CH,1.93,Hydro,Reservoir,,,,1991.0,,BFE,,46.5524637488,8.58666190321,Renewable energy,Hydro,
Lucendro,,,,Airolo,CH,60.0,Hydro,Reservoir,,,,1947.0,,BFE,,46.5263515901,8.59770900919,Renewable energy,Hydro,
Lucendro,,,,Cap.dei Morti,CH,0.0,Hydro,Reservoir,,,,1947.0,,BFE,,46.5523390702,8.57218411816,Renewable energy,Hydro,
Calcaccia,,,,"Airolo, Launc",CH,3.6,Hydro,Run-of-river,,,,1988.0,- Base giuridica: Discussioni in corso per un rinnovo della concessione; ,BFE,,46.5194921171,8.6345754932,Renewable energy,Hydro,
Ritom,,,,Piotta,CH,44.0,Hydro,Reservoir,,,,1958.0,- Fine della concessione per l'Unteralpreuss ed il Medelserrhein 2043      ;                                ; ,BFE,,46.5172567651,8.67531756408,Renewable energy,Hydro,
Stalvedro (AET),,,,Piotta,CH,14.0,Hydro,Run-of-river,,,,1968.0,,BFE,,46.5174111108,8.67766693812,Renewable energy,Hydro,
Tremorgio,,,,Rodi-Fiesso,CH,10.0,Hydro,Reservoir,,,,1925.0,,BFE,,46.4902114363,8.73670424626,Renewable energy,Hydro,
Ri di Foch 2 Prato (Leventina),,,," Prato Leventina, P. di Masc.",CH,0.31,Hydro,Run-of-river,,,,2008.0,,BFE,,46.480190595,8.74753439559,Renewable energy,Hydro,
Ceresa 1,,,,Faido,CH,2.0,Hydro,Run-of-river,,,,1950.0,,BFE,,46.4856544595,8.78804420318,Renewable energy,Hydro,
"Piumogna, Dalpe",,,,Dalpe,CH,1.0,Hydro,Run-of-river,,,,2000.0,,BFE,,46.4665637849,8.76660589676,Renewable energy,Hydro,
Piottino,,,,"Lavorgo, Nivo di Chironico",CH,72.9,Hydro,Run-of-river,,,,1958.0,,BFE,,46.4383309577,8.83996336006,Renewable energy,Hydro,
Ticinetto,,,,Chironico,CH,2.9,Hydro,Run-of-river,,,,1998.0,,BFE,,46.4195742834,8.85066701859,Renewable energy,Hydro,
Nuova Biaschina,,,,Personico,CH,141.0,Hydro,Run-of-river,,,,1974.0,,BFE,,46.3649512107,8.92878536777,Renewable energy,Hydro,
Luzzone,,,,Ghirone,CH,20.0,Hydro,Run-of-river,,,,1963.0,,BFE,,46.565256077,8.96078316021,Renewable energy,Hydro,
Olivone,,,,Olivone,CH,102.0,Hydro,Reservoir,,,,1962.0,,BFE,,46.5396795136,8.94911144856,Renewable energy,Hydro,
Biasca,,,,Biasca,CH,324.0,Hydro,Reservoir,,,,2007.0,,BFE,,46.3349885216,8.98264959939,Renewable energy,Hydro,
Spina (Isola),,,,"Mesocco, Spina",CH,20.9,Hydro,Reservoir,,,,1962.0,- Centrali di Spina (Isola) e Spina (Valbella) in una caverna    ; ,BFE,,46.431134362,9.20699910427,Renewable energy,Hydro,
Spina (Valbella),,,,"Mesocco, Spina",CH,4.2,Hydro,Run-of-river,,,,1963.0,- Centrali di Spina (Isola) e Spina (Valbella) in una caverna     ; ,BFE,,46.431134362,9.20699910427,Renewable energy,Hydro,
Mesocco (Nan Ros),,,,"Mesocco, Camou",CH,0.35,Hydro,Run-of-river,,,,2010.0,- Centrale ad acqua potabile; ,BFE,,46.4196352889,9.23446723925,Renewable energy,Hydro,
Soazza,,,,Soazza,CH,83.0,Hydro,Run-of-river,,,,1961.0,,BFE,,46.3424239041,9.21216635065,Renewable energy,Hydro,
Lostallo,,,,"Lostallo, Rura",CH,25.0,Hydro,Run-of-river,,,,1958.0,,BFE,,46.3219576602,9.20903078792,Renewable energy,Hydro,
Tecnicama,,,,Piani di Verdabbio,CH,0.3,Hydro,Run-of-river,,,,1987.0,,BFE,,46.2851556545,9.17421837591,Renewable energy,Hydro,
Grono,,,,"Grono, Oltra",CH,37.5,Hydro,Run-of-river,,,,1965.0,,BFE,,46.2420119954,9.15352000435,Renewable energy,Hydro,
Calancasca,,,,Roveredo,CH,20.8,Hydro,Run-of-river,,,,1951.0,,BFE,,46.2392079506,9.11854962054,Renewable energy,Hydro,
Morobbia,,,,Giubiasco,CH,15.5,Hydro,Run-of-river,,,,1970.0,- Base giuridica: Discussioni in corso per un rinnovo della concessione; ,BFE,,46.1680636081,9.01689952707,Renewable energy,Hydro,
Verzasca (Gordola),,,,Gordola,CH,132.5,Hydro,Reservoir,,,,1965.0,,BFE,,46.1942167756,8.84910111686,Renewable energy,Hydro,
Verzasca (Tenero),,,,Tenero,CH,4.25,Hydro,Run-of-river,,,,1972.0,,BFE,,46.1816582328,8.85330945367,Renewable energy,Hydro,
Sambuco-Peccia,,,,Piano di Peccia,CH,54.0,Hydro,Pumped storage,,,,1955.0,- Centrali di Peccia (Sambuco) e Peccia (Corgello) in una caverna ; ,BFE,,46.4156418664,8.61147407012,Renewable energy,Hydro,
Corgello-Peccia,,,,Piano di Peccia,CH,0.98,Hydro,Run-of-river,,,,1991.0,- Centrali di Peccia (Sambuco) e Peccia (Corgello) in una caverna ; ,BFE,,46.4156418664,8.61147407012,Renewable energy,Hydro,
Robiei,,,,Robiei,CH,173.0,Hydro,Pumped storage,,,,1968.0,- La centrale di Robiei pratica il pompaggio-turbinaggio        ; ,BFE,,46.4449947898,8.50890150082,Renewable energy,Hydro,
Bavona,,,,San Carlo,CH,140.0,Hydro,Reservoir,,,,1966.0,"- Energia restituita:	 I vari beneficiari sono Stalvedro, Tremorgio, Piottino e Personico                   ;                                                        ;                                                        ;                                                         ;                                                        ; ",BFE,,46.4103537646,8.53761284541,Renewable energy,Hydro,
Cavergno,,,,Cavergno,CH,114.0,Hydro,Reservoir,,,,1955.0,,BFE,,46.3536410924,8.59532353346,Renewable energy,Hydro,
Verbano 1,,,,Brissago,CH,119.0,Hydro,Reservoir,,,,1953.0,,BFE,,46.131824283,8.71678735348,Renewable energy,Hydro,
Verbano 2,,,,Brissago,CH,62.0,Hydro,Reservoir,,,,1973.0,,BFE,,46.1321767287,8.71744263841,Renewable energy,Hydro,
Campo Vallemaggia,,,,Campo Vallemaggia,CH,1.28,Hydro,Run-of-river,,,,2002.0,,BFE,,46.2853101718,8.5086146267,Renewable energy,Hydro,
Cerentino,,,,"Cerentino, Collinasca",CH,1.38,Hydro,Run-of-river,,,,2004.0,,BFE,,46.3065771304,8.5516126454,Renewable energy,Hydro,
Giumaglio,,,,"Someo, Giumaglio",CH,8.94,Hydro,Run-of-river,,,,1967.0,,BFE,,46.2824127218,8.66971883413,Renewable energy,Hydro,
Ponte Brolla,,,,"Tegna, Ponte Brolla",CH,3.1,Hydro,Run-of-river,,,,1958.0,,BFE,,46.18559009,8.75120889324,Renewable energy,Hydro,
Cassarate - Franscinone,,,,Sonvico,CH,5.0,Hydro,Run-of-river,,,,1991.0,,BFE,,46.047992628,8.97466556023,Renewable energy,Hydro,
Sigirino (Monteceneri),,,,Sigirino (Monteceneri),CH,0.84,Hydro,Run-of-river,,,,2015.0,,BFE,,46.0774335119,8.91253368696,Renewable energy,Hydro,
Valmara,,,,Maroggia,CH,0.95,Hydro,Run-of-river,,,,1999.0,- Quota del pavimento della sala macchine: Approssimazione      ;     ;                                                      ; ,BFE,,45.9394453937,8.9776796767,Renewable energy,Hydro,
Gabi,,,,Gabi,CH,11.33,Hydro,Run-of-river,,,,1986.0,,BFE,,46.1882115335,8.0700669845,Renewable energy,Hydro,
Gondo,,,,"Gondo, San Marco",CH,46.0,Hydro,Run-of-river,,,,1979.0,,BFE,,46.196009215,8.1506042231,Renewable energy,Hydro,
Tannuwald,,,,"Gondo, Tannuwald",CH,5.2,Hydro,Run-of-river,,,,1979.0,,BFE,,46.1499409889,8.10793668693,Renewable energy,Hydro,
Palü,,,,"Poschiavo, Alpe Palü",CH,10.4,Hydro,Reservoir,,,,2004.0,,BFE,,46.3724950431,10.0289744735,Renewable energy,Hydro,
Palü,,,,"Poschiavo, Bernina",CH,0.0,Hydro,Reservoir,,,,1923.0,,BFE,,46.4075413892,10.019588316,Renewable energy,Hydro,
Cavaglia,,,,"Poschiavo, Cavaglia",CH,8.3,Hydro,Reservoir,,,,1975.0,,BFE,,46.3680968766,10.0363058541,Renewable energy,Hydro,
Robbia,,,,"S. Carlo, Robbia",CH,27.0,Hydro,Reservoir,,,,2005.0,,BFE,,46.3482642227,10.0610921706,Renewable energy,Hydro,
Pedecosta,,,,"San Carlo, Pedecosta",CH,0.51,Hydro,Run-of-river,,,,2010.0,- Centrale ad acqua potabile; ,BFE,,46.3576454254,10.0757152147,Renewable energy,Hydro,
Campocologno 1,,,,Campocologno,CH,50.0,Hydro,Reservoir,,,,2003.0,,BFE,,46.2321878892,10.1436946334,Renewable energy,Hydro,
Campocologno 2,,,,Campocologno,CH,1.62,Hydro,Reservoir,,,,1950.0,,BFE,,46.2308021117,10.1451821456,Renewable energy,Hydro,
Lizun,,,,Casaccia,CH,6.6,Hydro,Run-of-river,,,,1961.0,,BFE,,46.3806401186,9.65796327585,Renewable energy,Hydro,
Albignawerk Löbbia,,,,Casaccia,CH,86.0,Hydro,Reservoir,,,,2004.0,"- Zentralen Löbbia (Albigna); Löbbia (Forno); Löbbia, Pumpe Maira (Pumpzentrale) und Löbbia, Pumpe Forno (Pumpzentrale);    in einem Gebäudekomplex; - Maschinendaten unter der Voraussetzung, dass Gruppe 2 für das Albignawerk Löbbia in Betrieb steht     ;                                             ;  ;                             ; ",BFE,,46.3749522123,9.65890088302,Renewable energy,Hydro,
Plancanin,,,,Plancanin,CH,0.5,Hydro,Run-of-river,,,,1991.0,,BFE,,46.3638966463,9.71265622238,Renewable energy,Hydro,
Fornowerk Löbbia,,,,Casaccia,CH,9.0,Hydro,Run-of-river,,,,1960.0,"- Zentralen Löbbia (Albigna); Löbbia (Forno); Löbbia, Pumpe Maira (Pumpzentrale) und Löbbia, Pumpe Forno (Pumpzentrale);    in einem Gebäudekomplex  ; - Bei zugeschalteter Gruppe 2 beträgt die Ausbauwassermenge 6.10 m3/s; - Bei zugeschalteter Gruppe 2 beträgt die installierte Leistung 33 MW und die maximal mögliche Leistung 33 MW;        ;  ;       ; ",BFE,,46.3749522123,9.65890088302,Renewable energy,Hydro,
Albignawerk Löbbia,,,,Casaccia,CH,0.0,Hydro,Reservoir,,,,1967.0,"- Zentralen Löbbia (Albigna); Löbbia (Forno); Löbbia, Pumpe Maira (Pumpzentrale) und Löbbia, Pumpe Forno (Pumpzentrale) ;   in einem Gebäudekomplex   ; - Löbbia, Pumpe Maira = Zubringerpumpe zu Albignasee, um Wasser der Maira zu speichern                                                ;   ;             ; ",BFE,,46.3749522123,9.65890088302,Renewable energy,Hydro,
Albignawerk Löbbia,,,,Casaccia,CH,0.0,Hydro,Reservoir,,,,1960.0,"- Zentralen Löbbia (Albigna); Löbbia (Forno); Löbbia, Pumpe Maira (Pumpzentrale) und Löbbia, Pumpe Forno (Pumpzentrale);   in einem Gebäudekomplex  ;                                                 ; ",BFE,,46.3749522123,9.65890088302,Renewable energy,Hydro,
Albignawerk Löbbia,,,,Murtaira,CH,0.0,Hydro,Reservoir,,,,1963.0,,BFE,,46.3690603354,9.67478057273,Renewable energy,Hydro,
Bondo,,,,Bondo,CH,6.9,Hydro,Run-of-river,,,,1962.0,,BFE,,46.3339963909,9.55121328995,Renewable energy,Hydro,
Castasegna,,,,Castasegna,CH,100.0,Hydro,Reservoir,,,,1980.0,,BFE,,46.3360981055,9.51543700775,Renewable energy,Hydro,
Silvaplana,,,,Silvaplana,CH,1.47,Hydro,Run-of-river,,,,1973.0,,BFE,,46.4596242856,9.79337673204,Renewable energy,Hydro,
Pradella - Dotierzentrale,,,,Scuol,CH,0.96,Hydro,Run-of-river,,,,2014.0,,BFE,,46.8050592146,10.3289973638,Renewable energy,Hydro,
Islas,,,,Celerina,CH,4.4,Hydro,Run-of-river,,,,2007.0,,BFE,,46.5056195848,9.85728901713,Renewable energy,Hydro,
"Roseg, Samedan",,,,"Roseg, Samedan",CH,0.31,Hydro,Run-of-river,,,,2003.0,- Seit den 80er Jahren wird das Wasser nicht mehr als Trinkwasser genutzt. ; ,BFE,,46.5117431884,9.87815914687,Renewable energy,Hydro,
Morteratsch,,,,"Pontresina, Morteratsch",CH,0.57,Hydro,Run-of-river,,,,1968.0,- Die Konzession beginn ab der Inbetriebnahmen des neuen KW zu laufen voraussichtlich im Jahre 2017; ,BFE,,46.4525803371,9.94164682347,Renewable energy,Hydro,
Champagna 1,,,,Samedan,CH,0.36,Hydro,Run-of-river,,,,1992.0,,BFE,,46.5419232912,9.89347601258,Renewable energy,Hydro,
Madulain,,,,Madulain,CH,1.56,Hydro,Run-of-river,,,,1980.0,,BFE,,46.5852709512,9.9363025202,Renewable energy,Hydro,
Susasca,,,,Susch,CH,5.86,Hydro,Run-of-river,,,,2015.0,,BFE,,46.7551930076,10.0840366722,Renewable energy,Hydro,
Ouvra Electrica Lavinuoz Lavin,,,,Lavin,CH,3.07,Hydro,Run-of-river,,,,2014.0,,BFE,,46.7689779531,10.1143178662,Renewable energy,Hydro,
Guarda (Ara),,,,Guarda-Giarsun Gmd. Scuol,CH,0.35,Hydro,Run-of-river,,,,1998.0,- Wässerwasserkraftwerk; ,BFE,,46.7684823294,10.1429807693,Renewable energy,Hydro,
Tasnan,,,,Ardez,CH,6.6,Hydro,Run-of-river,,,,2014.0,,BFE,,46.7776529012,10.2257209387,Renewable energy,Hydro,
Tarasp (Ischla),,,,Tarasp,CH,0.92,Hydro,Run-of-river,,,,2010.0,- Trinkwasserkraftwerk; ,BFE,,46.7899029834,10.2837559953,Renewable energy,Hydro,
Clemgia,,,,Scuol,CH,1.9,Hydro,Run-of-river,,,,2001.0,,BFE,,46.7884940361,10.296917759,Renewable energy,Hydro,
Chasura,,,,Strada,CH,0.3,Hydro,Run-of-river,,,,1994.0,- Trinkwasserkraftwerk; ,BFE,,46.8702702474,10.4358013527,Renewable energy,Hydro,
Schergenbach,,,,Samnaun-Compatsch,CH,0.96,Hydro,Run-of-river,,,,1970.0,,BFE,,46.960384617,10.4217681589,Renewable energy,Hydro,
Punt dal Gall-Dotieranlage,,,,Zernez,CH,2.8,Hydro,Run-of-river,,,,1969.0,,BFE,,46.6234441915,10.1932036115,Renewable energy,Hydro,
Ova Spin,,,,Zernez,CH,54.0,Hydro,Pumped storage,,,,1970.0,- Zentrale Ova Spin praktiziert Umwälzbetrieb                  ; ,BFE,,46.6782585306,10.1444753501,Renewable energy,Hydro,
Ova Spin-Dotieranlage,,,,Zernez,CH,0.47,Hydro,Run-of-river,,,,1969.0,,BFE,,46.6782585306,10.1444753501,Renewable energy,Hydro,
Pradella,,,,Scuol,CH,300.0,Hydro,Reservoir,,,,1970.0,,BFE,,46.8045802532,10.3336910022,Renewable energy,Hydro,
Pradella-Martina,,,,Martina,CH,84.0,Hydro,Reservoir,,,,1994.0,,BFE,,46.8821155388,10.4645577137,Renewable energy,Hydro,
Muranzina,,,,Sta.Maria,CH,2.0,Hydro,Run-of-river,,,,1995.0,,BFE,,46.5965486956,10.4278045452,Renewable energy,Hydro,
Chasseras,,,,Müstair/Chasseras,CH,1.07,Hydro,Run-of-river,,,,1991.0,,BFE,,46.614013798,10.4414426528,Renewable energy,Hydro,
Mühleberg,BKW FMB Energie AG,,,Mühleberg,CH,390.0,Hydro,Steam turbine,,,,1972.0,,Schweizerische Eidgenossenschaft,12W-0000000057-Z,45.96917,7.26961,Renewable energy,Hydro,
Gösgen,Kernkraftwerk Gösgen-Däniken AG,,,Däniken,CH,1035.0,Hydro,Steam turbine,,,,1979.0,,Schweizerische Eidgenossenschaft,12W-0000000056-1,47.36552,7.96779,Renewable energy,Hydro,
Beznau 1,Axpo AG,,,Döttingen,CH,380.0,Hydro,Steam turbine,,,,1969.0,,Schweizerische Eidgenossenschaft,12W-0000000017-E,47.55198,8.22825,Renewable energy,Hydro,
Beznau 2,Axpo AG,,,Döttingen,CH,380.0,Hydro,Steam turbine,,,,1971.0,,Schweizerische Eidgenossenschaft,12W-0000000017-E,47.55198,8.22825,Renewable energy,Hydro,
Leibstadt,Kernkraftwerk Leibstadt AG,,,Leibstadt,CH,1245.0,Hydro,Steam turbine,,,,1984.0,,Schweizerische Eidgenossenschaft,12W-0000000052-D,47.60109,8.18259,Renewable energy,Hydro,
